{"type":"FeatureCollection","features":[{"type":"Feature","geometry":{"type":"Point","coordinates":[-4.017,5.323]},"properties":{"id":"cmreo026u0029126qu5xi4ilf","nom":"Présidence de la République","type":"institution","district_region":"Abidjan","departement_commune":"Plateau","verifie":true,"portee":"nationale","source":"Institut National de la Statistique (INS-CI)"}},{"type":"Feature","geometry":{"type":"Point","coordinates":[-4.015,5.325]},"properties":{"id":"cmreo026y002b126qchza89cp","nom":"Primature","type":"institution","district_region":"Abidjan","departement_commune":"Plateau","verifie":true,"portee":"nationale","source":"Institut National de la Statistique (INS-CI)"}},{"type":"Feature","geometry":{"type":"Point","coordinates":[-4.013,5.3195]},"properties":{"id":"cmreo0273002d126q68u9p3fa","nom":"Assemblée Nationale","type":"institution","district_region":"Abidjan","departement_commune":"Plateau","verifie":true,"portee":"nationale","source":"Institut National de la Statistique (INS-CI)"}},{"type":"Feature","geometry":{"type":"Point","coordinates":[-4.02,5.328]},"properties":{"id":"cmreo0277002f126qcx4y1o5h","nom":"Préfecture d'Abidjan","type":"prefecture","district_region":"Abidjan","departement_commune":"Plateau","verifie":true,"portee":"district","source":"Institut National de la Statistique (INS-CI)"}},{"type":"Feature","geometry":{"type":"Point","coordinates":[-5.2893,6.8276]},"properties":{"id":"cmreo027c002h126quj9d2sm3","nom":"Préfecture de Yamoussoukro","type":"prefecture","district_region":"Yamoussoukro","departement_commune":"Yamoussoukro","verifie":true,"portee":"district","source":"Institut National de la Statistique (INS-CI)"}},{"type":"Feature","geometry":{"type":"Point","coordinates":[-5.03,7.6939]},"properties":{"id":"cmreo027g002j126q5122iulh","nom":"Préfecture de Bouaké","type":"prefecture","district_region":"Gbêkê","departement_commune":"Bouaké","verifie":true,"portee":"région","source":"Institut National de la Statistique (INS-CI)"}},{"type":"Feature","geometry":{"type":"Point","coordinates":[-5.6296,9.458]},"properties":{"id":"cmreo027l002l126qc1lnrbux","nom":"Préfecture de Korhogo","type":"prefecture","district_region":"Poro","departement_commune":"Korhogo","verifie":true,"portee":"région","source":"Institut National de la Statistique (INS-CI)"}},{"type":"Feature","geometry":{"type":"Point","coordinates":[-4.018,5.326]},"properties":{"id":"cmreo027p002n126q7q1pijca","nom":"Mairie du Plateau","type":"mairie","district_region":"Abidjan","departement_commune":"Plateau","verifie":true,"portee":"communale","source":"Institut National de la Statistique (INS-CI)"}},{"type":"Feature","geometry":{"type":"Point","coordinates":[-5.3572,5.8394]},"properties":{"id":"cmreo02ax0045126qupft15yu","nom":"Préfecture de Divo","type":"prefecture","district_region":"Lôh-Djiboua","departement_commune":"Divo","verifie":false,"portee":"département","source":"OpenStreetMap"}},{"type":"Feature","geometry":{"type":"Point","coordinates":[-5.9506,6.1319]},"properties":{"id":"cmreo02b60049126qymk70nui","nom":"Préfecture de Gagnoa","type":"prefecture","district_region":"Gôh","departement_commune":"Gagnoa","verifie":false,"portee":"département","source":"OpenStreetMap"}},{"type":"Feature","geometry":{"type":"Point","coordinates":[-6.5936,5.7847]},"properties":{"id":"cmreo02bf004d126q93w5h2fx","nom":"Préfecture de Soubré","type":"prefecture","district_region":"Nawa","departement_commune":"Soubré","verifie":false,"portee":"département","source":"OpenStreetMap"}},{"type":"Feature","geometry":{"type":"Point","coordinates":[-6.6731,7.9611]},"properties":{"id":"cmreo02bq004h126qzxkmod3e","nom":"Préfecture de Séguéla","type":"prefecture","district_region":"Worodougou","departement_commune":"Séguéla","verifie":false,"portee":"département","source":"OpenStreetMap"}},{"type":"Feature","geometry":{"type":"Point","coordinates":[-7.5667,9.5]},"properties":{"id":"cmreo02by004l126qkq1rr1dy","nom":"Préfecture de Odienné","type":"prefecture","district_region":"Kabadougou","departement_commune":"Odienné","verifie":false,"portee":"département","source":"OpenStreetMap"}},{"type":"Feature","geometry":{"type":"Point","coordinates":[-2.8,8.0402]},"properties":{"id":"cmreo02c7004p126q9tfh0be5","nom":"Préfecture de Bondoukou","type":"prefecture","district_region":"Gontougo","departement_commune":"Bondoukou","verifie":false,"portee":"département","source":"OpenStreetMap"}},{"type":"Feature","geometry":{"type":"Point","coordinates":[-3,9.2667]},"properties":{"id":"cmreo02cg004t126qyazibad9","nom":"Préfecture de Bouna","type":"prefecture","district_region":"Bounkani","departement_commune":"Bouna","verifie":false,"portee":"département","source":"OpenStreetMap"}},{"type":"Feature","geometry":{"type":"Point","coordinates":[-5.1947,9.5928]},"properties":{"id":"cmreo02cp004x126qpiz36cqh","nom":"Préfecture de Ferkessédougou","type":"prefecture","district_region":"Tchologo","departement_commune":"Ferkessédougou","verifie":false,"portee":"département","source":"OpenStreetMap"}},{"type":"Feature","geometry":{"type":"Point","coordinates":[-6.4869,9.5217]},"properties":{"id":"cmreo02cy0051126qb0keowad","nom":"Préfecture de Boundiali","type":"prefecture","district_region":"Bagoué","departement_commune":"Boundiali","verifie":false,"portee":"département","source":"OpenStreetMap"}},{"type":"Feature","geometry":{"type":"Point","coordinates":[-5.1,8.1333]},"properties":{"id":"cmreo02d80055126qf35hvkaq","nom":"Préfecture de Katiola","type":"prefecture","district_region":"Hambol","departement_commune":"Katiola","verifie":false,"portee":"département","source":"OpenStreetMap"}},{"type":"Feature","geometry":{"type":"Point","coordinates":[-4.3772,5.3256]},"properties":{"id":"cmreo02di0059126qhe7g6rub","nom":"Préfecture de Dabou","type":"prefecture","district_region":"Grands-Ponts","departement_commune":"Dabou","verifie":false,"portee":"département","source":"OpenStreetMap"}},{"type":"Feature","geometry":{"type":"Point","coordinates":[-4.2131,5.928]},"properties":{"id":"cmreo02dt005d126qq6aoiq3a","nom":"Préfecture de Agboville","type":"prefecture","district_region":"Agnéby-Tiassa","departement_commune":"Agboville","verifie":false,"portee":"département","source":"OpenStreetMap"}},{"type":"Feature","geometry":{"type":"Point","coordinates":[-3.8619,6.1069]},"properties":{"id":"cmreo02e4005h126qufpuidl8","nom":"Préfecture de Adzopé","type":"prefecture","district_region":"La Mé","departement_commune":"Adzopé","verifie":false,"portee":"département","source":"OpenStreetMap"}},{"type":"Feature","geometry":{"type":"Point","coordinates":[-3.2,5.4667]},"properties":{"id":"cmreo02ee005l126qrbjp7j8w","nom":"Préfecture de Aboisso","type":"prefecture","district_region":"Sud-Comoé","departement_commune":"Aboisso","verifie":false,"portee":"département","source":"OpenStreetMap"}},{"type":"Feature","geometry":{"type":"Point","coordinates":[-4.7,6.65]},"properties":{"id":"cmreo02eo005p126q433zzjv5","nom":"Préfecture de Dimbokro","type":"prefecture","district_region":"N'Zi","departement_commune":"Dimbokro","verifie":false,"portee":"département","source":"OpenStreetMap"}},{"type":"Feature","geometry":{"type":"Point","coordinates":[-4.2,6.65]},"properties":{"id":"cmreo02ey005t126qx8ofu6t7","nom":"Préfecture de Bongouanou","type":"prefecture","district_region":"Moronou","departement_commune":"Bongouanou","verifie":false,"portee":"département","source":"OpenStreetMap"}},{"type":"Feature","geometry":{"type":"Point","coordinates":[-5.0167,6.5667]},"properties":{"id":"cmreo02f8005x126qz2k0js70","nom":"Préfecture de Toumodi","type":"prefecture","district_region":"Bélier","departement_commune":"Toumodi","verifie":false,"portee":"département","source":"OpenStreetMap"}},{"type":"Feature","geometry":{"type":"Point","coordinates":[-7.3436,6.7419]},"properties":{"id":"cmreo02fi0061126qklrxsjzx","nom":"Préfecture de Duékoué","type":"prefecture","district_region":"Guémon","departement_commune":"Duékoué","verifie":false,"portee":"département","source":"OpenStreetMap"}},{"type":"Feature","geometry":{"type":"Point","coordinates":[-7.4869,6.5442]},"properties":{"id":"cmreo02fs0065126qlmaexqqt","nom":"Préfecture de Guiglo","type":"prefecture","district_region":"Cavally","departement_commune":"Guiglo","verifie":false,"portee":"département","source":"OpenStreetMap"}},{"type":"Feature","geometry":{"type":"Point","coordinates":[-6.0833,4.95]},"properties":{"id":"cmreo02g30069126q6lgty2u3","nom":"Préfecture de Sassandra","type":"prefecture","district_region":"Gbôklé","departement_commune":"Sassandra","verifie":false,"portee":"département","source":"OpenStreetMap"}},{"type":"Feature","geometry":{"type":"Point","coordinates":[-7.8342,9.6197]},"properties":{"id":"cmreo02gc006d126qtlycphnj","nom":"Préfecture de Minignan","type":"prefecture","district_region":"Folon","departement_commune":"Minignan","verifie":false,"portee":"département","source":"OpenStreetMap"}},{"type":"Feature","geometry":{"type":"Point","coordinates":[-7.6833,8.2833]},"properties":{"id":"cmreo02gn006h126q05kwo3c5","nom":"Préfecture de Touba","type":"prefecture","district_region":"Bafing","departement_commune":"Touba","verifie":false,"portee":"département","source":"OpenStreetMap"}},{"type":"Feature","geometry":{"type":"Point","coordinates":[-5.7444,6.9908]},"properties":{"id":"cmreo02gx006l126qlx4tja45","nom":"Préfecture de Bouaflé","type":"prefecture","district_region":"Marahoué","departement_commune":"Bouaflé","verifie":false,"portee":"département","source":"OpenStreetMap"}},{"type":"Feature","geometry":{"type":"Point","coordinates":[-6.5872,6.4922]},"properties":{"id":"cmreo02h7006p126qt3n4sn0r","nom":"Préfecture de Issia","type":"prefecture","district_region":"Haut-Sassandra","departement_commune":"Issia","verifie":false,"portee":"département","source":"OpenStreetMap"}},{"type":"Feature","geometry":{"type":"Point","coordinates":[-6.4778,7.3833]},"properties":{"id":"cmreo02hh006t126qvhdzmdpx","nom":"Préfecture de Vavoua","type":"prefecture","district_region":"Haut-Sassandra","departement_commune":"Vavoua","verifie":false,"portee":"département","source":"OpenStreetMap"}},{"type":"Feature","geometry":{"type":"Point","coordinates":[-3.7386,5.2118]},"properties":{"id":"cmreo02hr006x126q18oe3xqf","nom":"Préfecture de Grand-Bassam","type":"prefecture","district_region":"Sud-Comoé","departement_commune":"Grand-Bassam","verifie":false,"portee":"département","source":"OpenStreetMap"}},{"type":"Feature","geometry":{"type":"Point","coordinates":[-3.1667,7.8028]},"properties":{"id":"cmreo02i00071126qwriworot","nom":"Préfecture de Tanda","type":"prefecture","district_region":"Gontougo","departement_commune":"Tanda","verifie":false,"portee":"département","source":"OpenStreetMap"}},{"type":"Feature","geometry":{"type":"Point","coordinates":[-3.9631,7.0586]},"properties":{"id":"cmreo02ia0075126ql36e8ryt","nom":"Préfecture de Daoukro","type":"prefecture","district_region":"Iffou","departement_commune":"Daoukro","verifie":false,"portee":"département","source":"OpenStreetMap"}},{"type":"Feature","geometry":{"type":"Point","coordinates":[-4.4933,7.0631]},"properties":{"id":"cmreo02ij0079126qcqz29b3a","nom":"Préfecture de Bocanda","type":"prefecture","district_region":"N'Zi","departement_commune":"Bocanda","verifie":false,"portee":"département","source":"OpenStreetMap"}},{"type":"Feature","geometry":{"type":"Point","coordinates":[-5.9219,6.6203]},"properties":{"id":"cmreo02it007d126qrqwpsxjh","nom":"Préfecture de Sinfra","type":"prefecture","district_region":"Marahoué","departement_commune":"Sinfra","verifie":false,"portee":"département","source":"OpenStreetMap"}}],"metadata":{"dataset":"Administration — Côte d'Ivoire","source":"Institut National de la Statistique (INS-CI)","theme":"Administration","verified":true}}