{"type":"FeatureCollection","features":[{"type":"Feature","geometry":{"type":"Point","coordinates":[-5.013597999999945,7.71934600000003]},"properties":{"id":35956,"nom":"3IEME COMPAGNIE","type":"compagnie","district_region":null,"departement_commune":null,"verifie":true,"name":"3IEME COMPAGNIE","source":"Géoportail ANSTAT"}},{"type":"Feature","geometry":{"type":"Point","coordinates":[-5.01824199999993,7.700298000000032]},"properties":{"id":35958,"nom":"1ERE COMPAGNIE","type":"compagnie","district_region":null,"departement_commune":null,"verifie":true,"name":"1ERE COMPAGNIE","source":"Géoportail ANSTAT"}}],"metadata":{"dataset":"Compagnie — ANSTAT","source":"Géoportail ANSTAT","theme":"Défense & Militaire","verified":true,"apercu":"complet"}}