{"type":"FeatureCollection","features":[{"type":"Feature","geometry":{"type":"Point","coordinates":[-5.897049999999979,9.99792800000006]},"properties":{"id":36037,"nom":"ANCIENNE  BRIGARDE DE  N BENGUE","type":"brigade de gendarmerie","district_region":null,"departement_commune":null,"verifie":true,"name":"ANCIENNE  BRIGARDE DE  N BENGUE","source":"Géoportail ANSTAT"}},{"type":"Feature","geometry":{"type":"Point","coordinates":[-4.617951999999946,9.15342400000003]},"properties":{"id":36286,"nom":"BRIGADE DE KONG","type":"brigade de gendarmerie","district_region":null,"departement_commune":null,"verifie":true,"name":"BRIGADE DE KONG","source":"Géoportail ANSTAT"}},{"type":"Feature","geometry":{"type":"Point","coordinates":[-5.621221999999932,10.19743800000003]},"properties":{"id":36287,"nom":"BRIGADE DE NIELE","type":"brigade de gendarmerie","district_region":null,"departement_commune":null,"verifie":true,"name":"BRIGADE DE NIELE","source":"Géoportail ANSTAT"}},{"type":"Feature","geometry":{"type":"Point","coordinates":[-5.621208999999965,10.19743300000005]},"properties":{"id":36288,"nom":"BRIGADE DE NIELE","type":"brigade de gendarmerie","district_region":null,"departement_commune":null,"verifie":true,"name":"BRIGADE DE NIELE","source":"Géoportail ANSTAT"}},{"type":"Feature","geometry":{"type":"Point","coordinates":[-6.632761999999957,4.743425000000059]},"properties":{"id":36290,"nom":"BRIGADE ANTICRIMINEL","type":"brigade de gendarmerie","district_region":null,"departement_commune":null,"verifie":true,"name":"BRIGADE ANTICRIMINEL","source":"Géoportail ANSTAT"}},{"type":"Feature","geometry":{"type":"Point","coordinates":[-6.923086999999953,4.650476000000026]},"properties":{"id":36292,"nom":"BRIGARDE GRAND BEREBY","type":"brigade de gendarmerie","district_region":null,"departement_commune":null,"verifie":true,"name":"BRIGARDE GRAND BEREBY","source":"Géoportail ANSTAT"}},{"type":"Feature","geometry":{"type":"Point","coordinates":[-5.89217199999996,9.98074500000007]},"properties":{"id":36294,"nom":"BRIGADE DE MBENGUE","type":"brigade de gendarmerie","district_region":null,"departement_commune":null,"verifie":true,"name":"BRIGADE DE MBENGUE","source":"Géoportail ANSTAT"}},{"type":"Feature","geometry":{"type":"Point","coordinates":[-5.892120999999975,9.98129700000004]},"properties":{"id":36295,"nom":"BRIGADE DE MBENGUE","type":"brigade de gendarmerie","district_region":null,"departement_commune":null,"verifie":true,"name":"BRIGADE DE MBENGUE","source":"Géoportail ANSTAT"}},{"type":"Feature","geometry":{"type":"Point","coordinates":[-6.076927999999953,9.60860400000007]},"properties":{"id":36296,"nom":"BRIGADE DE GENDARMERIE DE NIOFOIN","type":"brigade de gendarmerie","district_region":null,"departement_commune":null,"verifie":true,"name":"BRIGADE DE GENDARMERIE DE NIOFOIN","source":"Géoportail ANSTAT"}},{"type":"Feature","geometry":{"type":"Point","coordinates":[-5.389500999999939,9.579915000000028]},"properties":{"id":36297,"nom":"BRIGADE  DE SINEMATIALI","type":"brigade de gendarmerie","district_region":null,"departement_commune":null,"verifie":true,"name":"BRIGADE  DE SINEMATIALI","source":"Géoportail ANSTAT"}},{"type":"Feature","geometry":{"type":"Point","coordinates":[-6.558542999999929,5.403460000000052]},"properties":{"id":36298,"nom":"BRIGARDE MEAGUI","type":"brigade de gendarmerie","district_region":null,"departement_commune":null,"verifie":true,"name":"BRIGARDE MEAGUI","source":"Géoportail ANSTAT"}},{"type":"Feature","geometry":{"type":"Point","coordinates":[-6.36212299999994,5.994254000000069]},"properties":{"id":36299,"nom":"BRIGADE DE LA GENDARMERIE DE LILIYO","type":"brigade de gendarmerie","district_region":null,"departement_commune":null,"verifie":true,"name":"BRIGADE DE LA GENDARMERIE DE LILIYO","source":"Géoportail ANSTAT"}},{"type":"Feature","geometry":{"type":"Point","coordinates":[-6.541938999999957,6.111030000000028]},"properties":{"id":36300,"nom":"BRIGADE DE GRAND ZATRY","type":"brigade de gendarmerie","district_region":null,"departement_commune":null,"verifie":true,"name":"BRIGADE DE GRAND ZATRY","source":"Géoportail ANSTAT"}},{"type":"Feature","geometry":{"type":"Point","coordinates":[-6.070863999999972,5.689453000000071]},"properties":{"id":36301,"nom":"BRIGARDE DE GUEYO","type":"brigade de gendarmerie","district_region":null,"departement_commune":null,"verifie":true,"name":"BRIGARDE DE GUEYO","source":"Géoportail ANSTAT"}},{"type":"Feature","geometry":{"type":"Point","coordinates":[-4.368519999999933,6.47262900000004]},"properties":{"id":36302,"nom":"BRIGAD DE MBATTO","type":"brigade de gendarmerie","district_region":null,"departement_commune":null,"verifie":true,"name":"BRIGAD DE MBATTO","source":"Géoportail ANSTAT"}},{"type":"Feature","geometry":{"type":"Point","coordinates":[-4.16966999999994,6.751747000000023]},"properties":{"id":36303,"nom":"BRIGADE DE NGUINOU","type":"brigade de gendarmerie","district_region":null,"departement_commune":null,"verifie":true,"name":"BRIGADE DE NGUINOU","source":"Géoportail ANSTAT"}},{"type":"Feature","geometry":{"type":"Point","coordinates":[-7.244873999999925,7.25397700000002]},"properties":{"id":36304,"nom":"BRIGARDE KOUIBLY","type":"brigade de gendarmerie","district_region":null,"departement_commune":null,"verifie":true,"name":"BRIGARDE KOUIBLY","source":"Géoportail ANSTAT"}},{"type":"Feature","geometry":{"type":"Point","coordinates":[-7.37310599999995,7.384626000000026]},"properties":{"id":36305,"nom":"BRIGADE DE GENDARMERIE DE FACOBLY","type":"brigade de gendarmerie","district_region":null,"departement_commune":null,"verifie":true,"name":"BRIGADE DE GENDARMERIE DE FACOBLY","source":"Géoportail ANSTAT"}},{"type":"Feature","geometry":{"type":"Point","coordinates":[-7.490696999999955,7.011160000000075]},"properties":{"id":36306,"nom":"BRIGADE","type":"brigade de gendarmerie","district_region":null,"departement_commune":null,"verifie":true,"name":"BRIGADE","source":"Géoportail ANSTAT"}},{"type":"Feature","geometry":{"type":"Point","coordinates":[-4.790705999999943,5.291434000000038]},"properties":{"id":36308,"nom":"BRIGADE DE GENDARMERIE D IROBO","type":"brigade de gendarmerie","district_region":null,"departement_commune":null,"verifie":true,"name":"BRIGADE DE GENDARMERIE D IROBO","source":"Géoportail ANSTAT"}},{"type":"Feature","geometry":{"type":"Point","coordinates":[-5.929329999999936,6.109714000000054]},"properties":{"id":36312,"nom":"BRIGADE DE GAGNOA","type":"brigade de gendarmerie","district_region":null,"departement_commune":null,"verifie":true,"name":"BRIGADE DE GAGNOA","source":"Géoportail ANSTAT"}},{"type":"Feature","geometry":{"type":"Point","coordinates":[-6.176662999999962,6.24020500000006]},"properties":{"id":36314,"nom":"BRIGARDE TERITORIALE DE GUIBEROUE","type":"brigade de gendarmerie","district_region":null,"departement_commune":null,"verifie":true,"name":"BRIGARDE TERITORIALE DE GUIBEROUE","source":"Géoportail ANSTAT"}},{"type":"Feature","geometry":{"type":"Point","coordinates":[-6.034036999999955,5.304414000000065]},"properties":{"id":36316,"nom":"BRIGADE DE SASSANDRA POSTE DE BOLO","type":"brigade de gendarmerie","district_region":null,"departement_commune":null,"verifie":true,"name":"BRIGADE DE SASSANDRA POSTE DE BOLO","source":"Géoportail ANSTAT"}},{"type":"Feature","geometry":{"type":"Point","coordinates":[-5.587019999999939,5.479026000000033]},"properties":{"id":36317,"nom":"BRIGADE DE GENDARMERIE","type":"brigade de gendarmerie","district_region":null,"departement_commune":null,"verifie":true,"name":"BRIGADE DE GENDARMERIE","source":"Géoportail ANSTAT"}},{"type":"Feature","geometry":{"type":"Point","coordinates":[-4.768603999999925,7.42298500000004]},"properties":{"id":36318,"nom":"BRIGADE DE GENDARMERIE","type":"brigade de gendarmerie","district_region":null,"departement_commune":null,"verifie":true,"name":"BRIGADE DE GENDARMERIE","source":"Géoportail ANSTAT"}},{"type":"Feature","geometry":{"type":"Point","coordinates":[-4.246516999999926,5.326339000000075]},"properties":{"id":36320,"nom":"BRIDARDE DE SONGON","type":"brigade de gendarmerie","district_region":null,"departement_commune":null,"verifie":true,"name":"BRIDARDE DE SONGON","source":"Géoportail ANSTAT"}},{"type":"Feature","geometry":{"type":"Point","coordinates":[-2.793531999999971,8.042167000000063]},"properties":{"id":36321,"nom":"BRIGARDE DE GENDARMERIE BONDOUKOU","type":"brigade de gendarmerie","district_region":null,"departement_commune":null,"verifie":true,"name":"BRIGARDE DE GENDARMERIE BONDOUKOU","source":"Géoportail ANSTAT"}},{"type":"Feature","geometry":{"type":"Point","coordinates":[-3.579989999999952,7.955821000000071]},"properties":{"id":36322,"nom":"BRIGADE DE SANDEGUE","type":"brigade de gendarmerie","district_region":null,"departement_commune":null,"verifie":true,"name":"BRIGADE DE SANDEGUE","source":"Géoportail ANSTAT"}},{"type":"Feature","geometry":{"type":"Point","coordinates":[-3.069543999999951,7.989500000000021]},"properties":{"id":36323,"nom":"BRIGADE DE TABAGNE","type":"brigade de gendarmerie","district_region":null,"departement_commune":null,"verifie":true,"name":"BRIGADE DE TABAGNE","source":"Géoportail ANSTAT"}},{"type":"Feature","geometry":{"type":"Point","coordinates":[-2.981065999999942,7.89892100000003]},"properties":{"id":36324,"nom":"BRIGADE DE GOUMERE","type":"brigade de gendarmerie","district_region":null,"departement_commune":null,"verifie":true,"name":"BRIGADE DE GOUMERE","source":"Géoportail ANSTAT"}},{"type":"Feature","geometry":{"type":"Point","coordinates":[-2.712630999999931,8.178432000000043]},"properties":{"id":36325,"nom":"BRIGARDE DE GENDARMERIE DE SOROBANGO","type":"brigade de gendarmerie","district_region":null,"departement_commune":null,"verifie":true,"name":"BRIGARDE DE GENDARMERIE DE SOROBANGO","source":"Géoportail ANSTAT"}},{"type":"Feature","geometry":{"type":"Point","coordinates":[-3.157390999999961,7.798685000000035]},"properties":{"id":36326,"nom":"BRIGADE TANDA","type":"brigade de gendarmerie","district_region":null,"departement_commune":null,"verifie":true,"name":"BRIGADE TANDA","source":"Géoportail ANSTAT"}},{"type":"Feature","geometry":{"type":"Point","coordinates":[-2.981280999999967,7.695860000000039]},"properties":{"id":36328,"nom":"BRIGARDE DE GENDARMERIE DE ASSUEFRY","type":"brigade de gendarmerie","district_region":null,"departement_commune":null,"verifie":true,"name":"BRIGARDE DE GENDARMERIE DE ASSUEFRY","source":"Géoportail ANSTAT"}},{"type":"Feature","geometry":{"type":"Point","coordinates":[-2.981105999999954,7.696040000000039]},"properties":{"id":36329,"nom":"BRIGARDE DE GENDARMERIE DE ASSUEFRY","type":"brigade de gendarmerie","district_region":null,"departement_commune":null,"verifie":true,"name":"BRIGARDE DE GENDARMERIE DE ASSUEFRY","source":"Géoportail ANSTAT"}},{"type":"Feature","geometry":{"type":"Point","coordinates":[-6.60215299999993,8.471786000000066]},"properties":{"id":36330,"nom":"BRIGADE DE GENDARMERIE DE KANI","type":"brigade de gendarmerie","district_region":null,"departement_commune":null,"verifie":true,"name":"BRIGADE DE GENDARMERIE DE KANI","source":"Géoportail ANSTAT"}},{"type":"Feature","geometry":{"type":"Point","coordinates":[-5.600694999999973,6.653185000000065]},"properties":{"id":36331,"nom":"BRIGADE DE KONONFLA","type":"brigade de gendarmerie","district_region":null,"departement_commune":null,"verifie":true,"name":"BRIGADE DE KONONFLA","source":"Géoportail ANSTAT"}},{"type":"Feature","geometry":{"type":"Point","coordinates":[-5.871569999999963,7.494754000000057]},"properties":{"id":36332,"nom":"BRIGADE DE GENDARMERIE DE GOHITAFLA","type":"brigade de gendarmerie","district_region":null,"departement_commune":null,"verifie":true,"name":"BRIGADE DE GENDARMERIE DE GOHITAFLA","source":"Géoportail ANSTAT"}},{"type":"Feature","geometry":{"type":"Point","coordinates":[-5.915118999999947,6.619916000000046]},"properties":{"id":36333,"nom":"BRIGADE DE SINFRA","type":"brigade de gendarmerie","district_region":null,"departement_commune":null,"verifie":true,"name":"BRIGADE DE SINFRA","source":"Géoportail ANSTAT"}},{"type":"Feature","geometry":{"type":"Point","coordinates":[-5.027373999999952,7.688144000000023]},"properties":{"id":36334,"nom":"BRIGADE ANTI CRIMINALITE DE BOUAKE","type":"brigade de gendarmerie","district_region":null,"departement_commune":null,"verifie":true,"name":"BRIGADE ANTI CRIMINALITE DE BOUAKE","source":"Géoportail ANSTAT"}},{"type":"Feature","geometry":{"type":"Point","coordinates":[-5.02963399999993,7.677421000000038]},"properties":{"id":36335,"nom":"BRIGADE DE RECHERCHES BOUAKE","type":"brigade de gendarmerie","district_region":null,"departement_commune":null,"verifie":true,"name":"BRIGADE DE RECHERCHES BOUAKE","source":"Géoportail ANSTAT"}},{"type":"Feature","geometry":{"type":"Point","coordinates":[-5.030378999999925,7.676773000000026]},"properties":{"id":36336,"nom":"BRIGARDES VILLE ET ROUTIERE","type":"brigade de gendarmerie","district_region":null,"departement_commune":null,"verifie":true,"name":"BRIGARDES VILLE ET ROUTIERE","source":"Géoportail ANSTAT"}},{"type":"Feature","geometry":{"type":"Point","coordinates":[-4.829560999999956,7.639732000000038]},"properties":{"id":36337,"nom":"BRIGADE DE BROBO","type":"brigade de gendarmerie","district_region":null,"departement_commune":null,"verifie":true,"name":"BRIGADE DE BROBO","source":"Géoportail ANSTAT"}},{"type":"Feature","geometry":{"type":"Point","coordinates":[-5.565623999999957,7.399434000000042]},"properties":{"id":36338,"nom":"BRIGADE DE GENDARMERIE DE TOUMODI SAKASSOU","type":"brigade de gendarmerie","district_region":null,"departement_commune":null,"verifie":true,"name":"BRIGADE DE GENDARMERIE DE TOUMODI SAKASSOU","source":"Géoportail ANSTAT"}},{"type":"Feature","geometry":{"type":"Point","coordinates":[-5.476462999999967,7.868416000000025]},"properties":{"id":36339,"nom":"BRIGADE DE BODOKRO","type":"brigade de gendarmerie","district_region":null,"departement_commune":null,"verifie":true,"name":"BRIGADE DE BODOKRO","source":"Géoportail ANSTAT"}},{"type":"Feature","geometry":{"type":"Point","coordinates":[-5.308471999999938,7.845052000000067]},"properties":{"id":36340,"nom":"BRIGADE DE BOTRO","type":"brigade de gendarmerie","district_region":null,"departement_commune":null,"verifie":true,"name":"BRIGADE DE BOTRO","source":"Géoportail ANSTAT"}},{"type":"Feature","geometry":{"type":"Point","coordinates":[-5.575432999999975,7.512651000000062]},"properties":{"id":36341,"nom":"BRIGADE DE LA GENDARMERIE","type":"brigade de gendarmerie","district_region":null,"departement_commune":null,"verifie":true,"name":"BRIGADE DE LA GENDARMERIE","source":"Géoportail ANSTAT"}},{"type":"Feature","geometry":{"type":"Point","coordinates":[-3.471257999999978,8.452285000000074]},"properties":{"id":36343,"nom":"BRIGADE DE NASSIAN","type":"brigade de gendarmerie","district_region":null,"departement_commune":null,"verifie":true,"name":"BRIGADE DE NASSIAN","source":"Géoportail ANSTAT"}},{"type":"Feature","geometry":{"type":"Point","coordinates":[-3.66920099999993,9.60889000000003]},"properties":{"id":36344,"nom":"BRIGARDE DE GENDARMERIE","type":"brigade de gendarmerie","district_region":null,"departement_commune":null,"verifie":true,"name":"BRIGARDE DE GENDARMERIE","source":"Géoportail ANSTAT"}},{"type":"Feature","geometry":{"type":"Point","coordinates":[-3.669852999999932,9.609320000000023]},"properties":{"id":36345,"nom":"BRIGARDE DE GENDARMERIE","type":"brigade de gendarmerie","district_region":null,"departement_commune":null,"verifie":true,"name":"BRIGARDE DE GENDARMERIE","source":"Géoportail ANSTAT"}},{"type":"Feature","geometry":{"type":"Point","coordinates":[-4.501605999999981,7.061154000000045]},"properties":{"id":36346,"nom":"BRIGADE DE BOCANDO","type":"brigade de gendarmerie","district_region":null,"departement_commune":null,"verifie":true,"name":"BRIGADE DE BOCANDO","source":"Géoportail ANSTAT"}},{"type":"Feature","geometry":{"type":"Point","coordinates":[-7.456968999999958,5.872713000000033]},"properties":{"id":36347,"nom":"BRIGARDE DE GENDARMERIE DE TAI","type":"brigade de gendarmerie","district_region":null,"departement_commune":null,"verifie":true,"name":"BRIGARDE DE GENDARMERIE DE TAI","source":"Géoportail ANSTAT"}},{"type":"Feature","geometry":{"type":"Point","coordinates":[-6.865678999999943,6.765693000000056]},"properties":{"id":36350,"nom":"BRIGARDE DE GENDARMERIE DE ZOUKOUGBEU","type":"brigade de gendarmerie","district_region":null,"departement_commune":null,"verifie":true,"name":"BRIGARDE DE GENDARMERIE DE ZOUKOUGBEU","source":"Géoportail ANSTAT"}},{"type":"Feature","geometry":{"type":"Point","coordinates":[-6.261261999999931,6.491869000000065]},"properties":{"id":36351,"nom":"BRIGARDE DE SAIOUA","type":"brigade de gendarmerie","district_region":null,"departement_commune":null,"verifie":true,"name":"BRIGARDE DE SAIOUA","source":"Géoportail ANSTAT"}},{"type":"Feature","geometry":{"type":"Point","coordinates":[-6.592754999999954,6.488130000000069]},"properties":{"id":36352,"nom":"BRIGADE DE GENDARMERIE","type":"brigade de gendarmerie","district_region":null,"departement_commune":null,"verifie":true,"name":"BRIGADE DE GENDARMERIE","source":"Géoportail ANSTAT"}},{"type":"Feature","geometry":{"type":"Point","coordinates":[-4.820177999999942,5.892483000000027]},"properties":{"id":36353,"nom":"BRIGARDE DES EAUX ET FORETS","type":"brigade de gendarmerie","district_region":null,"departement_commune":null,"verifie":true,"name":"BRIGARDE DES EAUX ET FORETS","source":"Géoportail ANSTAT"}},{"type":"Feature","geometry":{"type":"Point","coordinates":[-4.201799999999935,5.929471000000035]},"properties":{"id":36355,"nom":"BRIGADE GENDARMERIE AGBOVILLE","type":"brigade de gendarmerie","district_region":null,"departement_commune":null,"verifie":true,"name":"BRIGADE GENDARMERIE AGBOVILLE","source":"Géoportail ANSTAT"}},{"type":"Feature","geometry":{"type":"Point","coordinates":[-4.078939999999932,5.644335000000069]},"properties":{"id":36356,"nom":"BRIGADE AZAGUIE","type":"brigade de gendarmerie","district_region":null,"departement_commune":null,"verifie":true,"name":"BRIGADE AZAGUIE","source":"Géoportail ANSTAT"}},{"type":"Feature","geometry":{"type":"Point","coordinates":[-7.681696999999929,8.286841000000038]},"properties":{"id":36357,"nom":"BRIGARDE DE TOUBA","type":"brigade de gendarmerie","district_region":null,"departement_commune":null,"verifie":true,"name":"BRIGARDE DE TOUBA","source":"Géoportail ANSTAT"}},{"type":"Feature","geometry":{"type":"Point","coordinates":[-7.492017999999973,8.732226000000026]},"properties":{"id":36358,"nom":"BRIGADE DE BOROTOU","type":"brigade de gendarmerie","district_region":null,"departement_commune":null,"verifie":true,"name":"BRIGADE DE BOROTOU","source":"Géoportail ANSTAT"}},{"type":"Feature","geometry":{"type":"Point","coordinates":[-6.448093999999969,9.830996000000027]},"properties":{"id":36362,"nom":"BRIGARDE DE GBON","type":"brigade de gendarmerie","district_region":null,"departement_commune":null,"verifie":true,"name":"BRIGARDE DE GBON","source":"Géoportail ANSTAT"}},{"type":"Feature","geometry":{"type":"Point","coordinates":[-6.483837999999935,9.535957000000051]},"properties":{"id":36363,"nom":"BRIGARDE DE SECURITE RURAL 2 SECTEUR BOUNDIALI","type":"brigade de gendarmerie","district_region":null,"departement_commune":null,"verifie":true,"name":"BRIGARDE DE SECURITE RURAL 2 SECTEUR BOUNDIALI","source":"Géoportail ANSTAT"}},{"type":"Feature","geometry":{"type":"Point","coordinates":[-6.410541999999964,10.50193000000007]},"properties":{"id":36364,"nom":"BRIGADE MOBILE","type":"brigade de gendarmerie","district_region":null,"departement_commune":null,"verifie":true,"name":"BRIGADE MOBILE","source":"Géoportail ANSTAT"}},{"type":"Feature","geometry":{"type":"Point","coordinates":[-3.308440999999959,7.16375000000005]},"properties":{"id":36369,"nom":"BRIGADE DE TANGUELAN","type":"brigade de gendarmerie","district_region":null,"departement_commune":null,"verifie":true,"name":"BRIGADE DE TANGUELAN","source":"Géoportail ANSTAT"}},{"type":"Feature","geometry":{"type":"Point","coordinates":[-3.202177999999947,7.137526000000037]},"properties":{"id":36370,"nom":"BRIGADE","type":"brigade de gendarmerie","district_region":null,"departement_commune":null,"verifie":true,"name":"BRIGADE","source":"Géoportail ANSTAT"}},{"type":"Feature","geometry":{"type":"Point","coordinates":[-7.561725999999965,9.503028000000027]},"properties":{"id":36373,"nom":"BRIGARDE DE LA GENDARMERIE","type":"brigade de gendarmerie","district_region":null,"departement_commune":null,"verifie":true,"name":"BRIGARDE DE LA GENDARMERIE","source":"Géoportail ANSTAT"}},{"type":"Feature","geometry":{"type":"Point","coordinates":[-3.405879999999968,5.733894000000021]},"properties":{"id":36375,"nom":"BRIGARDE FORESTIERE DE ABOISSO COMOE","type":"brigade de gendarmerie","district_region":null,"departement_commune":null,"verifie":true,"name":"BRIGARDE FORESTIERE DE ABOISSO COMOE","source":"Géoportail ANSTAT"}},{"type":"Feature","geometry":{"type":"Point","coordinates":[-3.587998999999968,5.274505000000033]},"properties":{"id":36378,"nom":"BRIGADE DE BONOUA","type":"brigade de gendarmerie","district_region":null,"departement_commune":null,"verifie":true,"name":"BRIGADE DE BONOUA","source":"Géoportail ANSTAT"}},{"type":"Feature","geometry":{"type":"Point","coordinates":[-3.077950999999928,5.670110000000022]},"properties":{"id":36381,"nom":"BRIGADE MOBILE DE MAFERE POSTE D AKRESSI","type":"brigade de gendarmerie","district_region":null,"departement_commune":null,"verifie":true,"name":"BRIGADE MOBILE DE MAFERE POSTE D AKRESSI","source":"Géoportail ANSTAT"}},{"type":"Feature","geometry":{"type":"Point","coordinates":[-3.211801999999977,5.464774000000034]},"properties":{"id":36383,"nom":"BRIGADE ABOISSO","type":"brigade de gendarmerie","district_region":null,"departement_commune":null,"verifie":true,"name":"BRIGADE ABOISSO","source":"Géoportail ANSTAT"}},{"type":"Feature","geometry":{"type":"Point","coordinates":[-5.166826999999955,9.064740000000029]},"properties":{"id":36387,"nom":"BRIGADE DE GENDARMERIE DE TAFIRE","type":"brigade de gendarmerie","district_region":null,"departement_commune":null,"verifie":true,"name":"BRIGADE DE GENDARMERIE DE TAFIRE","source":"Géoportail ANSTAT"}},{"type":"Feature","geometry":{"type":"Point","coordinates":[-5.682323999999937,8.770655000000033]},"properties":{"id":36388,"nom":"BRIGADE DE TORTIYA","type":"brigade de gendarmerie","district_region":null,"departement_commune":null,"verifie":true,"name":"BRIGADE DE TORTIYA","source":"Géoportail ANSTAT"}},{"type":"Feature","geometry":{"type":"Point","coordinates":[-5.095206999999959,8.127507000000037]},"properties":{"id":36389,"nom":"BRIGADE DE KATIOLA","type":"brigade de gendarmerie","district_region":null,"departement_commune":null,"verifie":true,"name":"BRIGADE DE KATIOLA","source":"Géoportail ANSTAT"}},{"type":"Feature","geometry":{"type":"Point","coordinates":[-8.157324999999958,7.267912000000024]},"properties":{"id":36391,"nom":"BRIGADE MOBILE DE DANANE","type":"brigade de gendarmerie","district_region":null,"departement_commune":null,"verifie":true,"name":"BRIGADE MOBILE DE DANANE","source":"Géoportail ANSTAT"}},{"type":"Feature","geometry":{"type":"Point","coordinates":[-3.997236999999927,7.648773000000062]},"properties":{"id":36393,"nom":"BRIGADE DE PRIKRO","type":"brigade de gendarmerie","district_region":null,"departement_commune":null,"verifie":true,"name":"BRIGADE DE PRIKRO","source":"Géoportail ANSTAT"}},{"type":"Feature","geometry":{"type":"Point","coordinates":[-4.336860999999942,7.458892000000048]},"properties":{"id":36394,"nom":"BRIGADE DE GENDARMERIE M BAHIAKRO","type":"brigade de gendarmerie","district_region":null,"departement_commune":null,"verifie":true,"name":"BRIGADE DE GENDARMERIE M BAHIAKRO","source":"Géoportail ANSTAT"}},{"type":"Feature","geometry":{"type":"Point","coordinates":[-3.958466999999928,7.068654000000038]},"properties":{"id":36395,"nom":"BRIGARDE GENDARMERIE DAOUKRO","type":"brigade de gendarmerie","district_region":null,"departement_commune":null,"verifie":true,"name":"BRIGARDE GENDARMERIE DAOUKRO","source":"Géoportail ANSTAT"}},{"type":"Feature","geometry":{"type":"Point","coordinates":[-4.014585999999952,7.291756000000021]},"properties":{"id":36396,"nom":"BRIGADE DE OUELLE","type":"brigade de gendarmerie","district_region":null,"departement_commune":null,"verifie":true,"name":"BRIGADE DE OUELLE","source":"Géoportail ANSTAT"}},{"type":"Feature","geometry":{"type":"Point","coordinates":[-7.499868999999933,4.930533000000025]},"properties":{"id":37027,"nom":"GENDARMERIE BRIGADE DE GRABO","type":"brigade de gendarmerie","district_region":null,"departement_commune":null,"verifie":true,"name":"GENDARMERIE BRIGADE DE GRABO","source":"Géoportail ANSTAT"}},{"type":"Feature","geometry":{"type":"Point","coordinates":[-7.012327999999968,6.248307000000068]},"properties":{"id":37045,"nom":"GENDARMERIE  NATIONALE BRIGADE DE BUYO","type":"brigade de gendarmerie","district_region":null,"departement_commune":null,"verifie":true,"name":"GENDARMERIE  NATIONALE BRIGADE DE BUYO","source":"Géoportail ANSTAT"}},{"type":"Feature","geometry":{"type":"Point","coordinates":[-3.254921999999965,7.491099000000077]},"properties":{"id":37129,"nom":"GENDAMERIE NATIONAL BRIGAGE DE KOUN FAO","type":"brigade de gendarmerie","district_region":null,"departement_commune":null,"verifie":true,"name":"GENDAMERIE NATIONAL BRIGAGE DE KOUN FAO","source":"Géoportail ANSTAT"}},{"type":"Feature","geometry":{"type":"Point","coordinates":[-6.431733999999949,6.89361800000006]},"properties":{"id":37174,"nom":"GENDAMERIE BRIGADE ROUTIERE  DALOA","type":"brigade de gendarmerie","district_region":null,"departement_commune":null,"verifie":true,"name":"GENDAMERIE BRIGADE ROUTIERE  DALOA","source":"Géoportail ANSTAT"}},{"type":"Feature","geometry":{"type":"Point","coordinates":[-3.360016999999971,6.999032000000057]},"properties":{"id":37238,"nom":"GENDARMERIE  NATIONALE BRIGADE D ABENGOUROU","type":"brigade de gendarmerie","district_region":null,"departement_commune":null,"verifie":true,"name":"GENDARMERIE  NATIONALE BRIGADE D ABENGOUROU","source":"Géoportail ANSTAT"}},{"type":"Feature","geometry":{"type":"Point","coordinates":[-3.152356999999938,5.610970000000066]},"properties":{"id":37273,"nom":"GENDAMERIE NATIONALE BRIGADE DAYAME","type":"brigade de gendarmerie","district_region":null,"departement_commune":null,"verifie":true,"name":"GENDAMERIE NATIONALE BRIGADE DAYAME","source":"Géoportail ANSTAT"}},{"type":"Feature","geometry":{"type":"Point","coordinates":[-4.36741399999994,7.898906000000068]},"properties":{"id":37284,"nom":"GENDARMERIE BRIGARDE DE SATAMA SOKOURA","type":"brigade de gendarmerie","district_region":null,"departement_commune":null,"verifie":true,"name":"GENDARMERIE BRIGARDE DE SATAMA SOKOURA","source":"Géoportail ANSTAT"}},{"type":"Feature","geometry":{"type":"Point","coordinates":[-7.554614999999956,7.40202000000005]},"properties":{"id":37295,"nom":"GENDAMERIE NATIONAL BRIGADE DE MAN","type":"brigade de gendarmerie","district_region":null,"departement_commune":null,"verifie":true,"name":"GENDAMERIE NATIONAL BRIGADE DE MAN","source":"Géoportail ANSTAT"}},{"type":"Feature","geometry":{"type":"Point","coordinates":[-5.583268999999973,9.29108700000006]},"properties":{"id":37304,"nom":"GENDARMERIE NATIONALE BRIGADE NAPIE","type":"brigade de gendarmerie","district_region":null,"departement_commune":null,"verifie":true,"name":"GENDARMERIE NATIONALE BRIGADE NAPIE","source":"Géoportail ANSTAT"}},{"type":"Feature","geometry":{"type":"Point","coordinates":[-6.401362999999947,5.75925600000005]},"properties":{"id":37307,"nom":"GENDARMERIE NATIONALE BRIGADE D OKROUYO","type":"brigade de gendarmerie","district_region":null,"departement_commune":null,"verifie":true,"name":"GENDARMERIE NATIONALE BRIGADE D OKROUYO","source":"Géoportail ANSTAT"}},{"type":"Feature","geometry":{"type":"Point","coordinates":[-3.971191999999974,6.674528000000066]},"properties":{"id":37308,"nom":"GENDARMERIE NATIONALE BRIGADE ARRAH","type":"brigade de gendarmerie","district_region":null,"departement_commune":null,"verifie":true,"name":"GENDARMERIE NATIONALE BRIGADE ARRAH","source":"Géoportail ANSTAT"}},{"type":"Feature","geometry":{"type":"Point","coordinates":[-5.578975999999955,6.284208000000035]},"properties":{"id":37315,"nom":"GENDARMERIE NATIONALE BRIGADE DE DIEGONEFLA","type":"brigade de gendarmerie","district_region":null,"departement_commune":null,"verifie":true,"name":"GENDARMERIE NATIONALE BRIGADE DE DIEGONEFLA","source":"Géoportail ANSTAT"}},{"type":"Feature","geometry":{"type":"Point","coordinates":[-5.289681999999971,7.443065000000047]},"properties":{"id":37320,"nom":"GENDARMERIE NATIONALE BRIGARDE DE SAKASSOU","type":"brigade de gendarmerie","district_region":null,"departement_commune":null,"verifie":true,"name":"GENDARMERIE NATIONALE BRIGARDE DE SAKASSOU","source":"Géoportail ANSTAT"}},{"type":"Feature","geometry":{"type":"Point","coordinates":[-5.575181999999927,7.670164000000057]},"properties":{"id":37321,"nom":"GENDARMERIE NATIONALE BRIGARDE DE BEOUMI","type":"brigade de gendarmerie","district_region":null,"departement_commune":null,"verifie":true,"name":"GENDARMERIE NATIONALE BRIGARDE DE BEOUMI","source":"Géoportail ANSTAT"}},{"type":"Feature","geometry":{"type":"Point","coordinates":[-8.409489999999948,6.580869000000064]},"properties":{"id":37324,"nom":"GENDARMERIE NATIONALE BRIGADE TOULEUPLEU","type":"brigade de gendarmerie","district_region":null,"departement_commune":null,"verifie":true,"name":"GENDARMERIE NATIONALE BRIGADE TOULEUPLEU","source":"Géoportail ANSTAT"}},{"type":"Feature","geometry":{"type":"Point","coordinates":[-4.762785999999949,5.864312000000041]},"properties":{"id":37328,"nom":"GENDARMERIE NATIONALE BRIGADE ROUTIERE DE NDOUCI","type":"brigade de gendarmerie","district_region":null,"departement_commune":null,"verifie":true,"name":"GENDARMERIE NATIONALE BRIGADE ROUTIERE DE NDOUCI","source":"Géoportail ANSTAT"}},{"type":"Feature","geometry":{"type":"Point","coordinates":[-4.416858999999931,6.247736000000032]},"properties":{"id":37330,"nom":"GENDARMERIE NATIONALE BRIGARDE DE CECHI","type":"brigade de gendarmerie","district_region":null,"departement_commune":null,"verifie":true,"name":"GENDARMERIE NATIONALE BRIGARDE DE CECHI","source":"Géoportail ANSTAT"}},{"type":"Feature","geometry":{"type":"Point","coordinates":[-5.237799999999936,5.517634000000044]},"properties":{"id":37334,"nom":"GENDARMERIE NATIONALE BRIGADE DE GUITRY","type":"brigade de gendarmerie","district_region":null,"departement_commune":null,"verifie":true,"name":"GENDARMERIE NATIONALE BRIGADE DE GUITRY","source":"Géoportail ANSTAT"}},{"type":"Feature","geometry":{"type":"Point","coordinates":[-3.348317999999949,6.378109000000052]},"properties":{"id":37341,"nom":"GENDARMERIE NATIONALE BRIGARDE ELIBILASSOKRO","type":"brigade de gendarmerie","district_region":null,"departement_commune":null,"verifie":true,"name":"GENDARMERIE NATIONALE BRIGARDE ELIBILASSOKRO","source":"Géoportail ANSTAT"}},{"type":"Feature","geometry":{"type":"Point","coordinates":[-3.271527999999932,6.662405000000035]},"properties":{"id":37344,"nom":"GENDARMERIE NATIONALE BRIGADE DE NIABLE","type":"brigade de gendarmerie","district_region":null,"departement_commune":null,"verifie":true,"name":"GENDARMERIE NATIONALE BRIGADE DE NIABLE","source":"Géoportail ANSTAT"}},{"type":"Feature","geometry":{"type":"Point","coordinates":[-6.942669999999964,9.611193000000071]},"properties":{"id":37347,"nom":"GENDARMERIE NATIONALE BRIGARDE DE MADINANI","type":"brigade de gendarmerie","district_region":null,"departement_commune":null,"verifie":true,"name":"GENDARMERIE NATIONALE BRIGARDE DE MADINANI","source":"Géoportail ANSTAT"}},{"type":"Feature","geometry":{"type":"Point","coordinates":[-7.314191999999935,9.54466700000006]},"properties":{"id":37348,"nom":"GENDARMERIE NATIONALE BRIGADE TIEME","type":"brigade de gendarmerie","district_region":null,"departement_commune":null,"verifie":true,"name":"GENDARMERIE NATIONALE BRIGADE TIEME","source":"Géoportail ANSTAT"}},{"type":"Feature","geometry":{"type":"Point","coordinates":[-3.943184999999971,5.982129000000043]},"properties":{"id":37351,"nom":"GENDARMERIE NATIONAL BRIGARDE D AGOU","type":"brigade de gendarmerie","district_region":null,"departement_commune":null,"verifie":true,"name":"GENDARMERIE NATIONAL BRIGARDE D AGOU","source":"Géoportail ANSTAT"}},{"type":"Feature","geometry":{"type":"Point","coordinates":[-3.884791999999948,6.379829000000029]},"properties":{"id":37352,"nom":"GENDARMERIE NATIONALE BRIGADE AKOUPE","type":"brigade de gendarmerie","district_region":null,"departement_commune":null,"verifie":true,"name":"GENDARMERIE NATIONALE BRIGADE AKOUPE","source":"Géoportail ANSTAT"}},{"type":"Feature","geometry":{"type":"Point","coordinates":[-7.548816999999929,7.103723000000059]},"properties":{"id":37356,"nom":"GENDARMERIE NATIONLE  BRIGARDE DE LOGOUALE","type":"brigade de gendarmerie","district_region":null,"departement_commune":null,"verifie":true,"name":"GENDARMERIE NATIONLE  BRIGARDE DE LOGOUALE","source":"Géoportail ANSTAT"}},{"type":"Feature","geometry":{"type":"Point","coordinates":[-8.097702999999967,7.858586000000059]},"properties":{"id":37359,"nom":"GENDARMERIE NATIONALE BRIGADE DE SIPILOU","type":"brigade de gendarmerie","district_region":null,"departement_commune":null,"verifie":true,"name":"GENDARMERIE NATIONALE BRIGADE DE SIPILOU","source":"Géoportail ANSTAT"}},{"type":"Feature","geometry":{"type":"Point","coordinates":[-7.622920999999963,7.741258000000073]},"properties":{"id":37360,"nom":"GENDARMERIE NATIONALE BRIGADE DE BIANKOUMA","type":"brigade de gendarmerie","district_region":null,"departement_commune":null,"verifie":true,"name":"GENDARMERIE NATIONALE BRIGADE DE BIANKOUMA","source":"Géoportail ANSTAT"}},{"type":"Feature","geometry":{"type":"Point","coordinates":[-6.670573999999931,7.967777000000069]},"properties":{"id":37451,"nom":"LA BRIGADE DE GENDARMERIE DE SEGUELA","type":"brigade de gendarmerie","district_region":null,"departement_commune":null,"verifie":true,"name":"LA BRIGADE DE GENDARMERIE DE SEGUELA","source":"Géoportail ANSTAT"}},{"type":"Feature","geometry":{"type":"Point","coordinates":[-4.132542999999941,6.696546000000069]},"properties":{"id":38421,"nom":"POSTE DE BRIGARDE DE KOTOBI","type":"brigade de gendarmerie","district_region":null,"departement_commune":null,"verifie":true,"name":"POSTE DE BRIGARDE DE KOTOBI","source":"Géoportail ANSTAT"}},{"type":"Feature","geometry":{"type":"Point","coordinates":[-6.455289999999934,6.884495000000072]},"properties":{"id":38517,"nom":"POSTE  GENDARMERIE  BRIGADE VILLE","type":"brigade de gendarmerie","district_region":null,"departement_commune":null,"verifie":true,"name":"POSTE  GENDARMERIE  BRIGADE VILLE","source":"Géoportail ANSTAT"}},{"type":"Feature","geometry":{"type":"Point","coordinates":[-4.00965599999995,5.902234000000021]},"properties":{"id":38580,"nom":"POSTE DE BECEDI BRIGNAN","type":"brigade de gendarmerie","district_region":null,"departement_commune":null,"verifie":true,"name":"POSTE DE BECEDI BRIGNAN","source":"Géoportail ANSTAT"}},{"type":"Feature","geometry":{"type":"Point","coordinates":[-3.888082999999938,5.359115000000031]},"properties":{"id":39729,"nom":"BRIGADE DE BINGERVILLE","type":"brigade de gendarmerie","district_region":null,"departement_commune":null,"verifie":true,"name":"BRIGADE DE BINGERVILLE","source":"Géoportail ANSTAT"}},{"type":"Feature","geometry":{"type":"Point","coordinates":[-4.102541999999971,5.366971000000035]},"properties":{"id":39733,"nom":"BRIGARDE AUTOROUTIERE GESCO","type":"brigade de gendarmerie","district_region":null,"departement_commune":null,"verifie":true,"name":"BRIGARDE AUTOROUTIERE GESCO","source":"Géoportail ANSTAT"}},{"type":"Feature","geometry":{"type":"Point","coordinates":[-4.086045999999953,5.362048000000073]},"properties":{"id":39743,"nom":"BRIGADE ANTI EMEUTE","type":"brigade de gendarmerie","district_region":null,"departement_commune":null,"verifie":true,"name":"BRIGADE ANTI EMEUTE","source":"Géoportail ANSTAT"}},{"type":"Feature","geometry":{"type":"Point","coordinates":[-4.020817999999963,5.336519000000067]},"properties":{"id":39750,"nom":"BRIGARDE DE RECHERCHE","type":"brigade de gendarmerie","district_region":null,"departement_commune":null,"verifie":true,"name":"BRIGARDE DE RECHERCHE","source":"Géoportail ANSTAT"}},{"type":"Feature","geometry":{"type":"Point","coordinates":[-4.021510999999975,5.336067000000071]},"properties":{"id":39751,"nom":"BRIGARDE DE SECURITE","type":"brigade de gendarmerie","district_region":null,"departement_commune":null,"verifie":true,"name":"BRIGARDE DE SECURITE","source":"Géoportail ANSTAT"}},{"type":"Feature","geometry":{"type":"Point","coordinates":[-4.026348999999925,5.357380000000035]},"properties":{"id":39754,"nom":"BRIGADE D ADJAME","type":"brigade de gendarmerie","district_region":null,"departement_commune":null,"verifie":true,"name":"BRIGADE D ADJAME","source":"Géoportail ANSTAT"}},{"type":"Feature","geometry":{"type":"Point","coordinates":[-4.003753999999958,5.286877000000061]},"properties":{"id":39819,"nom":"BRIGADE","type":"brigade de gendarmerie","district_region":null,"departement_commune":null,"verifie":true,"name":"BRIGADE","source":"Géoportail ANSTAT"}},{"type":"Feature","geometry":{"type":"Point","coordinates":[-3.952672999999947,5.312466000000029]},"properties":{"id":39843,"nom":"BRIGARDE DE KOIMASSI","type":"brigade de gendarmerie","district_region":null,"departement_commune":null,"verifie":true,"name":"BRIGARDE DE KOIMASSI","source":"Géoportail ANSTAT"}},{"type":"Feature","geometry":{"type":"Point","coordinates":[-3.96189499999997,5.271667000000036]},"properties":{"id":39850,"nom":"BRIGADE SPECIALE EQUESTRE","type":"brigade de gendarmerie","district_region":null,"departement_commune":null,"verifie":true,"name":"BRIGADE SPECIALE EQUESTRE","source":"Géoportail ANSTAT"}},{"type":"Feature","geometry":{"type":"Point","coordinates":[-3.939269999999965,5.274258000000032]},"properties":{"id":39851,"nom":"BRIGADE DE SECURITE D ABOUABOU","type":"brigade de gendarmerie","district_region":null,"departement_commune":null,"verifie":true,"name":"BRIGADE DE SECURITE D ABOUABOU","source":"Géoportail ANSTAT"}},{"type":"Feature","geometry":{"type":"Point","coordinates":[-4.020574999999951,5.427124000000049]},"properties":{"id":39862,"nom":"GENDARMERIE NATIONALE BRIGADE DE ABOBO","type":"brigade de gendarmerie","district_region":null,"departement_commune":null,"verifie":true,"name":"GENDARMERIE NATIONALE BRIGADE DE ABOBO","source":"Géoportail ANSTAT"}},{"type":"Feature","geometry":{"type":"Point","coordinates":[-3.947647999999958,5.272745000000043]},"properties":{"id":39983,"nom":"GENDAMERIE NATIONNALE BRIGARDE P0RT BOUETPOSTE D ADJAHUI COUBE","type":"brigade de gendarmerie","district_region":null,"departement_commune":null,"verifie":true,"name":"GENDAMERIE NATIONNALE BRIGARDE P0RT BOUETPOSTE D ADJAHUI COUBE","source":"Géoportail ANSTAT"}}],"metadata":{"dataset":"Brigade de gendarmerie — ANSTAT","source":"Géoportail ANSTAT","theme":"Sécurité","verified":true,"apercu":"complet"}}