{"type":"FeatureCollection","features":[{"type":"Feature","geometry":{"type":"Point","coordinates":[-3.370548999999926,5.143534000000045]},"properties":{"id":37267,"nom":"GARE DES PINASSES","type":"gare lagunaire","district_region":null,"departement_commune":null,"verifie":true,"name":"GARE DES PINASSES","source":"Géoportail ANSTAT"}},{"type":"Feature","geometry":{"type":"Point","coordinates":[-3.429182999999966,5.15355900000003]},"properties":{"id":37392,"nom":"GARE DES PINASSES","type":"gare lagunaire","district_region":null,"departement_commune":null,"verifie":true,"name":"GARE DES PINASSES","source":"Géoportail ANSTAT"}},{"type":"Feature","geometry":{"type":"Point","coordinates":[-3.263856999999973,5.346215000000029]},"properties":{"id":37484,"nom":"LE QUAI","type":"gare lagunaire","district_region":null,"departement_commune":null,"verifie":true,"name":"LE QUAI","source":"Géoportail ANSTAT"}},{"type":"Feature","geometry":{"type":"Point","coordinates":[-4.143050999999957,5.293097000000046]},"properties":{"id":38644,"nom":"QUAI GNIAVA GEORGE","type":"gare lagunaire","district_region":null,"departement_commune":null,"verifie":true,"name":"QUAI GNIAVA GEORGE","source":"Géoportail ANSTAT"}},{"type":"Feature","geometry":{"type":"Point","coordinates":[-3.318852999999933,5.183279000000027]},"properties":{"id":38647,"nom":"QUAI","type":"gare lagunaire","district_region":null,"departement_commune":null,"verifie":true,"name":"QUAI","source":"Géoportail ANSTAT"}},{"type":"Feature","geometry":{"type":"Point","coordinates":[-4.015101999999956,5.315815000000043]},"properties":{"id":39534,"nom":"AQUALINES","type":"gare lagunaire","district_region":null,"departement_commune":null,"verifie":true,"name":"AQUALINES","source":"Géoportail ANSTAT"}},{"type":"Feature","geometry":{"type":"Point","coordinates":[-4.037630999999976,5.308222000000058]},"properties":{"id":39629,"nom":"AQUALINES","type":"gare lagunaire","district_region":null,"departement_commune":null,"verifie":true,"name":"AQUALINES","source":"Géoportail ANSTAT"}},{"type":"Feature","geometry":{"type":"Point","coordinates":[-3.943439999999953,5.280265000000043]},"properties":{"id":39658,"nom":"ABINAN TRANSPORT LAGUNAIRE QUAI PINASSE","type":"gare lagunaire","district_region":null,"departement_commune":null,"verifie":true,"name":"ABINAN TRANSPORT LAGUNAIRE QUAI PINASSE","source":"Géoportail ANSTAT"}},{"type":"Feature","geometry":{"type":"Point","coordinates":[-3.954392999999925,5.321247000000028]},"properties":{"id":39895,"nom":"GARE DE PINASSE","type":"gare lagunaire","district_region":null,"departement_commune":null,"verifie":true,"name":"GARE DE PINASSE","source":"Géoportail ANSTAT"}},{"type":"Feature","geometry":{"type":"Point","coordinates":[-4.028599999999926,5.327615000000037]},"properties":{"id":39943,"nom":"GARE DE PINASSE","type":"gare lagunaire","district_region":null,"departement_commune":null,"verifie":true,"name":"GARE DE PINASSE","source":"Géoportail ANSTAT"}},{"type":"Feature","geometry":{"type":"Point","coordinates":[-4.020254999999963,5.314035000000047]},"properties":{"id":39944,"nom":"GARE DE PINASSE","type":"gare lagunaire","district_region":null,"departement_commune":null,"verifie":true,"name":"GARE DE PINASSE","source":"Géoportail ANSTAT"}},{"type":"Feature","geometry":{"type":"Point","coordinates":[-4.017683999999974,5.314170000000047]},"properties":{"id":39949,"nom":"GARE LAGUNAIRE","type":"gare lagunaire","district_region":null,"departement_commune":null,"verifie":true,"name":"GARE LAGUNAIRE","source":"Géoportail ANSTAT"}},{"type":"Feature","geometry":{"type":"Point","coordinates":[-4.010089999999934,5.31303900000006]},"properties":{"id":39969,"nom":"GARE LAGUNAIRE STL","type":"gare lagunaire","district_region":null,"departement_commune":null,"verifie":true,"name":"GARE LAGUNAIRE STL","source":"Géoportail ANSTAT"}},{"type":"Feature","geometry":{"type":"Point","coordinates":[-3.944235999999933,5.278765000000021]},"properties":{"id":39982,"nom":"GARE DE PINASSE SOWETO MARIE CLAIRE","type":"gare lagunaire","district_region":null,"departement_commune":null,"verifie":true,"name":"GARE DE PINASSE SOWETO MARIE CLAIRE","source":"Géoportail ANSTAT"}},{"type":"Feature","geometry":{"type":"Point","coordinates":[-4.037202999999977,5.308429000000046]},"properties":{"id":40043,"nom":"GARE DE PINASSE","type":"gare lagunaire","district_region":null,"departement_commune":null,"verifie":true,"name":"GARE DE PINASSE","source":"Géoportail ANSTAT"}},{"type":"Feature","geometry":{"type":"Point","coordinates":[-4.033429999999953,5.259011000000044]},"properties":{"id":40052,"nom":"GARE PINASSE AKO","type":"gare lagunaire","district_region":null,"departement_commune":null,"verifie":true,"name":"GARE PINASSE AKO","source":"Géoportail ANSTAT"}},{"type":"Feature","geometry":{"type":"Point","coordinates":[-4.015141999999969,5.310306000000026]},"properties":{"id":40566,"nom":"SOTRA GARE LAGUNAIRE","type":"gare lagunaire","district_region":null,"departement_commune":null,"verifie":true,"name":"SOTRA GARE LAGUNAIRE","source":"Géoportail ANSTAT"}},{"type":"Feature","geometry":{"type":"Point","coordinates":[-4.035312999999974,5.310203000000058]},"properties":{"id":40570,"nom":"QUAI OU LIEU DE DEBARCATION","type":"gare lagunaire","district_region":null,"departement_commune":null,"verifie":true,"name":"QUAI OU LIEU DE DEBARCATION","source":"Géoportail ANSTAT"}},{"type":"Feature","geometry":{"type":"Point","coordinates":[-4.036212999999975,5.341554000000031]},"properties":{"id":40573,"nom":"QUAI PINASSE","type":"gare lagunaire","district_region":null,"departement_commune":null,"verifie":true,"name":"QUAI PINASSE","source":"Géoportail ANSTAT"}},{"type":"Feature","geometry":{"type":"Point","coordinates":[-4.034566999999925,5.322649000000069]},"properties":{"id":40589,"nom":"PINASSE CISSE","type":"gare lagunaire","district_region":null,"departement_commune":null,"verifie":true,"name":"PINASSE CISSE","source":"Géoportail ANSTAT"}},{"type":"Feature","geometry":{"type":"Point","coordinates":[-4.032543999999973,5.320048000000043]},"properties":{"id":40590,"nom":"QUAI PINASSE","type":"gare lagunaire","district_region":null,"departement_commune":null,"verifie":true,"name":"QUAI PINASSE","source":"Géoportail ANSTAT"}},{"type":"Feature","geometry":{"type":"Point","coordinates":[-5.580713199999934,5.095966000000033]},"properties":{"id":103365,"nom":"QUAI PIROGUE FRESCO PLAGE","type":"gare lagunaire","district_region":null,"departement_commune":null,"verifie":true,"name":"QUAI PIROGUE FRESCO PLAGE","source":"Géoportail ANSTAT"}}],"metadata":{"dataset":"Gare lagunaire — ANSTAT","source":"Géoportail ANSTAT","theme":"Transport & mobilité","verified":true,"apercu":"complet"}}