{"type":"FeatureCollection","features":[{"type":"Feature","geometry":{"type":"Point","coordinates":[-3.993388999999979,5.362748000000067]},"properties":{"id":39718,"nom":"COMMANDEMENT DE LA GENDARMERIE MOBILE","type":"unité de commandemant","district_region":null,"departement_commune":null,"verifie":true,"name":"COMMANDEMENT DE LA GENDARMERIE MOBILE","source":"Géoportail ANSTAT"}},{"type":"Feature","geometry":{"type":"Point","coordinates":[-3.988205999999934,5.359567000000027]},"properties":{"id":39719,"nom":"COMMANDEMENT DE LA GENDARMERIE TERRITORIALE","type":"unité de commandemant","district_region":null,"departement_commune":null,"verifie":true,"name":"COMMANDEMENT DE LA GENDARMERIE TERRITORIALE","source":"Géoportail ANSTAT"}},{"type":"Feature","geometry":{"type":"Point","coordinates":[-4.022262999999953,5.33604500000007]},"properties":{"id":39793,"nom":"COMMANDEMENT SUPERIEURE GENDARMERIE NATIONALE","type":"unité de commandemant","district_region":null,"departement_commune":null,"verifie":true,"name":"COMMANDEMENT SUPERIEURE GENDARMERIE NATIONALE","source":"Géoportail ANSTAT"}}],"metadata":{"dataset":"Unité de commandemant — ANSTAT","source":"Géoportail ANSTAT","theme":"Défense & Militaire","verified":true,"apercu":"complet"}}