{"type":"FeatureCollection","features":[{"type":"Feature","geometry":{"type":"Point","coordinates":[-6.440988999999945,6.869829000000038]},"properties":{"id":56808,"nom":"PETIT MARCHE ABATTOIR 1","type":"abattoir","district_region":null,"departement_commune":null,"verifie":true,"name":"PETIT MARCHE ABATTOIR 1","source":"Géoportail ANSTAT"}},{"type":"Feature","geometry":{"type":"Point","coordinates":[-3.964175999999952,5.263358000000039]},"properties":{"id":56813,"nom":"MARCHE DE LABATTOIR","type":"abattoir","district_region":null,"departement_commune":null,"verifie":true,"name":"MARCHE DE LABATTOIR","source":"Géoportail ANSTAT"}},{"type":"Feature","geometry":{"type":"Point","coordinates":[-6.059403999999972,5.339308000000074]},"properties":{"id":71001,"nom":"ANCIEN MARCHE","type":"abattoir","district_region":null,"departement_commune":null,"verifie":true,"name":"ANCIEN MARCHE","source":"Géoportail ANSTAT"}},{"type":"Feature","geometry":{"type":"Point","coordinates":[-6.55337899999995,5.405371000000059]},"properties":{"id":71003,"nom":"CDCI GROS","type":"abattoir","district_region":null,"departement_commune":null,"verifie":true,"name":"CDCI GROS","source":"Géoportail ANSTAT"}},{"type":"Feature","geometry":{"type":"Point","coordinates":[-7.549484999999947,7.41203100000007]},"properties":{"id":71004,"nom":"CDCI GROS MAN","type":"abattoir","district_region":null,"departement_commune":null,"verifie":true,"name":"CDCI GROS MAN","source":"Géoportail ANSTAT"}},{"type":"Feature","geometry":{"type":"Point","coordinates":[-6.264918999999963,6.490697000000068]},"properties":{"id":71005,"nom":"GRAND MARCHE DE SAIOUA","type":"abattoir","district_region":null,"departement_commune":null,"verifie":true,"name":"GRAND MARCHE DE SAIOUA","source":"Géoportail ANSTAT"}},{"type":"Feature","geometry":{"type":"Point","coordinates":[-5.614744999999971,9.470520000000022]},"properties":{"id":71011,"nom":"MARCHE","type":"abattoir","district_region":null,"departement_commune":null,"verifie":true,"name":"MARCHE","source":"Géoportail ANSTAT"}},{"type":"Feature","geometry":{"type":"Point","coordinates":[-5.631431999999961,9.458286000000044]},"properties":{"id":71012,"nom":"MARCHE","type":"abattoir","district_region":null,"departement_commune":null,"verifie":true,"name":"MARCHE","source":"Géoportail ANSTAT"}},{"type":"Feature","geometry":{"type":"Point","coordinates":[-6.190082999999959,6.53815000000003]},"properties":{"id":71013,"nom":"MARCHE","type":"abattoir","district_region":null,"departement_commune":null,"verifie":true,"name":"MARCHE","source":"Géoportail ANSTAT"}},{"type":"Feature","geometry":{"type":"Point","coordinates":[-3.417576999999937,6.911715000000072]},"properties":{"id":71014,"nom":"MARCHE","type":"abattoir","district_region":null,"departement_commune":null,"verifie":true,"name":"MARCHE","source":"Géoportail ANSTAT"}},{"type":"Feature","geometry":{"type":"Point","coordinates":[-4.161711999999966,7.889455000000055]},"properties":{"id":71015,"nom":"MARCHE","type":"abattoir","district_region":null,"departement_commune":null,"verifie":true,"name":"MARCHE","source":"Géoportail ANSTAT"}},{"type":"Feature","geometry":{"type":"Point","coordinates":[-5.963884999999948,9.407192000000066]},"properties":{"id":71016,"nom":"MARCHE","type":"abattoir","district_region":null,"departement_commune":null,"verifie":true,"name":"MARCHE","source":"Géoportail ANSTAT"}},{"type":"Feature","geometry":{"type":"Point","coordinates":[-6.105192999999929,5.343154000000027]},"properties":{"id":71017,"nom":"MARCHE","type":"abattoir","district_region":null,"departement_commune":null,"verifie":true,"name":"MARCHE","source":"Géoportail ANSTAT"}},{"type":"Feature","geometry":{"type":"Point","coordinates":[-6.141869999999926,7.597979000000066]},"properties":{"id":71018,"nom":"MARCHE","type":"abattoir","district_region":null,"departement_commune":null,"verifie":true,"name":"MARCHE","source":"Géoportail ANSTAT"}},{"type":"Feature","geometry":{"type":"Point","coordinates":[-6.152612999999974,6.898527000000058]},"properties":{"id":71019,"nom":"MARCHE","type":"abattoir","district_region":null,"departement_commune":null,"verifie":true,"name":"MARCHE","source":"Géoportail ANSTAT"}},{"type":"Feature","geometry":{"type":"Point","coordinates":[-3.237496999999962,6.473533000000032]},"properties":{"id":71020,"nom":"MARCHE","type":"abattoir","district_region":null,"departement_commune":null,"verifie":true,"name":"MARCHE","source":"Géoportail ANSTAT"}},{"type":"Feature","geometry":{"type":"Point","coordinates":[-3.631016999999929,6.580577000000062]},"properties":{"id":71021,"nom":"MARCHE ASSAKRO","type":"abattoir","district_region":null,"departement_commune":null,"verifie":true,"name":"MARCHE ASSAKRO","source":"Géoportail ANSTAT"}},{"type":"Feature","geometry":{"type":"Point","coordinates":[-4.166313999999943,7.198611000000028]},"properties":{"id":71022,"nom":"MARCHE BROU KOFFIKRO","type":"abattoir","district_region":null,"departement_commune":null,"verifie":true,"name":"MARCHE BROU KOFFIKRO","source":"Géoportail ANSTAT"}},{"type":"Feature","geometry":{"type":"Point","coordinates":[-5.900004999999965,8.79848400000003]},"properties":{"id":71023,"nom":"MARCHE DE FARAKORO","type":"abattoir","district_region":null,"departement_commune":null,"verifie":true,"name":"MARCHE DE FARAKORO","source":"Géoportail ANSTAT"}},{"type":"Feature","geometry":{"type":"Point","coordinates":[-5.628977999999961,9.457908000000032]},"properties":{"id":71024,"nom":"MARCHE DE GROS DE LEGUMES","type":"abattoir","district_region":null,"departement_commune":null,"verifie":true,"name":"MARCHE DE GROS DE LEGUMES","source":"Géoportail ANSTAT"}},{"type":"Feature","geometry":{"type":"Point","coordinates":[-5.563596999999959,9.228365000000052]},"properties":{"id":71025,"nom":"MARCHE DE COTON","type":"abattoir","district_region":null,"departement_commune":null,"verifie":true,"name":"MARCHE DE COTON","source":"Géoportail ANSTAT"}},{"type":"Feature","geometry":{"type":"Point","coordinates":[-4.129243999999971,6.69600900000006]},"properties":{"id":71026,"nom":"MARCHE DE GROS DE KOTOBI","type":"abattoir","district_region":null,"departement_commune":null,"verifie":true,"name":"MARCHE DE GROS DE KOTOBI","source":"Géoportail ANSTAT"}},{"type":"Feature","geometry":{"type":"Point","coordinates":[-5.813036999999952,6.961633000000063]},"properties":{"id":71027,"nom":"MARCHE DE BANANE","type":"abattoir","district_region":null,"departement_commune":null,"verifie":true,"name":"MARCHE DE BANANE","source":"Géoportail ANSTAT"}},{"type":"Feature","geometry":{"type":"Point","coordinates":[-7.478136999999947,5.89632800000004]},"properties":{"id":71028,"nom":"MARCHE DE GROS DE PONAN","type":"abattoir","district_region":null,"departement_commune":null,"verifie":true,"name":"MARCHE DE GROS DE PONAN","source":"Géoportail ANSTAT"}},{"type":"Feature","geometry":{"type":"Point","coordinates":[-6.469805999999949,7.377011000000039]},"properties":{"id":71029,"nom":"MARCHE DE CACAO","type":"abattoir","district_region":null,"departement_commune":null,"verifie":true,"name":"MARCHE DE CACAO","source":"Géoportail ANSTAT"}},{"type":"Feature","geometry":{"type":"Point","coordinates":[-6.76670299999995,6.707355000000064]},"properties":{"id":71030,"nom":"MARCHE DE DEDEGBEU","type":"abattoir","district_region":null,"departement_commune":null,"verifie":true,"name":"MARCHE DE DEDEGBEU","source":"Géoportail ANSTAT"}},{"type":"Feature","geometry":{"type":"Point","coordinates":[-7.672722999999962,7.331489000000033]},"properties":{"id":71031,"nom":"MARCHE DE GBANGBEGOUINE YATY","type":"abattoir","district_region":null,"departement_commune":null,"verifie":true,"name":"MARCHE DE GBANGBEGOUINE YATY","source":"Géoportail ANSTAT"}},{"type":"Feature","geometry":{"type":"Point","coordinates":[-8.161090999999942,7.267395000000022]},"properties":{"id":71032,"nom":"MARCHE DE GROS DE GONTIPLEU","type":"abattoir","district_region":null,"departement_commune":null,"verifie":true,"name":"MARCHE DE GROS DE GONTIPLEU","source":"Géoportail ANSTAT"}},{"type":"Feature","geometry":{"type":"Point","coordinates":[-7.297277999999949,7.611196000000064]},"properties":{"id":71033,"nom":"MARCHE DE GOURANE","type":"abattoir","district_region":null,"departement_commune":null,"verifie":true,"name":"MARCHE DE GOURANE","source":"Géoportail ANSTAT"}},{"type":"Feature","geometry":{"type":"Point","coordinates":[-3.96193999999997,7.466463000000033]},"properties":{"id":71034,"nom":"MARCHE DE KOFFI AMONKRO","type":"abattoir","district_region":null,"departement_commune":null,"verifie":true,"name":"MARCHE DE KOFFI AMONKRO","source":"Géoportail ANSTAT"}},{"type":"Feature","geometry":{"type":"Point","coordinates":[-3.95633399999997,7.076690000000042]},"properties":{"id":71035,"nom":"MARCHE DE GROS DE LA REGION DE L IFFOU","type":"abattoir","district_region":null,"departement_commune":null,"verifie":true,"name":"MARCHE DE GROS DE LA REGION DE L IFFOU","source":"Géoportail ANSTAT"}},{"type":"Feature","geometry":{"type":"Point","coordinates":[-4.629485999999929,9.426265000000058]},"properties":{"id":71036,"nom":"MARCHE DE LINGUEKORO","type":"abattoir","district_region":null,"departement_commune":null,"verifie":true,"name":"MARCHE DE LINGUEKORO","source":"Géoportail ANSTAT"}},{"type":"Feature","geometry":{"type":"Point","coordinates":[-5.975846999999931,8.681622000000061]},"properties":{"id":71037,"nom":"MARCHE DE MARAH","type":"abattoir","district_region":null,"departement_commune":null,"verifie":true,"name":"MARCHE DE MARAH","source":"Géoportail ANSTAT"}},{"type":"Feature","geometry":{"type":"Point","coordinates":[-5.009823999999981,6.556444000000056]},"properties":{"id":71038,"nom":"MARCHE DE MANIOC","type":"abattoir","district_region":null,"departement_commune":null,"verifie":true,"name":"MARCHE DE MANIOC","source":"Géoportail ANSTAT"}},{"type":"Feature","geometry":{"type":"Point","coordinates":[-6.625504999999976,7.846835000000056]},"properties":{"id":71039,"nom":"MARCHE DE TEGUELA","type":"abattoir","district_region":null,"departement_commune":null,"verifie":true,"name":"MARCHE DE TEGUELA","source":"Géoportail ANSTAT"}},{"type":"Feature","geometry":{"type":"Point","coordinates":[-8.416049999999927,6.582863000000032]},"properties":{"id":71040,"nom":"MARCHE DE TOULEPLEU","type":"abattoir","district_region":null,"departement_commune":null,"verifie":true,"name":"MARCHE DE TOULEPLEU","source":"Géoportail ANSTAT"}},{"type":"Feature","geometry":{"type":"Point","coordinates":[-4.337344999999971,7.454328000000032]},"properties":{"id":71041,"nom":"MARCHE DE M BAHIAKRO","type":"abattoir","district_region":null,"departement_commune":null,"verifie":true,"name":"MARCHE DE M BAHIAKRO","source":"Géoportail ANSTAT"}},{"type":"Feature","geometry":{"type":"Point","coordinates":[-6.994612999999958,7.446875000000034]},"properties":{"id":71042,"nom":"NOUVEAU MARCHE","type":"abattoir","district_region":null,"departement_commune":null,"verifie":true,"name":"NOUVEAU MARCHE","source":"Géoportail ANSTAT"}},{"type":"Feature","geometry":{"type":"Point","coordinates":[-5.026670999999965,7.706572000000051]},"properties":{"id":71043,"nom":"PIECES DETACHEES DES MOTOS EN GROS ET DETAIL","type":"abattoir","district_region":null,"departement_commune":null,"verifie":true,"name":"PIECES DETACHEES DES MOTOS EN GROS ET DETAIL","source":"Géoportail ANSTAT"}},{"type":"Feature","geometry":{"type":"Point","coordinates":[-4.093506999999931,5.321729000000062]},"properties":{"id":71046,"nom":"FORUM DES MARCHES DE NIANGON","type":"abattoir","district_region":null,"departement_commune":null,"verifie":true,"name":"FORUM DES MARCHES DE NIANGON","source":"Géoportail ANSTAT"}},{"type":"Feature","geometry":{"type":"Point","coordinates":[-4.033414999999934,5.438062000000059]},"properties":{"id":71047,"nom":"MARCHE DE BOIS","type":"abattoir","district_region":null,"departement_commune":null,"verifie":true,"name":"MARCHE DE BOIS","source":"Géoportail ANSTAT"}},{"type":"Feature","geometry":{"type":"Point","coordinates":[-4.127142999999933,5.338058000000046]},"properties":{"id":71048,"nom":"MARCHE PK17","type":"abattoir","district_region":null,"departement_commune":null,"verifie":true,"name":"MARCHE PK17","source":"Géoportail ANSTAT"}},{"type":"Feature","geometry":{"type":"Point","coordinates":[-4.076179999999965,5.350614000000064]},"properties":{"id":71049,"nom":"MARCHE GOURO","type":"abattoir","district_region":null,"departement_commune":null,"verifie":true,"name":"MARCHE GOURO","source":"Géoportail ANSTAT"}},{"type":"Feature","geometry":{"type":"Point","coordinates":[-4.085831999999925,5.345515000000034]},"properties":{"id":71050,"nom":"MARCHE DE BOIS","type":"abattoir","district_region":null,"departement_commune":null,"verifie":true,"name":"MARCHE DE BOIS","source":"Géoportail ANSTAT"}},{"type":"Feature","geometry":{"type":"Point","coordinates":[-4.092096999999967,5.318816000000027]},"properties":{"id":71051,"nom":"MARCHE DE AGAUCHE","type":"abattoir","district_region":null,"departement_commune":null,"verifie":true,"name":"MARCHE DE AGAUCHE","source":"Géoportail ANSTAT"}},{"type":"Feature","geometry":{"type":"Point","coordinates":[-4.027718999999934,5.345068000000026]},"properties":{"id":71052,"nom":"MARCHE DE FRUIT","type":"abattoir","district_region":null,"departement_commune":null,"verifie":true,"name":"MARCHE DE FRUIT","source":"Géoportail ANSTAT"}},{"type":"Feature","geometry":{"type":"Point","coordinates":[-4.024584999999945,5.349823000000072]},"properties":{"id":71053,"nom":"MARCHE ROSALIE 1","type":"abattoir","district_region":null,"departement_commune":null,"verifie":true,"name":"MARCHE ROSALIE 1","source":"Géoportail ANSTAT"}},{"type":"Feature","geometry":{"type":"Point","coordinates":[-4.024306999999965,5.350391000000059]},"properties":{"id":71054,"nom":"MARCHE ROSALIE 2","type":"abattoir","district_region":null,"departement_commune":null,"verifie":true,"name":"MARCHE ROSALIE 2","source":"Géoportail ANSTAT"}},{"type":"Feature","geometry":{"type":"Point","coordinates":[-4.025264999999933,5.350806000000034]},"properties":{"id":71055,"nom":"MARCHE ROXY","type":"abattoir","district_region":null,"departement_commune":null,"verifie":true,"name":"MARCHE ROXY","source":"Géoportail ANSTAT"}},{"type":"Feature","geometry":{"type":"Point","coordinates":[-4.038530999999978,5.361666000000071]},"properties":{"id":71057,"nom":"MARCHE DE MANGUE","type":"abattoir","district_region":null,"departement_commune":null,"verifie":true,"name":"MARCHE DE MANGUE","source":"Géoportail ANSTAT"}},{"type":"Feature","geometry":{"type":"Point","coordinates":[-3.988568999999927,5.266909000000055]},"properties":{"id":71058,"nom":"MARCHE DE VRIDI CITE","type":"abattoir","district_region":null,"departement_commune":null,"verifie":true,"name":"MARCHE DE VRIDI CITE","source":"Géoportail ANSTAT"}},{"type":"Feature","geometry":{"type":"Point","coordinates":[-3.885589999999979,5.241692000000057]},"properties":{"id":71059,"nom":"MARCHE DU QUARTIER ABRAHAM","type":"abattoir","district_region":null,"departement_commune":null,"verifie":true,"name":"MARCHE DU QUARTIER ABRAHAM","source":"Géoportail ANSTAT"}},{"type":"Feature","geometry":{"type":"Point","coordinates":[-4.042172999999934,5.327769000000046]},"properties":{"id":71060,"nom":"MARCHE DE LOCODJRO","type":"abattoir","district_region":null,"departement_commune":null,"verifie":true,"name":"MARCHE DE LOCODJRO","source":"Géoportail ANSTAT"}},{"type":"Feature","geometry":{"type":"Point","coordinates":[-4.041845999999964,5.329210000000046]},"properties":{"id":71061,"nom":"MARCHE DE POISSON FUME","type":"abattoir","district_region":null,"departement_commune":null,"verifie":true,"name":"MARCHE DE POISSON FUME","source":"Géoportail ANSTAT"}}],"metadata":{"dataset":"Abattoir — ANSTAT","source":"Géoportail ANSTAT","theme":"Commerce & Économie","verified":true,"apercu":"complet"}}