{"type":"FeatureCollection","features":[{"type":"Feature","geometry":{"type":"Point","coordinates":[-3.734725999999966,5.195800000000077]},"properties":{"id":37737,"nom":"MINISTERE DES EQUIPEMENTS DE L ENTRETIEN  ROUTIER","type":"ministere transport","district_region":null,"departement_commune":null,"verifie":true,"name":"MINISTERE DES EQUIPEMENTS DE L ENTRETIEN  ROUTIER","source":"Géoportail ANSTAT"}}],"metadata":{"dataset":"Ministere transport — ANSTAT","source":"Géoportail ANSTAT","theme":"Transport & mobilité","verified":true,"apercu":"complet"}}