{"type":"FeatureCollection","features":[{"type":"Feature","geometry":{"type":"Point","coordinates":[-5.470140999999956,10.10913000000005]},"properties":{"id":37671,"nom":"MINISTERE DE EAUX ET FORETS  DE DIAWALA","type":"ministère de la sécurité","district_region":null,"departement_commune":null,"verifie":true,"name":"MINISTERE DE EAUX ET FORETS  DE DIAWALA","source":"Géoportail ANSTAT"}},{"type":"Feature","geometry":{"type":"Point","coordinates":[-5.633909999999958,9.447587000000055]},"properties":{"id":37672,"nom":"MINISTERE DES EAUX ET FORETS","type":"ministère de la sécurité","district_region":null,"departement_commune":null,"verifie":true,"name":"MINISTERE DES EAUX ET FORETS","source":"Géoportail ANSTAT"}},{"type":"Feature","geometry":{"type":"Point","coordinates":[-3.980310999999972,6.671596000000022]},"properties":{"id":37673,"nom":"MINISTERE DES EAUX ET FORETS","type":"ministère de la sécurité","district_region":null,"departement_commune":null,"verifie":true,"name":"MINISTERE DES EAUX ET FORETS","source":"Géoportail ANSTAT"}},{"type":"Feature","geometry":{"type":"Point","coordinates":[-5.226673999999946,7.157990000000041]},"properties":{"id":37675,"nom":"MINISTERE  DES EAUX ET FORETS CANTONNEMENT FORESTIER DE TIEBISSOU","type":"ministère de la sécurité","district_region":null,"departement_commune":null,"verifie":true,"name":"MINISTERE  DES EAUX ET FORETS CANTONNEMENT FORESTIER DE TIEBISSOU","source":"Géoportail ANSTAT"}},{"type":"Feature","geometry":{"type":"Point","coordinates":[-5.252881999999943,6.54663800000003]},"properties":{"id":37676,"nom":"MINISTERE DES EAUX ET FORETS","type":"ministère de la sécurité","district_region":null,"departement_commune":null,"verifie":true,"name":"MINISTERE DES EAUX ET FORETS","source":"Géoportail ANSTAT"}},{"type":"Feature","geometry":{"type":"Point","coordinates":[-3.070255999999972,7.993584000000055]},"properties":{"id":37677,"nom":"MINISTERE DES EAUX ET FORETS","type":"ministère de la sécurité","district_region":null,"departement_commune":null,"verifie":true,"name":"MINISTERE DES EAUX ET FORETS","source":"Géoportail ANSTAT"}},{"type":"Feature","geometry":{"type":"Point","coordinates":[-3.012438999999972,7.545643000000041]},"properties":{"id":37678,"nom":"MINISTERE DE L AGRICULTURE ET EAUX ET FORETS","type":"ministère de la sécurité","district_region":null,"departement_commune":null,"verifie":true,"name":"MINISTERE DE L AGRICULTURE ET EAUX ET FORETS","source":"Géoportail ANSTAT"}},{"type":"Feature","geometry":{"type":"Point","coordinates":[-4.062071999999944,6.098017000000027]},"properties":{"id":37683,"nom":"MINISTAIRE DE LA DEFENCE GENDAMERIE NATIONALE D ATTOBROU","type":"ministère de la sécurité","district_region":null,"departement_commune":null,"verifie":true,"name":"MINISTAIRE DE LA DEFENCE GENDAMERIE NATIONALE D ATTOBROU","source":"Géoportail ANSTAT"}},{"type":"Feature","geometry":{"type":"Point","coordinates":[-5.363959999999963,5.832839000000035]},"properties":{"id":37685,"nom":"MINISTERE DES EAUX ET FORETS","type":"ministère de la sécurité","district_region":null,"departement_commune":null,"verifie":true,"name":"MINISTERE DES EAUX ET FORETS","source":"Géoportail ANSTAT"}},{"type":"Feature","geometry":{"type":"Point","coordinates":[-3.369318999999962,6.434611000000075]},"properties":{"id":37686,"nom":"MINESTERE DES E1UX ET FORETS","type":"ministère de la sécurité","district_region":null,"departement_commune":null,"verifie":true,"name":"MINESTERE DES E1UX ET FORETS","source":"Géoportail ANSTAT"}},{"type":"Feature","geometry":{"type":"Point","coordinates":[-3.950538999999935,6.326204000000075]},"properties":{"id":37687,"nom":"MINISTERE DES EAUX ET FORETS","type":"ministère de la sécurité","district_region":null,"departement_commune":null,"verifie":true,"name":"MINISTERE DES EAUX ET FORETS","source":"Géoportail ANSTAT"}},{"type":"Feature","geometry":{"type":"Point","coordinates":[-7.613170999999966,7.734857000000034]},"properties":{"id":37688,"nom":"MINISTERE DES EAUX ET FORETS","type":"ministère de la sécurité","district_region":null,"departement_commune":null,"verifie":true,"name":"MINISTERE DES EAUX ET FORETS","source":"Géoportail ANSTAT"}},{"type":"Feature","geometry":{"type":"Point","coordinates":[-4.020874999999933,5.335114000000033]},"properties":{"id":40244,"nom":"MINISTERE DE LINTERIEUR ET DE LA SECURITE","type":"ministère de la sécurité","district_region":null,"departement_commune":null,"verifie":true,"name":"MINISTERE DE LINTERIEUR ET DE LA SECURITE","source":"Géoportail ANSTAT"}}],"metadata":{"dataset":"Ministère de la sécurité — ANSTAT","source":"Géoportail ANSTAT","theme":"Sécurité","verified":true,"apercu":"complet"}}