{"type":"FeatureCollection","features":[{"type":"Feature","geometry":{"type":"Point","coordinates":[-4.612832999999966,9.15101500000003]},"properties":{"id":36422,"nom":"CANTONNEMENT DES EAUX ET FORETS DE KONG","type":"cantonnement eaux et foret","district_region":null,"departement_commune":null,"verifie":true,"name":"CANTONNEMENT DES EAUX ET FORETS DE KONG","source":"Géoportail ANSTAT"}},{"type":"Feature","geometry":{"type":"Point","coordinates":[-7.498446999999942,4.928668000000073]},"properties":{"id":36425,"nom":"CANTONNEMENT","type":"cantonnement eaux et foret","district_region":null,"departement_commune":null,"verifie":true,"name":"CANTONNEMENT","source":"Géoportail ANSTAT"}},{"type":"Feature","geometry":{"type":"Point","coordinates":[-6.540392999999938,6.112726000000066]},"properties":{"id":36426,"nom":"CANTONNEMENT DES EAUX ET FORTS GRAND ZATTRI","type":"cantonnement eaux et foret","district_region":null,"departement_commune":null,"verifie":true,"name":"CANTONNEMENT DES EAUX ET FORTS GRAND ZATTRI","source":"Géoportail ANSTAT"}},{"type":"Feature","geometry":{"type":"Point","coordinates":[-3.986454999999978,6.680676000000062]},"properties":{"id":36427,"nom":"CANTONNEMENT EAUX ET FORET","type":"cantonnement eaux et foret","district_region":null,"departement_commune":null,"verifie":true,"name":"CANTONNEMENT EAUX ET FORET","source":"Géoportail ANSTAT"}},{"type":"Feature","geometry":{"type":"Point","coordinates":[-7.235188999999934,7.251895000000047]},"properties":{"id":36428,"nom":"CANTONNEMENT DES EAUX ET FORETS DE KOUIBLY","type":"cantonnement eaux et foret","district_region":null,"departement_commune":null,"verifie":true,"name":"CANTONNEMENT DES EAUX ET FORETS DE KOUIBLY","source":"Géoportail ANSTAT"}},{"type":"Feature","geometry":{"type":"Point","coordinates":[-5.418905999999936,6.374883000000068]},"properties":{"id":36435,"nom":"CANTONNEMENT DES EAUX ET FORETS","type":"cantonnement eaux et foret","district_region":null,"departement_commune":null,"verifie":true,"name":"CANTONNEMENT DES EAUX ET FORETS","source":"Géoportail ANSTAT"}},{"type":"Feature","geometry":{"type":"Point","coordinates":[-5.584047999999939,5.109777000000065]},"properties":{"id":36436,"nom":"CANTONNEMENT EAUX ET FORET","type":"cantonnement eaux et foret","district_region":null,"departement_commune":null,"verifie":true,"name":"CANTONNEMENT EAUX ET FORET","source":"Géoportail ANSTAT"}},{"type":"Feature","geometry":{"type":"Point","coordinates":[-5.031570999999929,7.083713000000046]},"properties":{"id":36437,"nom":"CANTONNEMENT DE TIEBISSOU","type":"cantonnement eaux et foret","district_region":null,"departement_commune":null,"verifie":true,"name":"CANTONNEMENT DE TIEBISSOU","source":"Géoportail ANSTAT"}},{"type":"Feature","geometry":{"type":"Point","coordinates":[-3.255421999999953,7.481898000000058]},"properties":{"id":36438,"nom":"CANTONNEMENT DES EAUX ET FORETS DE KOUN FAO","type":"cantonnement eaux et foret","district_region":null,"departement_commune":null,"verifie":true,"name":"CANTONNEMENT DES EAUX ET FORETS DE KOUN FAO","source":"Géoportail ANSTAT"}},{"type":"Feature","geometry":{"type":"Point","coordinates":[-5.311330999999939,7.850025000000073]},"properties":{"id":36439,"nom":"CANTONNEMENT DES EAUX ET FORETS DE BOTRO","type":"cantonnement eaux et foret","district_region":null,"departement_commune":null,"verifie":true,"name":"CANTONNEMENT DES EAUX ET FORETS DE BOTRO","source":"Géoportail ANSTAT"}},{"type":"Feature","geometry":{"type":"Point","coordinates":[-3.346611999999936,9.809734000000049]},"properties":{"id":36441,"nom":"CANTONNEMENT DES EAUX ET FORETS DE DOROPO","type":"cantonnement eaux et foret","district_region":null,"departement_commune":null,"verifie":true,"name":"CANTONNEMENT DES EAUX ET FORETS DE DOROPO","source":"Géoportail ANSTAT"}},{"type":"Feature","geometry":{"type":"Point","coordinates":[-3.672367999999949,9.609091000000037]},"properties":{"id":36442,"nom":"CANTAONNEMENT DES EAUX FORETS","type":"cantonnement eaux et foret","district_region":null,"departement_commune":null,"verifie":true,"name":"CANTAONNEMENT DES EAUX FORETS","source":"Géoportail ANSTAT"}},{"type":"Feature","geometry":{"type":"Point","coordinates":[-6.364040999999929,7.608833000000061]},"properties":{"id":36445,"nom":"CANTONNEMRNT EAUX ET FORETS","type":"cantonnement eaux et foret","district_region":null,"departement_commune":null,"verifie":true,"name":"CANTONNEMRNT EAUX ET FORETS","source":"Géoportail ANSTAT"}},{"type":"Feature","geometry":{"type":"Point","coordinates":[-6.954490999999962,6.73432200000002]},"properties":{"id":36446,"nom":"CANTONNEMENT EAUX ET FORETS","type":"cantonnement eaux et foret","district_region":null,"departement_commune":null,"verifie":true,"name":"CANTONNEMENT EAUX ET FORETS","source":"Géoportail ANSTAT"}},{"type":"Feature","geometry":{"type":"Point","coordinates":[-6.594299999999976,6.487103000000047]},"properties":{"id":36448,"nom":"CANTONNEMENT FORESTIER","type":"cantonnement eaux et foret","district_region":null,"departement_commune":null,"verifie":true,"name":"CANTONNEMENT FORESTIER","source":"Géoportail ANSTAT"}},{"type":"Feature","geometry":{"type":"Point","coordinates":[-6.849713999999949,6.879832000000022]},"properties":{"id":36449,"nom":"CANTONNEMENT DES EAUX ET FORETS BELLEVILLE","type":"cantonnement eaux et foret","district_region":null,"departement_commune":null,"verifie":true,"name":"CANTONNEMENT DES EAUX ET FORETS BELLEVILLE","source":"Géoportail ANSTAT"}},{"type":"Feature","geometry":{"type":"Point","coordinates":[-5.069202999999959,6.275230000000022]},"properties":{"id":36450,"nom":"CANTONNEMENT EAUX ET FORETS","type":"cantonnement eaux et foret","district_region":null,"departement_commune":null,"verifie":true,"name":"CANTONNEMENT EAUX ET FORETS","source":"Géoportail ANSTAT"}},{"type":"Feature","geometry":{"type":"Point","coordinates":[-4.21821499999993,5.925357000000076]},"properties":{"id":36451,"nom":"CANTONNEMENT DES EAUX ET FORETS D AGBOVILLE","type":"cantonnement eaux et foret","district_region":null,"departement_commune":null,"verifie":true,"name":"CANTONNEMENT DES EAUX ET FORETS D AGBOVILLE","source":"Géoportail ANSTAT"}},{"type":"Feature","geometry":{"type":"Point","coordinates":[-5.23716399999995,5.525259000000062]},"properties":{"id":36452,"nom":"CANTONEMENT DES EAUX ET FORET DE GUITRY","type":"cantonnement eaux et foret","district_region":null,"departement_commune":null,"verifie":true,"name":"CANTONEMENT DES EAUX ET FORET DE GUITRY","source":"Géoportail ANSTAT"}},{"type":"Feature","geometry":{"type":"Point","coordinates":[-6.415883999999949,9.884071000000064]},"properties":{"id":36455,"nom":"CANTONNEMENT  DES EAUX ET FORETS DE KOUTO","type":"cantonnement eaux et foret","district_region":null,"departement_commune":null,"verifie":true,"name":"CANTONNEMENT  DES EAUX ET FORETS DE KOUTO","source":"Géoportail ANSTAT"}},{"type":"Feature","geometry":{"type":"Point","coordinates":[-6.399188999999978,10.47494800000004]},"properties":{"id":36458,"nom":"CANTONNEMENT DES AUX ET FORET","type":"cantonnement eaux et foret","district_region":null,"departement_commune":null,"verifie":true,"name":"CANTONNEMENT DES AUX ET FORET","source":"Géoportail ANSTAT"}},{"type":"Feature","geometry":{"type":"Point","coordinates":[-5.835862999999961,7.785165000000063]},"properties":{"id":36459,"nom":"CANTONNEMENT DES EAUX ET FORETS DE KOUNAHIRI","type":"cantonnement eaux et foret","district_region":null,"departement_commune":null,"verifie":true,"name":"CANTONNEMENT DES EAUX ET FORETS DE KOUNAHIRI","source":"Géoportail ANSTAT"}},{"type":"Feature","geometry":{"type":"Point","coordinates":[-7.837081999999953,9.998714000000064]},"properties":{"id":36461,"nom":"CANTONNEMENT DES EAUX ET FORETS DE MINIGNAN","type":"cantonnement eaux et foret","district_region":null,"departement_commune":null,"verifie":true,"name":"CANTONNEMENT DES EAUX ET FORETS DE MINIGNAN","source":"Géoportail ANSTAT"}},{"type":"Feature","geometry":{"type":"Point","coordinates":[-3.202253999999925,7.136178000000029]},"properties":{"id":36463,"nom":"CANTONNEMENT DES EAUX ET FORETS","type":"cantonnement eaux et foret","district_region":null,"departement_commune":null,"verifie":true,"name":"CANTONNEMENT DES EAUX ET FORETS","source":"Géoportail ANSTAT"}},{"type":"Feature","geometry":{"type":"Point","coordinates":[-7.122623999999973,9.354192000000069]},"properties":{"id":36465,"nom":"CANTONNEMENT DES EAUX ET FORETS DE SEGUELON","type":"cantonnement eaux et foret","district_region":null,"departement_commune":null,"verifie":true,"name":"CANTONNEMENT DES EAUX ET FORETS DE SEGUELON","source":"Géoportail ANSTAT"}},{"type":"Feature","geometry":{"type":"Point","coordinates":[-5.069540999999958,7.992476000000067]},"properties":{"id":36470,"nom":"CANTONNEMENT DES EAUX ET FORET","type":"cantonnement eaux et foret","district_region":null,"departement_commune":null,"verifie":true,"name":"CANTONNEMENT DES EAUX ET FORET","source":"Géoportail ANSTAT"}},{"type":"Feature","geometry":{"type":"Point","coordinates":[-5.069532999999979,7.992433000000062]},"properties":{"id":36471,"nom":"CANTONNEMENT DES EAUX ET FORETS","type":"cantonnement eaux et foret","district_region":null,"departement_commune":null,"verifie":true,"name":"CANTONNEMENT DES EAUX ET FORETS","source":"Géoportail ANSTAT"}},{"type":"Feature","geometry":{"type":"Point","coordinates":[-5.096392999999978,8.122606000000076]},"properties":{"id":36472,"nom":"CANTONNEMENT DE KATIOLA","type":"cantonnement eaux et foret","district_region":null,"departement_commune":null,"verifie":true,"name":"CANTONNEMENT DE KATIOLA","source":"Géoportail ANSTAT"}},{"type":"Feature","geometry":{"type":"Point","coordinates":[-7.52337499999993,7.40680100000003]},"properties":{"id":36473,"nom":"CANTONNEMENT FORESTIER DE MAN","type":"cantonnement eaux et foret","district_region":null,"departement_commune":null,"verifie":true,"name":"CANTONNEMENT FORESTIER DE MAN","source":"Géoportail ANSTAT"}},{"type":"Feature","geometry":{"type":"Point","coordinates":[-8.20857099999995,6.926879000000042]},"properties":{"id":36474,"nom":"CANTONNEMENT DES EAUX ET FORETS DE ZOUAN HOUNIEN","type":"cantonnement eaux et foret","district_region":null,"departement_commune":null,"verifie":true,"name":"CANTONNEMENT DES EAUX ET FORETS DE ZOUAN HOUNIEN","source":"Géoportail ANSTAT"}},{"type":"Feature","geometry":{"type":"Point","coordinates":[-3.992932999999937,7.649024000000054]},"properties":{"id":36475,"nom":"CANTONNEMENT DES EAUX ET FORETS DE PRIKRO","type":"cantonnement eaux et foret","district_region":null,"departement_commune":null,"verifie":true,"name":"CANTONNEMENT DES EAUX ET FORETS DE PRIKRO","source":"Géoportail ANSTAT"}},{"type":"Feature","geometry":{"type":"Point","coordinates":[-4.016325999999935,7.296181000000047]},"properties":{"id":36477,"nom":"CANTONNEMENT DE OUELLE","type":"cantonnement eaux et foret","district_region":null,"departement_commune":null,"verifie":true,"name":"CANTONNEMENT DE OUELLE","source":"Géoportail ANSTAT"}},{"type":"Feature","geometry":{"type":"Point","coordinates":[-7.373148999999955,7.390829000000053]},"properties":{"id":36502,"nom":"CATONNEMENT DES EAUX ET FORET","type":"cantonnement eaux et foret","district_region":null,"departement_commune":null,"verifie":true,"name":"CATONNEMENT DES EAUX ET FORET","source":"Géoportail ANSTAT"}},{"type":"Feature","geometry":{"type":"Point","coordinates":[-6.087836999999979,4.951324000000056]},"properties":{"id":36504,"nom":"CATONNEMENT DES EAUX ET FORETS","type":"cantonnement eaux et foret","district_region":null,"departement_commune":null,"verifie":true,"name":"CATONNEMENT DES EAUX ET FORETS","source":"Géoportail ANSTAT"}},{"type":"Feature","geometry":{"type":"Point","coordinates":[-3.404957999999965,6.080333000000053]},"properties":{"id":36522,"nom":"CATONNEMENT DES EAUX ET FORTSFORTS DE BETTIE","type":"cantonnement eaux et foret","district_region":null,"departement_commune":null,"verifie":true,"name":"CATONNEMENT DES EAUX ET FORTSFORTS DE BETTIE","source":"Géoportail ANSTAT"}},{"type":"Feature","geometry":{"type":"Point","coordinates":[-6.905914999999936,9.92270700000006]},"properties":{"id":38311,"nom":"PCANTONNEMENTE DE FENGOLO","type":"cantonnement eaux et foret","district_region":null,"departement_commune":null,"verifie":true,"name":"PCANTONNEMENTE DE FENGOLO","source":"Géoportail ANSTAT"}}],"metadata":{"dataset":"Cantonnement eaux et foret — ANSTAT","source":"Géoportail ANSTAT","theme":"Environnement & forêts","verified":true,"apercu":"complet"}}