{"type":"FeatureCollection","features":[{"type":"Feature","geometry":{"type":"Point","coordinates":[-7.553896999999949,7.400592000000074]},"properties":{"id":36538,"nom":"CENTRE DE FORMATION ET DE REINSERTION","type":"centre de reinsertion","district_region":null,"departement_commune":null,"verifie":true,"name":"CENTRE DE FORMATION ET DE REINSERTION","source":"Géoportail ANSTAT"}},{"type":"Feature","geometry":{"type":"Point","coordinates":[-4.092661488999966,5.317668369000046]},"properties":{"id":103887,"nom":"CENTRE D’OBSERVATION POUR MINEUR","type":"centre de reinsertion","district_region":null,"departement_commune":null,"verifie":true,"name":"CENTRE D’OBSERVATION POUR MINEUR","source":"Géoportail ANSTAT"}},{"type":"Feature","geometry":{"type":"Point","coordinates":[-4.376841497999976,5.325114548000045]},"properties":{"id":103888,"nom":"CENTRE DE REEDUCATION POUR MINEUR","type":"centre de reinsertion","district_region":null,"departement_commune":null,"verifie":true,"name":"CENTRE DE REEDUCATION POUR MINEUR","source":"Géoportail ANSTAT"}},{"type":"Feature","geometry":{"type":"Point","coordinates":[-5.034382764999975,7.698620592000054]},"properties":{"id":103889,"nom":"CENTRE D’OBSERVATION POUR MINEUR","type":"centre de reinsertion","district_region":null,"departement_commune":null,"verifie":true,"name":"CENTRE D’OBSERVATION POUR MINEUR","source":"Géoportail ANSTAT"}},{"type":"Feature","geometry":{"type":"Point","coordinates":[-7.551354989999936,7.402892209000072]},"properties":{"id":103890,"nom":"CENTRE D’OBSERVATION POUR MINEUR","type":"centre de reinsertion","district_region":null,"departement_commune":null,"verifie":true,"name":"CENTRE D’OBSERVATION POUR MINEUR","source":"Géoportail ANSTAT"}}],"metadata":{"dataset":"Centre de reinsertion — ANSTAT","source":"Géoportail ANSTAT","theme":"Justice","verified":true,"apercu":"complet"}}