{"type":"FeatureCollection","features":[{"type":"Feature","geometry":{"type":"Point","coordinates":[-5.614436999999953,9.471971000000051]},"properties":{"id":35903,"nom":"4EME BATTAILLON KORHOGO","type":"bataillon","district_region":null,"departement_commune":null,"verifie":true,"name":"4EME BATTAILLON KORHOGO","source":"Géoportail ANSTAT"}},{"type":"Feature","geometry":{"type":"Point","coordinates":[-6.669359999999926,7.965543000000025]},"properties":{"id":35949,"nom":"2 EME BATAILLON D INFANTERIE DE DALOA COMPAGNIE DE SECURISATION DE SEGUELA","type":"bataillon","district_region":null,"departement_commune":null,"verifie":true,"name":"2 EME BATAILLON D INFANTERIE DE DALOA COMPAGNIE DE SECURISATION DE SEGUELA","source":"Géoportail ANSTAT"}},{"type":"Feature","geometry":{"type":"Point","coordinates":[-5.012340999999935,7.717065000000048]},"properties":{"id":35959,"nom":"3IEME BATAILLON DE BOUAKE","type":"bataillon","district_region":null,"departement_commune":null,"verifie":true,"name":"3IEME BATAILLON DE BOUAKE","source":"Géoportail ANSTAT"}},{"type":"Feature","geometry":{"type":"Point","coordinates":[-7.237314999999967,7.252426000000071]},"properties":{"id":36179,"nom":"BATAILLON DE SECURITE DE L OUEST","type":"bataillon","district_region":null,"departement_commune":null,"verifie":true,"name":"BATAILLON DE SECURITE DE L OUEST","source":"Géoportail ANSTAT"}},{"type":"Feature","geometry":{"type":"Point","coordinates":[-2.803482999999972,8.048483000000033]},"properties":{"id":36187,"nom":"BATAILLON DE SECURISATION DE L EST","type":"bataillon","district_region":null,"departement_commune":null,"verifie":true,"name":"BATAILLON DE SECURISATION DE L EST","source":"Géoportail ANSTAT"}},{"type":"Feature","geometry":{"type":"Point","coordinates":[-7.545333999999968,9.508020000000045]},"properties":{"id":36241,"nom":"BATAILLON DE SECURISATION DU NORD OUEST","type":"bataillon","district_region":null,"departement_commune":null,"verifie":true,"name":"BATAILLON DE SECURISATION DU NORD OUEST","source":"Géoportail ANSTAT"}},{"type":"Feature","geometry":{"type":"Point","coordinates":[-7.545270999999957,7.37952000000007]},"properties":{"id":36258,"nom":"BATAILLON DE SECURISATION DE L OUEST","type":"bataillon","district_region":null,"departement_commune":null,"verifie":true,"name":"BATAILLON DE SECURISATION DE L OUEST","source":"Géoportail ANSTAT"}},{"type":"Feature","geometry":{"type":"Point","coordinates":[-8.203297999999961,6.93861400000003]},"properties":{"id":36260,"nom":"BATAILLON DE SECURITE DE L OUEST","type":"bataillon","district_region":null,"departement_commune":null,"verifie":true,"name":"BATAILLON DE SECURITE DE L OUEST","source":"Géoportail ANSTAT"}},{"type":"Feature","geometry":{"type":"Point","coordinates":[-5.683764999999937,5.853255000000047]},"properties":{"id":36359,"nom":"BSSO BATAILLON DE SECURISATION DU SUD OUEST","type":"bataillon","district_region":null,"departement_commune":null,"verifie":true,"name":"BSSO BATAILLON DE SECURISATION DU SUD OUEST","source":"Géoportail ANSTAT"}},{"type":"Feature","geometry":{"type":"Point","coordinates":[-5.012715999999955,7.718357000000026]},"properties":{"id":37143,"nom":"FOYER DU 3IEME BATAILLON","type":"bataillon","district_region":null,"departement_commune":null,"verifie":true,"name":"FOYER DU 3IEME BATAILLON","source":"Géoportail ANSTAT"}},{"type":"Feature","geometry":{"type":"Point","coordinates":[-5.065977999999973,7.684733000000051]},"properties":{"id":38627,"nom":"PREMIER BATAILLON DU CANP GENIE BOUAKE","type":"bataillon","district_region":null,"departement_commune":null,"verifie":true,"name":"PREMIER BATAILLON DU CANP GENIE BOUAKE","source":"Géoportail ANSTAT"}},{"type":"Feature","geometry":{"type":"Point","coordinates":[-4.026761999999962,5.335309000000052]},"properties":{"id":39566,"nom":"BATAILLON DE COMMANDEMENT ET DE SOUTIENT","type":"bataillon","district_region":null,"departement_commune":null,"verifie":true,"name":"BATAILLON DE COMMANDEMENT ET DE SOUTIENT","source":"Géoportail ANSTAT"}}],"metadata":{"dataset":"Bataillon — ANSTAT","source":"Géoportail ANSTAT","theme":"Défense & Militaire","verified":true,"apercu":"complet"}}