{"type":"FeatureCollection","features":[{"type":"Feature","geometry":{"type":"Point","coordinates":[-5.04763399999996,7.676164000000028]},"properties":{"id":19464,"nom":"LA MAISON DES BEBE NOTRE DAME DE LA VISITATION","type":"poupounière","district_region":null,"departement_commune":null,"verifie":true,"name":"LA MAISON DES BEBE NOTRE DAME DE LA VISITATION","source":"Géoportail ANSTAT"}},{"type":"Feature","geometry":{"type":"Point","coordinates":[-8.016318999999953,6.573445000000049]},"properties":{"id":30746,"nom":"POUPONNIERE CENTRE FABIO","type":"poupounière","district_region":null,"departement_commune":null,"verifie":true,"name":"POUPONNIERE CENTRE FABIO","source":"Géoportail ANSTAT"}},{"type":"Feature","geometry":{"type":"Point","coordinates":[-7.521707999999933,7.421279000000027]},"properties":{"id":30749,"nom":"POUPONNIERE PROTESTANTE DE MAN","type":"poupounière","district_region":null,"departement_commune":null,"verifie":true,"name":"POUPONNIERE PROTESTANTE DE MAN","source":"Géoportail ANSTAT"}},{"type":"Feature","geometry":{"type":"Point","coordinates":[-4.017607999999939,5.430882000000054]},"properties":{"id":32332,"nom":"ECOLE MATERNELLE SOS VILLAGE","type":"poupounière","district_region":null,"departement_commune":null,"verifie":true,"name":"ECOLE MATERNELLE SOS VILLAGE","source":"Géoportail ANSTAT"}},{"type":"Feature","geometry":{"type":"Point","coordinates":[-4.081039999999973,5.342190000000073]},"properties":{"id":35705,"nom":"POUPONNIERRE DE YOPOUGON ATTIE","type":"poupounière","district_region":null,"departement_commune":null,"verifie":true,"name":"POUPONNIERRE DE YOPOUGON ATTIE","source":"Géoportail ANSTAT"}},{"type":"Feature","geometry":{"type":"Point","coordinates":[-4.01809499999996,5.349110000000053]},"properties":{"id":35734,"nom":"POPONNIERE MARIE THERESE HOUPHOUET BOIGNY","type":"poupounière","district_region":null,"departement_commune":null,"verifie":true,"name":"POPONNIERE MARIE THERESE HOUPHOUET BOIGNY","source":"Géoportail ANSTAT"}}],"metadata":{"dataset":"Poupounière — ANSTAT","source":"Géoportail ANSTAT","theme":"Social & Culture","verified":true,"apercu":"complet"}}