{"type":"FeatureCollection","features":[{"type":"Feature","geometry":{"type":"Point","coordinates":[-5.280199999999979,6.819333000000029]},"properties":{"id":37666,"nom":"GARE ROUTIER","type":"transport general_natinonal","district_region":null,"departement_commune":null,"verifie":true,"name":"GARE ROUTIER","source":"Géoportail ANSTAT"}},{"type":"Feature","geometry":{"type":"Point","coordinates":[-7.616446999999937,7.739491000000044]},"properties":{"id":37738,"nom":"MINISTERE DES EQUIPEMENTS ROUTIERS","type":"transport general_natinonal","district_region":null,"departement_commune":null,"verifie":true,"name":"MINISTERE DES EQUIPEMENTS ROUTIERS","source":"Géoportail ANSTAT"}},{"type":"Feature","geometry":{"type":"Point","coordinates":[-5.20827399999996,9.586470000000077]},"properties":{"id":39231,"nom":"SYNDICAT NATIONAL DES CHAUFFEURS MECANICIENS DES TRANSPORTS ROUTIERS ET INDUSTRIES DU BOIS DE COTE DIVOIRE","type":"transport general_natinonal","district_region":null,"departement_commune":null,"verifie":true,"name":"SYNDICAT NATIONAL DES CHAUFFEURS MECANICIENS DES TRANSPORTS ROUTIERS ET INDUSTRIES DU BOIS DE COTE DIVOIRE","source":"Géoportail ANSTAT"}},{"type":"Feature","geometry":{"type":"Point","coordinates":[-3.941103999999939,5.259300000000053]},"properties":{"id":39662,"nom":"AUTORITE NATIONALE DE L AVIATION CIVILE","type":"transport general_natinonal","district_region":null,"departement_commune":null,"verifie":true,"name":"AUTORITE NATIONALE DE L AVIATION CIVILE","source":"Géoportail ANSTAT"}}],"metadata":{"dataset":"Transport general_natinonal — ANSTAT","source":"Géoportail ANSTAT","theme":"Transport & mobilité","verified":true,"apercu":"complet"}}