{"type":"FeatureCollection","features":[{"type":"Feature","geometry":{"type":"Point","coordinates":[-8.123204999999928,6.697573000000034]},"properties":{"id":1639,"nom":"TERRAIN DE SPORT","type":"centre culturel","district_region":null,"departement_commune":null,"verifie":true,"name":"TERRAIN DE SPORT","source":"Géoportail ANSTAT"}},{"type":"Feature","geometry":{"type":"Point","coordinates":[-5.243912999999964,6.835390000000075]},"properties":{"id":1641,"nom":"CENTRE CULTUREL YAOURE","type":"centre culturel","district_region":null,"departement_commune":null,"verifie":true,"name":"CENTRE CULTUREL YAOURE","source":"Géoportail ANSTAT"}},{"type":"Feature","geometry":{"type":"Point","coordinates":[-5.17865699999993,9.995405000000062]},"properties":{"id":2700,"nom":"CENTRE CULTUREL","type":"centre culturel","district_region":null,"departement_commune":null,"verifie":true,"name":"CENTRE CULTUREL","source":"Géoportail ANSTAT"}},{"type":"Feature","geometry":{"type":"Point","coordinates":[-7.139363999999944,4.71925200000004]},"properties":{"id":2705,"nom":"CENTRE CULTUREL DE BACO 1","type":"centre culturel","district_region":null,"departement_commune":null,"verifie":true,"name":"CENTRE CULTUREL DE BACO 1","source":"Géoportail ANSTAT"}},{"type":"Feature","geometry":{"type":"Point","coordinates":[-6.923663999999974,4.651282000000037]},"properties":{"id":2716,"nom":"CENTRE CULTUREL DE GRAND BEREBY","type":"centre culturel","district_region":null,"departement_commune":null,"verifie":true,"name":"CENTRE CULTUREL DE GRAND BEREBY","source":"Géoportail ANSTAT"}},{"type":"Feature","geometry":{"type":"Point","coordinates":[-7.384482999999932,4.610680000000059]},"properties":{"id":2717,"nom":"CENTRE CULTUREL GNENAHOLOQUE","type":"centre culturel","district_region":null,"departement_commune":null,"verifie":true,"name":"CENTRE CULTUREL GNENAHOLOQUE","source":"Géoportail ANSTAT"}},{"type":"Feature","geometry":{"type":"Point","coordinates":[-7.363384999999937,4.419059000000061]},"properties":{"id":2720,"nom":"CENTRE CULTUREL","type":"centre culturel","district_region":null,"departement_commune":null,"verifie":true,"name":"CENTRE CULTUREL","source":"Géoportail ANSTAT"}},{"type":"Feature","geometry":{"type":"Point","coordinates":[-5.632795999999928,9.454425000000072]},"properties":{"id":2726,"nom":"CENTRE ACTION CULTUREL","type":"centre culturel","district_region":null,"departement_commune":null,"verifie":true,"name":"CENTRE ACTION CULTUREL","source":"Géoportail ANSTAT"}},{"type":"Feature","geometry":{"type":"Point","coordinates":[-6.073812999999973,9.607519000000025]},"properties":{"id":2728,"nom":"CENTRE CULTUREL DE NIOFOIN","type":"centre culturel","district_region":null,"departement_commune":null,"verifie":true,"name":"CENTRE CULTUREL DE NIOFOIN","source":"Géoportail ANSTAT"}},{"type":"Feature","geometry":{"type":"Point","coordinates":[-5.38376599999998,9.585371000000066]},"properties":{"id":2729,"nom":"CENTRE CULTUREL DE SINIMATIALI","type":"centre culturel","district_region":null,"departement_commune":null,"verifie":true,"name":"CENTRE CULTUREL DE SINIMATIALI","source":"Géoportail ANSTAT"}},{"type":"Feature","geometry":{"type":"Point","coordinates":[-6.516794999999945,5.963201000000026]},"properties":{"id":2743,"nom":"CENTRE CULTUREL BERNARD ZADI ZAOUROU DE YACOLIDABOUO","type":"centre culturel","district_region":null,"departement_commune":null,"verifie":true,"name":"CENTRE CULTUREL BERNARD ZADI ZAOUROU DE YACOLIDABOUO","source":"Géoportail ANSTAT"}},{"type":"Feature","geometry":{"type":"Point","coordinates":[-3.97172299999994,6.67051900000007]},"properties":{"id":2762,"nom":"CENTRE CULTUREL HKB","type":"centre culturel","district_region":null,"departement_commune":null,"verifie":true,"name":"CENTRE CULTUREL HKB","source":"Géoportail ANSTAT"}},{"type":"Feature","geometry":{"type":"Point","coordinates":[-4.106270999999936,6.705912000000069]},"properties":{"id":2763,"nom":"CENTRE CULTUREL DE NZANFOUENOU","type":"centre culturel","district_region":null,"departement_commune":null,"verifie":true,"name":"CENTRE CULTUREL DE NZANFOUENOU","source":"Géoportail ANSTAT"}},{"type":"Feature","geometry":{"type":"Point","coordinates":[-7.235900999999956,7.256089000000031]},"properties":{"id":2767,"nom":"CENTRE CULTUREL DE KOUIBLY","type":"centre culturel","district_region":null,"departement_commune":null,"verifie":true,"name":"CENTRE CULTUREL DE KOUIBLY","source":"Géoportail ANSTAT"}},{"type":"Feature","geometry":{"type":"Point","coordinates":[-5.949941999999965,6.165689000000043]},"properties":{"id":2806,"nom":"CENTRE CULTUREL","type":"centre culturel","district_region":null,"departement_commune":null,"verifie":true,"name":"CENTRE CULTUREL","source":"Géoportail ANSTAT"}},{"type":"Feature","geometry":{"type":"Point","coordinates":[-5.946865999999943,6.156492000000071]},"properties":{"id":2807,"nom":"CENTRE CULTUREL YORO ZAKAHI","type":"centre culturel","district_region":null,"departement_commune":null,"verifie":true,"name":"CENTRE CULTUREL YORO ZAKAHI","source":"Géoportail ANSTAT"}},{"type":"Feature","geometry":{"type":"Point","coordinates":[-6.130056999999965,6.075957000000074]},"properties":{"id":2809,"nom":"CENTRE CULTUREL WANEZI","type":"centre culturel","district_region":null,"departement_commune":null,"verifie":true,"name":"CENTRE CULTUREL WANEZI","source":"Géoportail ANSTAT"}},{"type":"Feature","geometry":{"type":"Point","coordinates":[-6.281059999999968,6.292284000000052]},"properties":{"id":2816,"nom":"CENTRE CULTUREL","type":"centre culturel","district_region":null,"departement_commune":null,"verifie":true,"name":"CENTRE CULTUREL","source":"Géoportail ANSTAT"}},{"type":"Feature","geometry":{"type":"Point","coordinates":[-5.963632999999959,6.427366000000063]},"properties":{"id":2821,"nom":"CENTRE CULTUREL DE JEUNES DE ZAHIBOHIO","type":"centre culturel","district_region":null,"departement_commune":null,"verifie":true,"name":"CENTRE CULTUREL DE JEUNES DE ZAHIBOHIO","source":"Géoportail ANSTAT"}},{"type":"Feature","geometry":{"type":"Point","coordinates":[-5.945238999999958,6.240835000000061]},"properties":{"id":2824,"nom":"CENTRE  CULTUREL DE KOKOUEZO","type":"centre culturel","district_region":null,"departement_commune":null,"verifie":true,"name":"CENTRE  CULTUREL DE KOKOUEZO","source":"Géoportail ANSTAT"}},{"type":"Feature","geometry":{"type":"Point","coordinates":[-5.949578999999972,6.251647000000048]},"properties":{"id":2825,"nom":"CENTRE CULTUREL DE KPAPEKOU","type":"centre culturel","district_region":null,"departement_commune":null,"verifie":true,"name":"CENTRE CULTUREL DE KPAPEKOU","source":"Géoportail ANSTAT"}},{"type":"Feature","geometry":{"type":"Point","coordinates":[-5.930889999999977,6.306436000000076]},"properties":{"id":2827,"nom":"CENTRE CULTUREL DE OURAGAHIO","type":"centre culturel","district_region":null,"departement_commune":null,"verifie":true,"name":"CENTRE CULTUREL DE OURAGAHIO","source":"Géoportail ANSTAT"}},{"type":"Feature","geometry":{"type":"Point","coordinates":[-5.83818999999994,6.041897000000063]},"properties":{"id":2828,"nom":"CENTRE CULTUREL","type":"centre culturel","district_region":null,"departement_commune":null,"verifie":true,"name":"CENTRE CULTUREL","source":"Géoportail ANSTAT"}},{"type":"Feature","geometry":{"type":"Point","coordinates":[-5.706828999999971,6.475486000000046]},"properties":{"id":2832,"nom":"CENTRE CULTUREL","type":"centre culturel","district_region":null,"departement_commune":null,"verifie":true,"name":"CENTRE CULTUREL","source":"Géoportail ANSTAT"}},{"type":"Feature","geometry":{"type":"Point","coordinates":[-6.086895999999967,4.961456000000055]},"properties":{"id":2841,"nom":"CENTRE CULTUREL","type":"centre culturel","district_region":null,"departement_commune":null,"verifie":true,"name":"CENTRE CULTUREL","source":"Géoportail ANSTAT"}},{"type":"Feature","geometry":{"type":"Point","coordinates":[-5.008375999999942,6.592614000000026]},"properties":{"id":2852,"nom":"CENTRE CULTUREL DE ABLI","type":"centre culturel","district_region":null,"departement_commune":null,"verifie":true,"name":"CENTRE CULTUREL DE ABLI","source":"Géoportail ANSTAT"}},{"type":"Feature","geometry":{"type":"Point","coordinates":[-5.268740999999977,7.222105000000056]},"properties":{"id":2856,"nom":"CENTRE CULTUREL DE TAKI SALEKRO","type":"centre culturel","district_region":null,"departement_commune":null,"verifie":true,"name":"CENTRE CULTUREL DE TAKI SALEKRO","source":"Géoportail ANSTAT"}},{"type":"Feature","geometry":{"type":"Point","coordinates":[-5.265849999999944,7.220449000000031]},"properties":{"id":2857,"nom":"CENTRE CULTUREL DE TAKISALEKRO","type":"centre culturel","district_region":null,"departement_commune":null,"verifie":true,"name":"CENTRE CULTUREL DE TAKISALEKRO","source":"Géoportail ANSTAT"}},{"type":"Feature","geometry":{"type":"Point","coordinates":[-3.573124999999948,8.093094000000065]},"properties":{"id":2865,"nom":"CENTRE CULTUREL","type":"centre culturel","district_region":null,"departement_commune":null,"verifie":true,"name":"CENTRE CULTUREL","source":"Géoportail ANSTAT"}},{"type":"Feature","geometry":{"type":"Point","coordinates":[-3.625561999999945,8.11135500000006]},"properties":{"id":2866,"nom":"CENTRE CULTUREL DE BANDAKAGNI","type":"centre culturel","district_region":null,"departement_commune":null,"verifie":true,"name":"CENTRE CULTUREL DE BANDAKAGNI","source":"Géoportail ANSTAT"}},{"type":"Feature","geometry":{"type":"Point","coordinates":[-2.84974399999993,8.204942000000074]},"properties":{"id":2867,"nom":"CENTRE CULTUREL","type":"centre culturel","district_region":null,"departement_commune":null,"verifie":true,"name":"CENTRE CULTUREL","source":"Géoportail ANSTAT"}},{"type":"Feature","geometry":{"type":"Point","coordinates":[-3.583294999999964,7.953788000000031]},"properties":{"id":2868,"nom":"CENTRE CULTUREL DE SANDEGUE","type":"centre culturel","district_region":null,"departement_commune":null,"verifie":true,"name":"CENTRE CULTUREL DE SANDEGUE","source":"Géoportail ANSTAT"}},{"type":"Feature","geometry":{"type":"Point","coordinates":[-3.201118999999949,7.349841000000026]},"properties":{"id":2869,"nom":"CENTRE CULTUREL DE TANKESSE","type":"centre culturel","district_region":null,"departement_commune":null,"verifie":true,"name":"CENTRE CULTUREL DE TANKESSE","source":"Géoportail ANSTAT"}},{"type":"Feature","geometry":{"type":"Point","coordinates":[-6.828335999999979,8.486909000000026]},"properties":{"id":2871,"nom":"CENTRE CULTUREL DE KATO","type":"centre culturel","district_region":null,"departement_commune":null,"verifie":true,"name":"CENTRE CULTUREL DE KATO","source":"Géoportail ANSTAT"}},{"type":"Feature","geometry":{"type":"Point","coordinates":[-7.021535999999969,7.828242000000046]},"properties":{"id":2872,"nom":"CENTRE CULTUREL DE SAGOURA DOUGOULA","type":"centre culturel","district_region":null,"departement_commune":null,"verifie":true,"name":"CENTRE CULTUREL DE SAGOURA DOUGOULA","source":"Géoportail ANSTAT"}},{"type":"Feature","geometry":{"type":"Point","coordinates":[-6.59070399999996,8.047200000000032]},"properties":{"id":2873,"nom":"CENTRE CULTUREL DESUINLA","type":"centre culturel","district_region":null,"departement_commune":null,"verifie":true,"name":"CENTRE CULTUREL DESUINLA","source":"Géoportail ANSTAT"}},{"type":"Feature","geometry":{"type":"Point","coordinates":[-6.72686699999997,7.915118000000064]},"properties":{"id":2874,"nom":"CENTRE CULTUREL DE GBENA","type":"centre culturel","district_region":null,"departement_commune":null,"verifie":true,"name":"CENTRE CULTUREL DE GBENA","source":"Géoportail ANSTAT"}},{"type":"Feature","geometry":{"type":"Point","coordinates":[-6.416259999999966,8.016890000000046]},"properties":{"id":2875,"nom":"CENTRE CULTUREL","type":"centre culturel","district_region":null,"departement_commune":null,"verifie":true,"name":"CENTRE CULTUREL","source":"Géoportail ANSTAT"}},{"type":"Feature","geometry":{"type":"Point","coordinates":[-6.611141999999973,8.53963200000004]},"properties":{"id":2876,"nom":"CENTRE CULTUREL DE KOMATOU","type":"centre culturel","district_region":null,"departement_commune":null,"verifie":true,"name":"CENTRE CULTUREL DE KOMATOU","source":"Géoportail ANSTAT"}},{"type":"Feature","geometry":{"type":"Point","coordinates":[-5.738175999999953,6.97707500000007]},"properties":{"id":2882,"nom":"CENTRE CULTUREL HKB BOUAFLE","type":"centre culturel","district_region":null,"departement_commune":null,"verifie":true,"name":"CENTRE CULTUREL HKB BOUAFLE","source":"Géoportail ANSTAT"}},{"type":"Feature","geometry":{"type":"Point","coordinates":[-5.882050999999933,7.490655000000061]},"properties":{"id":2883,"nom":"CENTRE CULTUREL DE GOHITAFLA","type":"centre culturel","district_region":null,"departement_commune":null,"verifie":true,"name":"CENTRE CULTUREL DE GOHITAFLA","source":"Géoportail ANSTAT"}},{"type":"Feature","geometry":{"type":"Point","coordinates":[-5.839169999999967,7.401015000000029]},"properties":{"id":2884,"nom":"CENTRE CULTUREL","type":"centre culturel","district_region":null,"departement_commune":null,"verifie":true,"name":"CENTRE CULTUREL","source":"Géoportail ANSTAT"}},{"type":"Feature","geometry":{"type":"Point","coordinates":[-5.567771999999934,7.014871000000028]},"properties":{"id":2891,"nom":"CENTRE CULTUREL","type":"centre culturel","district_region":null,"departement_commune":null,"verifie":true,"name":"CENTRE CULTUREL","source":"Géoportail ANSTAT"}},{"type":"Feature","geometry":{"type":"Point","coordinates":[-5.911620999999968,6.62629000000004]},"properties":{"id":2902,"nom":"CENTRE CULTUREL DE SINFRA","type":"centre culturel","district_region":null,"departement_commune":null,"verifie":true,"name":"CENTRE CULTUREL DE SINFRA","source":"Géoportail ANSTAT"}},{"type":"Feature","geometry":{"type":"Point","coordinates":[-5.02519099999995,7.684367000000066]},"properties":{"id":2908,"nom":"CENTRE CULTUREL JACK AKA","type":"centre culturel","district_region":null,"departement_commune":null,"verifie":true,"name":"CENTRE CULTUREL JACK AKA","source":"Géoportail ANSTAT"}},{"type":"Feature","geometry":{"type":"Point","coordinates":[-5.039211999999964,7.680830000000071]},"properties":{"id":2909,"nom":"CENTRE D ECOUTE ET DE CONSEILS AMI DES JEUNES","type":"centre culturel","district_region":null,"departement_commune":null,"verifie":true,"name":"CENTRE D ECOUTE ET DE CONSEILS AMI DES JEUNES","source":"Géoportail ANSTAT"}},{"type":"Feature","geometry":{"type":"Point","coordinates":[-4.822062999999957,7.642292000000054]},"properties":{"id":2910,"nom":"CENTRE CULTUREL NANAN AKA BROU II","type":"centre culturel","district_region":null,"departement_commune":null,"verifie":true,"name":"CENTRE CULTUREL NANAN AKA BROU II","source":"Géoportail ANSTAT"}},{"type":"Feature","geometry":{"type":"Point","coordinates":[-5.193902999999978,7.555268000000069]},"properties":{"id":2911,"nom":"CENTRE CULTUREL EN CONSTRUCTION","type":"centre culturel","district_region":null,"departement_commune":null,"verifie":true,"name":"CENTRE CULTUREL EN CONSTRUCTION","source":"Géoportail ANSTAT"}},{"type":"Feature","geometry":{"type":"Point","coordinates":[-5.218646999999976,7.460627000000045]},"properties":{"id":2913,"nom":"CENTRE CULTUREL DE KANANGODAN","type":"centre culturel","district_region":null,"departement_commune":null,"verifie":true,"name":"CENTRE CULTUREL DE KANANGODAN","source":"Géoportail ANSTAT"}},{"type":"Feature","geometry":{"type":"Point","coordinates":[-5.292284999999936,7.431873000000053]},"properties":{"id":2914,"nom":"CENTRE CULTUREL DE KPATANOU","type":"centre culturel","district_region":null,"departement_commune":null,"verifie":true,"name":"CENTRE CULTUREL DE KPATANOU","source":"Géoportail ANSTAT"}},{"type":"Feature","geometry":{"type":"Point","coordinates":[-5.293132999999955,7.455017000000055]},"properties":{"id":2915,"nom":"CENTRE CULTUREL DE SAKASSOU","type":"centre culturel","district_region":null,"departement_commune":null,"verifie":true,"name":"CENTRE CULTUREL DE SAKASSOU","source":"Géoportail ANSTAT"}},{"type":"Feature","geometry":{"type":"Point","coordinates":[-5.653550999999936,7.913831000000073]},"properties":{"id":2916,"nom":"CENTRE CULTUREL DE BOUREBO","type":"centre culturel","district_region":null,"departement_commune":null,"verifie":true,"name":"CENTRE CULTUREL DE BOUREBO","source":"Géoportail ANSTAT"}},{"type":"Feature","geometry":{"type":"Point","coordinates":[-5.578293999999971,7.67470000000003]},"properties":{"id":2917,"nom":"CENTRE CULITUREL DE BEOUMI","type":"centre culturel","district_region":null,"departement_commune":null,"verifie":true,"name":"CENTRE CULITUREL DE BEOUMI","source":"Géoportail ANSTAT"}},{"type":"Feature","geometry":{"type":"Point","coordinates":[-5.267820999999969,7.775539000000038]},"properties":{"id":2919,"nom":"CENTRE CULTUREL DE SAOUNDI","type":"centre culturel","district_region":null,"departement_commune":null,"verifie":true,"name":"CENTRE CULTUREL DE SAOUNDI","source":"Géoportail ANSTAT"}},{"type":"Feature","geometry":{"type":"Point","coordinates":[-3.72691199999997,8.628801000000067]},"properties":{"id":2921,"nom":"CENTRE CULTUREL DE BANVAYO","type":"centre culturel","district_region":null,"departement_commune":null,"verifie":true,"name":"CENTRE CULTUREL DE BANVAYO","source":"Géoportail ANSTAT"}},{"type":"Feature","geometry":{"type":"Point","coordinates":[-4.700506999999959,6.64488300000005]},"properties":{"id":2925,"nom":"CENTRE CULTUREL DE DIMBOKRO","type":"centre culturel","district_region":null,"departement_commune":null,"verifie":true,"name":"CENTRE CULTUREL DE DIMBOKRO","source":"Géoportail ANSTAT"}},{"type":"Feature","geometry":{"type":"Point","coordinates":[-6.306353999999942,7.16440700000004]},"properties":{"id":2957,"nom":"CENTRE CULTUREL","type":"centre culturel","district_region":null,"departement_commune":null,"verifie":true,"name":"CENTRE CULTUREL","source":"Géoportail ANSTAT"}},{"type":"Feature","geometry":{"type":"Point","coordinates":[-6.222937999999942,6.365495000000067]},"properties":{"id":2958,"nom":"CENTRE CULTUREL","type":"centre culturel","district_region":null,"departement_commune":null,"verifie":true,"name":"CENTRE CULTUREL","source":"Géoportail ANSTAT"}},{"type":"Feature","geometry":{"type":"Point","coordinates":[-6.352863999999954,6.562077000000045]},"properties":{"id":2959,"nom":"CENTRE CULTUREL","type":"centre culturel","district_region":null,"departement_commune":null,"verifie":true,"name":"CENTRE CULTUREL","source":"Géoportail ANSTAT"}},{"type":"Feature","geometry":{"type":"Point","coordinates":[-5.072994999999935,6.271669000000031]},"properties":{"id":2975,"nom":"CENTRE CULTUREL","type":"centre culturel","district_region":null,"departement_commune":null,"verifie":true,"name":"CENTRE CULTUREL","source":"Géoportail ANSTAT"}},{"type":"Feature","geometry":{"type":"Point","coordinates":[-4.175614999999937,5.665301000000056]},"properties":{"id":2977,"nom":"CENTRE CULTUREL AKE BEFIAT","type":"centre culturel","district_region":null,"departement_commune":null,"verifie":true,"name":"CENTRE CULTUREL AKE BEFIAT","source":"Géoportail ANSTAT"}},{"type":"Feature","geometry":{"type":"Point","coordinates":[-4.142459999999971,5.796625000000063]},"properties":{"id":2978,"nom":"CENTRE CULTUREL EN CONSTRUCTION DE PETIT YAPO","type":"centre culturel","district_region":null,"departement_commune":null,"verifie":true,"name":"CENTRE CULTUREL EN CONSTRUCTION DE PETIT YAPO","source":"Géoportail ANSTAT"}},{"type":"Feature","geometry":{"type":"Point","coordinates":[-7.801538999999934,8.239292000000034]},"properties":{"id":2979,"nom":"CENTRE CULTUREL POLYVALENT DE FERENTELLA","type":"centre culturel","district_region":null,"departement_commune":null,"verifie":true,"name":"CENTRE CULTUREL POLYVALENT DE FERENTELLA","source":"Géoportail ANSTAT"}},{"type":"Feature","geometry":{"type":"Point","coordinates":[-5.703198999999927,6.06977500000005]},"properties":{"id":2980,"nom":"CENTRE CULTURELLE DE ZIKISSO","type":"centre culturel","district_region":null,"departement_commune":null,"verifie":true,"name":"CENTRE CULTURELLE DE ZIKISSO","source":"Géoportail ANSTAT"}},{"type":"Feature","geometry":{"type":"Point","coordinates":[-5.734738999999934,5.864814000000024]},"properties":{"id":2987,"nom":"CENTRE CULTUREL VITOR LOBA D","type":"centre culturel","district_region":null,"departement_commune":null,"verifie":true,"name":"CENTRE CULTUREL VITOR LOBA D","source":"Géoportail ANSTAT"}},{"type":"Feature","geometry":{"type":"Point","coordinates":[-5.657776999999953,6.004138000000069]},"properties":{"id":2989,"nom":"CENTRE CULTUREL","type":"centre culturel","district_region":null,"departement_commune":null,"verifie":true,"name":"CENTRE CULTUREL","source":"Géoportail ANSTAT"}},{"type":"Feature","geometry":{"type":"Point","coordinates":[-5.444518999999957,5.761077000000057]},"properties":{"id":2998,"nom":"CENTRE CULTUREL","type":"centre culturel","district_region":null,"departement_commune":null,"verifie":true,"name":"CENTRE CULTUREL","source":"Géoportail ANSTAT"}},{"type":"Feature","geometry":{"type":"Point","coordinates":[-5.298135999999943,5.798599000000024]},"properties":{"id":2999,"nom":"CENTRE CULTUREL BRABODOUGOU","type":"centre culturel","district_region":null,"departement_commune":null,"verifie":true,"name":"CENTRE CULTUREL BRABODOUGOU","source":"Géoportail ANSTAT"}},{"type":"Feature","geometry":{"type":"Point","coordinates":[-5.352665999999942,5.839465000000075]},"properties":{"id":3001,"nom":"CENTRE CULTUREL DE DIVO","type":"centre culturel","district_region":null,"departement_commune":null,"verifie":true,"name":"CENTRE CULTUREL DE DIVO","source":"Géoportail ANSTAT"}},{"type":"Feature","geometry":{"type":"Point","coordinates":[-6.479888999999957,9.521723000000064]},"properties":{"id":3006,"nom":"CENTRE CULTUREL","type":"centre culturel","district_region":null,"departement_commune":null,"verifie":true,"name":"CENTRE CULTUREL","source":"Géoportail ANSTAT"}},{"type":"Feature","geometry":{"type":"Point","coordinates":[-6.17115199999995,8.050756000000035]},"properties":{"id":3007,"nom":"CENTRE CULTUREL DE KOGOLO","type":"centre culturel","district_region":null,"departement_commune":null,"verifie":true,"name":"CENTRE CULTUREL DE KOGOLO","source":"Géoportail ANSTAT"}},{"type":"Feature","geometry":{"type":"Point","coordinates":[-3.20170399999995,7.130775000000028]},"properties":{"id":3010,"nom":"CENTRE CULTUREL D AGNIBILEKRO","type":"centre culturel","district_region":null,"departement_commune":null,"verifie":true,"name":"CENTRE CULTUREL D AGNIBILEKRO","source":"Géoportail ANSTAT"}},{"type":"Feature","geometry":{"type":"Point","coordinates":[-7.55911599999996,9.491387000000032]},"properties":{"id":3011,"nom":"CENTRE CULTUREL D ODIENNE","type":"centre culturel","district_region":null,"departement_commune":null,"verifie":true,"name":"CENTRE CULTUREL D ODIENNE","source":"Géoportail ANSTAT"}},{"type":"Feature","geometry":{"type":"Point","coordinates":[-7.563711999999953,9.50755300000003]},"properties":{"id":3012,"nom":"CENTRE CULTUREL ISLAMIQUE ODIENNE","type":"centre culturel","district_region":null,"departement_commune":null,"verifie":true,"name":"CENTRE CULTUREL ISLAMIQUE ODIENNE","source":"Géoportail ANSTAT"}},{"type":"Feature","geometry":{"type":"Point","coordinates":[-3.747916999999973,5.37702900000005]},"properties":{"id":3014,"nom":"CENTRE CULTUREL","type":"centre culturel","district_region":null,"departement_commune":null,"verifie":true,"name":"CENTRE CULTUREL","source":"Géoportail ANSTAT"}},{"type":"Feature","geometry":{"type":"Point","coordinates":[-3.60688399999998,6.200407000000041]},"properties":{"id":3016,"nom":"CENTRE CULTUREL D ABRADINE 1","type":"centre culturel","district_region":null,"departement_commune":null,"verifie":true,"name":"CENTRE CULTUREL D ABRADINE 1","source":"Géoportail ANSTAT"}},{"type":"Feature","geometry":{"type":"Point","coordinates":[-3.92726799999997,6.016046000000074]},"properties":{"id":3017,"nom":"CENTRE CULTUREL","type":"centre culturel","district_region":null,"departement_commune":null,"verifie":true,"name":"CENTRE CULTUREL","source":"Géoportail ANSTAT"}},{"type":"Feature","geometry":{"type":"Point","coordinates":[-3.954754999999977,6.042499000000021]},"properties":{"id":3018,"nom":"CENTRE CULTUREL ANDE","type":"centre culturel","district_region":null,"departement_commune":null,"verifie":true,"name":"CENTRE CULTUREL ANDE","source":"Géoportail ANSTAT"}},{"type":"Feature","geometry":{"type":"Point","coordinates":[-3.978212999999926,6.023732000000052]},"properties":{"id":3019,"nom":"CENTRE CULTUREL GRD AKOUDZIN","type":"centre culturel","district_region":null,"departement_commune":null,"verifie":true,"name":"CENTRE CULTUREL GRD AKOUDZIN","source":"Géoportail ANSTAT"}},{"type":"Feature","geometry":{"type":"Point","coordinates":[-3.98786999999993,5.984026000000028]},"properties":{"id":3020,"nom":"CENTRE CULTUREL","type":"centre culturel","district_region":null,"departement_commune":null,"verifie":true,"name":"CENTRE CULTUREL","source":"Géoportail ANSTAT"}},{"type":"Feature","geometry":{"type":"Point","coordinates":[-3.731826999999953,5.196124000000054]},"properties":{"id":3025,"nom":"CENTRE CULTUREL JEAN BAPTISTE MOKEY","type":"centre culturel","district_region":null,"departement_commune":null,"verifie":true,"name":"CENTRE CULTUREL JEAN BAPTISTE MOKEY","source":"Géoportail ANSTAT"}},{"type":"Feature","geometry":{"type":"Point","coordinates":[-3.021459999999934,5.137532000000022]},"properties":{"id":3027,"nom":"CENTRE CULTUREL DE TIAPOUM","type":"centre culturel","district_region":null,"departement_commune":null,"verifie":true,"name":"CENTRE CULTUREL DE TIAPOUM","source":"Géoportail ANSTAT"}},{"type":"Feature","geometry":{"type":"Point","coordinates":[-5.036591999999928,8.145372000000066]},"properties":{"id":3030,"nom":"CENTRE CULTUREL","type":"centre culturel","district_region":null,"departement_commune":null,"verifie":true,"name":"CENTRE CULTUREL","source":"Géoportail ANSTAT"}},{"type":"Feature","geometry":{"type":"Point","coordinates":[-5.684755999999936,8.766459000000054]},"properties":{"id":3031,"nom":"CENTRE CULTUREL MUNICIPAL DE TORTIYA","type":"centre culturel","district_region":null,"departement_commune":null,"verifie":true,"name":"CENTRE CULTUREL MUNICIPAL DE TORTIYA","source":"Géoportail ANSTAT"}},{"type":"Feature","geometry":{"type":"Point","coordinates":[-5.095498999999961,8.141893000000039]},"properties":{"id":3032,"nom":"CENTRE CULTUREL DE KATIOLA","type":"centre culturel","district_region":null,"departement_commune":null,"verifie":true,"name":"CENTRE CULTUREL DE KATIOLA","source":"Géoportail ANSTAT"}},{"type":"Feature","geometry":{"type":"Point","coordinates":[-4.43765099999996,8.370024000000058]},"properties":{"id":3033,"nom":"CENTRE CULTUREL","type":"centre culturel","district_region":null,"departement_commune":null,"verifie":true,"name":"CENTRE CULTUREL","source":"Géoportail ANSTAT"}},{"type":"Feature","geometry":{"type":"Point","coordinates":[-7.768937999999935,7.132964000000072]},"properties":{"id":3034,"nom":"CENTRE CULTUREL DE KIANLE","type":"centre culturel","district_region":null,"departement_commune":null,"verifie":true,"name":"CENTRE CULTUREL DE KIANLE","source":"Géoportail ANSTAT"}},{"type":"Feature","geometry":{"type":"Point","coordinates":[-7.513191999999947,7.315340000000049]},"properties":{"id":3035,"nom":"CENTRE CULTUREL DE BLOLE","type":"centre culturel","district_region":null,"departement_commune":null,"verifie":true,"name":"CENTRE CULTUREL DE BLOLE","source":"Géoportail ANSTAT"}},{"type":"Feature","geometry":{"type":"Point","coordinates":[-8.25249999999994,6.965473000000031]},"properties":{"id":3041,"nom":"CENTRE D APPRENTISSAGE AUX METIER PAHO","type":"centre culturel","district_region":null,"departement_commune":null,"verifie":true,"name":"CENTRE D APPRENTISSAGE AUX METIER PAHO","source":"Géoportail ANSTAT"}},{"type":"Feature","geometry":{"type":"Point","coordinates":[-3.996299999999962,7.648112000000026]},"properties":{"id":3056,"nom":"CENTRE CULTUREL DE PRIKRO","type":"centre culturel","district_region":null,"departement_commune":null,"verifie":true,"name":"CENTRE CULTUREL DE PRIKRO","source":"Géoportail ANSTAT"}},{"type":"Feature","geometry":{"type":"Point","coordinates":[-4.33855699999998,7.455806000000052]},"properties":{"id":3057,"nom":"CENTRE CULTUREL","type":"centre culturel","district_region":null,"departement_commune":null,"verifie":true,"name":"CENTRE CULTUREL","source":"Géoportail ANSTAT"}},{"type":"Feature","geometry":{"type":"Point","coordinates":[-4.338575999999932,7.455806000000052]},"properties":{"id":3058,"nom":"CENTRE CULTUREL","type":"centre culturel","district_region":null,"departement_commune":null,"verifie":true,"name":"CENTRE CULTUREL","source":"Géoportail ANSTAT"}},{"type":"Feature","geometry":{"type":"Point","coordinates":[-4.28713799999997,7.466393000000039]},"properties":{"id":3060,"nom":"CENTRE CULTUREL D ABOKRO","type":"centre culturel","district_region":null,"departement_commune":null,"verifie":true,"name":"CENTRE CULTUREL D ABOKRO","source":"Géoportail ANSTAT"}},{"type":"Feature","geometry":{"type":"Point","coordinates":[-3.963075999999944,7.056605000000047]},"properties":{"id":3061,"nom":"CENTRE CULTUREL","type":"centre culturel","district_region":null,"departement_commune":null,"verifie":true,"name":"CENTRE CULTUREL","source":"Géoportail ANSTAT"}},{"type":"Feature","geometry":{"type":"Point","coordinates":[-4.014565999999945,7.296771000000035]},"properties":{"id":3067,"nom":"CENTRE CULTUREL DE OUELLE","type":"centre culturel","district_region":null,"departement_commune":null,"verifie":true,"name":"CENTRE CULTUREL DE OUELLE","source":"Géoportail ANSTAT"}},{"type":"Feature","geometry":{"type":"Point","coordinates":[-5.899071999999933,10.00594200000006]},"properties":{"id":3071,"nom":"CENTRE DE LECTURE ET ANIMATION CULTUREL","type":"centre culturel","district_region":null,"departement_commune":null,"verifie":true,"name":"CENTRE DE LECTURE ET ANIMATION CULTUREL","source":"Géoportail ANSTAT"}},{"type":"Feature","geometry":{"type":"Point","coordinates":[-5.016962999999976,7.677714000000037]},"properties":{"id":3083,"nom":"CENTRE DE FORMATION VATELOT 2 DES SOEURS DE LA DOCTRINE CHRETIENNE","type":"centre culturel","district_region":null,"departement_commune":null,"verifie":true,"name":"CENTRE DE FORMATION VATELOT 2 DES SOEURS DE LA DOCTRINE CHRETIENNE","source":"Géoportail ANSTAT"}},{"type":"Feature","geometry":{"type":"Point","coordinates":[-5.195457999999974,9.59678400000007]},"properties":{"id":3115,"nom":"CENTRE POLYVALENT SORO GUILLAUME","type":"centre culturel","district_region":null,"departement_commune":null,"verifie":true,"name":"CENTRE POLYVALENT SORO GUILLAUME","source":"Géoportail ANSTAT"}},{"type":"Feature","geometry":{"type":"Point","coordinates":[-7.045553999999981,4.707119000000034]},"properties":{"id":3125,"nom":"CENTRE RECREATIF DE KAKO 2","type":"centre culturel","district_region":null,"departement_commune":null,"verifie":true,"name":"CENTRE RECREATIF DE KAKO 2","source":"Géoportail ANSTAT"}},{"type":"Feature","geometry":{"type":"Point","coordinates":[-5.936005999999963,9.82313400000004]},"properties":{"id":3129,"nom":"CENTRE SOCIAL DE LA COMMUNAUTE MUSULMANE DE DIABATERA","type":"centre culturel","district_region":null,"departement_commune":null,"verifie":true,"name":"CENTRE SOCIAL DE LA COMMUNAUTE MUSULMANE DE DIABATERA","source":"Géoportail ANSTAT"}},{"type":"Feature","geometry":{"type":"Point","coordinates":[-6.398498999999958,6.089677000000052]},"properties":{"id":3134,"nom":"CENTRE POLYVALENT CHARLE BAUZA DONWAHI","type":"centre culturel","district_region":null,"departement_commune":null,"verifie":true,"name":"CENTRE POLYVALENT CHARLE BAUZA DONWAHI","source":"Géoportail ANSTAT"}},{"type":"Feature","geometry":{"type":"Point","coordinates":[-5.416594999999973,6.380576000000076]},"properties":{"id":3163,"nom":"CENTRE POLYVALENT YACOUBA SYLLA DOUME","type":"centre culturel","district_region":null,"departement_commune":null,"verifie":true,"name":"CENTRE POLYVALENT YACOUBA SYLLA DOUME","source":"Géoportail ANSTAT"}},{"type":"Feature","geometry":{"type":"Point","coordinates":[-3.342346999999961,8.228396000000032]},"properties":{"id":3169,"nom":"CENTRE SOCIAL","type":"centre culturel","district_region":null,"departement_commune":null,"verifie":true,"name":"CENTRE SOCIAL","source":"Géoportail ANSTAT"}},{"type":"Feature","geometry":{"type":"Point","coordinates":[-5.056742999999926,7.677456000000063]},"properties":{"id":3201,"nom":"CENTRE SOLIDARITE ACTION SOCIALE DE BOUAKE","type":"centre culturel","district_region":null,"departement_commune":null,"verifie":true,"name":"CENTRE SOLIDARITE ACTION SOCIALE DE BOUAKE","source":"Géoportail ANSTAT"}},{"type":"Feature","geometry":{"type":"Point","coordinates":[-2.996857999999975,9.268103000000051]},"properties":{"id":3205,"nom":"CENTRE SOCIAL DE BOUNA","type":"centre culturel","district_region":null,"departement_commune":null,"verifie":true,"name":"CENTRE SOCIAL DE BOUNA","source":"Géoportail ANSTAT"}},{"type":"Feature","geometry":{"type":"Point","coordinates":[-6.40413899999993,10.49039300000004]},"properties":{"id":3228,"nom":"CENTRE MULTIETHNIQUE DE TENGRELA","type":"centre culturel","district_region":null,"departement_commune":null,"verifie":true,"name":"CENTRE MULTIETHNIQUE DE TENGRELA","source":"Géoportail ANSTAT"}},{"type":"Feature","geometry":{"type":"Point","coordinates":[-7.458662999999945,5.872724000000062]},"properties":{"id":4691,"nom":"ECOMUSEE CENTRE D ACCUEIL TOURISTIQUE DE TAI","type":"centre culturel","district_region":null,"departement_commune":null,"verifie":true,"name":"ECOMUSEE CENTRE D ACCUEIL TOURISTIQUE DE TAI","source":"Géoportail ANSTAT"}},{"type":"Feature","geometry":{"type":"Point","coordinates":[-6.452035999999964,6.790159000000074]},"properties":{"id":18029,"nom":"ESPACE CULTUREL  JBG","type":"centre culturel","district_region":null,"departement_commune":null,"verifie":true,"name":"ESPACE CULTUREL  JBG","source":"Géoportail ANSTAT"}},{"type":"Feature","geometry":{"type":"Point","coordinates":[-5.264902999999947,6.784328000000073]},"properties":{"id":20840,"nom":"CENTRE AHMAD BUN HAMBALL","type":"centre culturel","district_region":null,"departement_commune":null,"verifie":true,"name":"CENTRE AHMAD BUN HAMBALL","source":"Géoportail ANSTAT"}},{"type":"Feature","geometry":{"type":"Point","coordinates":[-4.128182999999979,5.338531000000046]},"properties":{"id":31651,"nom":"ANCIEN CENTRE CULTUREL","type":"centre culturel","district_region":null,"departement_commune":null,"verifie":true,"name":"ANCIEN CENTRE CULTUREL","source":"Géoportail ANSTAT"}},{"type":"Feature","geometry":{"type":"Point","coordinates":[-4.044128999999941,5.43498900000003]},"properties":{"id":31748,"nom":"CENTRE CULTUREL ANONKOI KOUTE","type":"centre culturel","district_region":null,"departement_commune":null,"verifie":true,"name":"CENTRE CULTUREL ANONKOI KOUTE","source":"Géoportail ANSTAT"}},{"type":"Feature","geometry":{"type":"Point","coordinates":[-4.014672999999959,5.421008000000029]},"properties":{"id":31774,"nom":"CENTRE D ACTION CULTURELLE D ABOBO CACAB","type":"centre culturel","district_region":null,"departement_commune":null,"verifie":true,"name":"CENTRE D ACTION CULTURELLE D ABOBO CACAB","source":"Géoportail ANSTAT"}},{"type":"Feature","geometry":{"type":"Point","coordinates":[-4.025242999999932,5.350142000000062]},"properties":{"id":31905,"nom":"CENTRE MEDICO SOCIALE DE LA MAIRIE D ADJAME","type":"centre culturel","district_region":null,"departement_commune":null,"verifie":true,"name":"CENTRE MEDICO SOCIALE DE LA MAIRIE D ADJAME","source":"Géoportail ANSTAT"}},{"type":"Feature","geometry":{"type":"Point","coordinates":[-3.996128999999939,5.306343000000027]},"properties":{"id":31911,"nom":"CENTRE CULTUREL","type":"centre culturel","district_region":null,"departement_commune":null,"verifie":true,"name":"CENTRE CULTUREL","source":"Géoportail ANSTAT"}},{"type":"Feature","geometry":{"type":"Point","coordinates":[-3.975062999999977,5.285351000000048]},"properties":{"id":31912,"nom":"CENTRE CULTUREL ISLAMIQUE POUR L EDUCATION UNIVERSEL","type":"centre culturel","district_region":null,"departement_commune":null,"verifie":true,"name":"CENTRE CULTUREL ISLAMIQUE POUR L EDUCATION UNIVERSEL","source":"Géoportail ANSTAT"}},{"type":"Feature","geometry":{"type":"Point","coordinates":[-4.039709999999957,5.31087100000002]},"properties":{"id":31928,"nom":"CENTRE SOCIO CULTUREL D AGBOGON DOUMIN","type":"centre culturel","district_region":null,"departement_commune":null,"verifie":true,"name":"CENTRE SOCIO CULTUREL D AGBOGON DOUMIN","source":"Géoportail ANSTAT"}}],"metadata":{"dataset":"Centre culturel — ANSTAT","source":"Géoportail ANSTAT","theme":"Social & Culture","verified":true,"apercu":"complet"}}