{"type":"FeatureCollection","features":[{"type":"Feature","geometry":{"type":"Point","coordinates":[-5.263515999999925,6.839368000000036]},"properties":{"id":36265,"nom":"PREFECTURE REGIONALE YAMOUSSOUKRO","type":"prefecture","district_region":null,"departement_commune":null,"verifie":true,"name":"PREFECTURE REGIONALE YAMOUSSOUKRO","source":"Géoportail ANSTAT"}},{"type":"Feature","geometry":{"type":"Point","coordinates":[-5.123995999999977,6.780959000000053]},"properties":{"id":36559,"nom":"PRECFECTURE","type":"prefecture","district_region":null,"departement_commune":null,"verifie":true,"name":"PRECFECTURE","source":"Géoportail ANSTAT"}},{"type":"Feature","geometry":{"type":"Point","coordinates":[-7.495259999999973,6.549755000000062]},"properties":{"id":37401,"nom":"GUIGLO","type":"prefecture","district_region":null,"departement_commune":null,"verifie":true,"name":"GUIGLO","source":"Géoportail ANSTAT"}},{"type":"Feature","geometry":{"type":"Point","coordinates":[-5.01081499999998,5.269130000000075]},"properties":{"id":37866,"nom":"NOUVELLE PREFECTURE DE GRAND LAHOU","type":"prefecture","district_region":null,"departement_commune":null,"verifie":true,"name":"NOUVELLE PREFECTURE DE GRAND LAHOU","source":"Géoportail ANSTAT"}},{"type":"Feature","geometry":{"type":"Point","coordinates":[-4.601693999999952,9.15872500000006]},"properties":{"id":38392,"nom":"PREFECTURE DE KONG","type":"prefecture","district_region":null,"departement_commune":null,"verifie":true,"name":"PREFECTURE DE KONG","source":"Géoportail ANSTAT"}},{"type":"Feature","geometry":{"type":"Point","coordinates":[-4.601428999999939,9.158745000000067]},"properties":{"id":38393,"nom":"PREFECTURE DE KONG","type":"prefecture","district_region":null,"departement_commune":null,"verifie":true,"name":"PREFECTURE DE KONG","source":"Géoportail ANSTAT"}},{"type":"Feature","geometry":{"type":"Point","coordinates":[-4.601922999999942,9.15928100000002]},"properties":{"id":38394,"nom":"PREFECTURE DE KONG","type":"prefecture","district_region":null,"departement_commune":null,"verifie":true,"name":"PREFECTURE DE KONG","source":"Géoportail ANSTAT"}},{"type":"Feature","geometry":{"type":"Point","coordinates":[-6.647455999999977,4.762426000000062]},"properties":{"id":38398,"nom":"PREFECTURE DE SAN PEDRO","type":"prefecture","district_region":null,"departement_commune":null,"verifie":true,"name":"PREFECTURE DE SAN PEDRO","source":"Géoportail ANSTAT"}},{"type":"Feature","geometry":{"type":"Point","coordinates":[-5.634258999999929,9.451598000000049]},"properties":{"id":38405,"nom":"PREFECTURE DE KOROGHO","type":"prefecture","district_region":null,"departement_commune":null,"verifie":true,"name":"PREFECTURE DE KOROGHO","source":"Géoportail ANSTAT"}},{"type":"Feature","geometry":{"type":"Point","coordinates":[-5.385054999999966,9.584725000000049]},"properties":{"id":38407,"nom":"PREFECTURE","type":"prefecture","district_region":null,"departement_commune":null,"verifie":true,"name":"PREFECTURE","source":"Géoportail ANSTAT"}},{"type":"Feature","geometry":{"type":"Point","coordinates":[-6.597767999999974,5.784129000000064]},"properties":{"id":38412,"nom":"PREFECTURE","type":"prefecture","district_region":null,"departement_commune":null,"verifie":true,"name":"PREFECTURE","source":"Géoportail ANSTAT"}},{"type":"Feature","geometry":{"type":"Point","coordinates":[-7.000767999999937,6.266835000000071]},"properties":{"id":38416,"nom":"PREFECTURE DE BUYO","type":"prefecture","district_region":null,"departement_commune":null,"verifie":true,"name":"PREFECTURE DE BUYO","source":"Géoportail ANSTAT"}},{"type":"Feature","geometry":{"type":"Point","coordinates":[-6.075182999999981,5.685213000000033]},"properties":{"id":38418,"nom":"PREFECTURE DE GUEYO","type":"prefecture","district_region":null,"departement_commune":null,"verifie":true,"name":"PREFECTURE DE GUEYO","source":"Géoportail ANSTAT"}},{"type":"Feature","geometry":{"type":"Point","coordinates":[-6.075165999999967,5.685219000000075]},"properties":{"id":38419,"nom":"PREFECTURE DE GUEYO","type":"prefecture","district_region":null,"departement_commune":null,"verifie":true,"name":"PREFECTURE DE GUEYO","source":"Géoportail ANSTAT"}},{"type":"Feature","geometry":{"type":"Point","coordinates":[-3.984779999999944,6.679396000000054]},"properties":{"id":38426,"nom":"PREFECTURE ARRAH","type":"prefecture","district_region":null,"departement_commune":null,"verifie":true,"name":"PREFECTURE ARRAH","source":"Géoportail ANSTAT"}},{"type":"Feature","geometry":{"type":"Point","coordinates":[-4.208324999999945,6.654736000000071]},"properties":{"id":38427,"nom":"PREFECTURE DE BONGOUANOU","type":"prefecture","district_region":null,"departement_commune":null,"verifie":true,"name":"PREFECTURE DE BONGOUANOU","source":"Géoportail ANSTAT"}},{"type":"Feature","geometry":{"type":"Point","coordinates":[-7.373607999999933,7.390594000000021]},"properties":{"id":38429,"nom":"PREFECTURE DE FAKOBLY","type":"prefecture","district_region":null,"departement_commune":null,"verifie":true,"name":"PREFECTURE DE FAKOBLY","source":"Géoportail ANSTAT"}},{"type":"Feature","geometry":{"type":"Point","coordinates":[-7.341444999999965,6.743618000000026]},"properties":{"id":38433,"nom":"PREFECTURE DUEKOUE","type":"prefecture","district_region":null,"departement_commune":null,"verifie":true,"name":"PREFECTURE DUEKOUE","source":"Géoportail ANSTAT"}},{"type":"Feature","geometry":{"type":"Point","coordinates":[-4.996635999999967,5.263598000000059]},"properties":{"id":38438,"nom":"PREFECTURE DE GRAND LAHOU","type":"prefecture","district_region":null,"departement_commune":null,"verifie":true,"name":"PREFECTURE DE GRAND LAHOU","source":"Géoportail ANSTAT"}},{"type":"Feature","geometry":{"type":"Point","coordinates":[-4.418086999999957,5.203493000000037]},"properties":{"id":38440,"nom":"PREFECTURE DE JACQUEVILLE","type":"prefecture","district_region":null,"departement_commune":null,"verifie":true,"name":"PREFECTURE DE JACQUEVILLE","source":"Géoportail ANSTAT"}},{"type":"Feature","geometry":{"type":"Point","coordinates":[-4.385854999999935,5.317037000000028]},"properties":{"id":38441,"nom":"PREFECTURE DE DABOU","type":"prefecture","district_region":null,"departement_commune":null,"verifie":true,"name":"PREFECTURE DE DABOU","source":"Géoportail ANSTAT"}},{"type":"Feature","geometry":{"type":"Point","coordinates":[-5.943043999999929,6.133203000000037]},"properties":{"id":38443,"nom":"PREFECTURE DE GAGNOA","type":"prefecture","district_region":null,"departement_commune":null,"verifie":true,"name":"PREFECTURE DE GAGNOA","source":"Géoportail ANSTAT"}},{"type":"Feature","geometry":{"type":"Point","coordinates":[-6.078311999999926,4.957630000000051]},"properties":{"id":38448,"nom":"PREFECTURE DE SASSANDRA","type":"prefecture","district_region":null,"departement_commune":null,"verifie":true,"name":"PREFECTURE DE SASSANDRA","source":"Géoportail ANSTAT"}},{"type":"Feature","geometry":{"type":"Point","coordinates":[-5.114512999999931,6.469111000000055]},"properties":{"id":38451,"nom":"PREFECTURE DE DJEKANOU","type":"prefecture","district_region":null,"departement_commune":null,"verifie":true,"name":"PREFECTURE DE DJEKANOU","source":"Géoportail ANSTAT"}},{"type":"Feature","geometry":{"type":"Point","coordinates":[-5.219356999999945,7.155425000000037]},"properties":{"id":38453,"nom":"PREFECTURE DE TIEBISSOU","type":"prefecture","district_region":null,"departement_commune":null,"verifie":true,"name":"PREFECTURE DE TIEBISSOU","source":"Géoportail ANSTAT"}},{"type":"Feature","geometry":{"type":"Point","coordinates":[-2.791431999999929,8.04701300000005]},"properties":{"id":38456,"nom":"PREFECTURE DE LA REGION DU GONTOUGO","type":"prefecture","district_region":null,"departement_commune":null,"verifie":true,"name":"PREFECTURE DE LA REGION DU GONTOUGO","source":"Géoportail ANSTAT"}},{"type":"Feature","geometry":{"type":"Point","coordinates":[-3.580761999999936,7.949607000000071]},"properties":{"id":38458,"nom":"PREFECTURE DE SANDEGUE","type":"prefecture","district_region":null,"departement_commune":null,"verifie":true,"name":"PREFECTURE DE SANDEGUE","source":"Géoportail ANSTAT"}},{"type":"Feature","geometry":{"type":"Point","coordinates":[-3.17449199999993,7.804797000000065]},"properties":{"id":38466,"nom":"PREFECTURE DE TANDA","type":"prefecture","district_region":null,"departement_commune":null,"verifie":true,"name":"PREFECTURE DE TANDA","source":"Géoportail ANSTAT"}},{"type":"Feature","geometry":{"type":"Point","coordinates":[-3.254691999999977,7.494332000000043]},"properties":{"id":38468,"nom":"PREFECTURE DE KOUN FAO","type":"prefecture","district_region":null,"departement_commune":null,"verifie":true,"name":"PREFECTURE DE KOUN FAO","source":"Géoportail ANSTAT"}},{"type":"Feature","geometry":{"type":"Point","coordinates":[-3.015576999999951,7.549705000000074]},"properties":{"id":38470,"nom":"PREFECTURE DE TRANSUA","type":"prefecture","district_region":null,"departement_commune":null,"verifie":true,"name":"PREFECTURE DE TRANSUA","source":"Géoportail ANSTAT"}},{"type":"Feature","geometry":{"type":"Point","coordinates":[-6.603085999999962,8.467926000000034]},"properties":{"id":38475,"nom":"PREFECTURE DE KANI","type":"prefecture","district_region":null,"departement_commune":null,"verifie":true,"name":"PREFECTURE DE KANI","source":"Géoportail ANSTAT"}},{"type":"Feature","geometry":{"type":"Point","coordinates":[-5.756587999999965,6.989478000000076]},"properties":{"id":38477,"nom":"PREFECTURE DE BOUAFLE","type":"prefecture","district_region":null,"departement_commune":null,"verifie":true,"name":"PREFECTURE DE BOUAFLE","source":"Géoportail ANSTAT"}},{"type":"Feature","geometry":{"type":"Point","coordinates":[-5.914339999999925,6.620734000000027]},"properties":{"id":38481,"nom":"PREFECTURE DE SINFRA","type":"prefecture","district_region":null,"departement_commune":null,"verifie":true,"name":"PREFECTURE DE SINFRA","source":"Géoportail ANSTAT"}},{"type":"Feature","geometry":{"type":"Point","coordinates":[-5.053469999999948,7.691484000000059]},"properties":{"id":38484,"nom":"PREFECTURE DE LA REGION DU GBEKE","type":"prefecture","district_region":null,"departement_commune":null,"verifie":true,"name":"PREFECTURE DE LA REGION DU GBEKE","source":"Géoportail ANSTAT"}},{"type":"Feature","geometry":{"type":"Point","coordinates":[-5.290862999999945,7.443880000000036]},"properties":{"id":38488,"nom":"PREFECTURE  DE SAKASSOU","type":"prefecture","district_region":null,"departement_commune":null,"verifie":true,"name":"PREFECTURE  DE SAKASSOU","source":"Géoportail ANSTAT"}},{"type":"Feature","geometry":{"type":"Point","coordinates":[-5.586581999999964,7.665703000000065]},"properties":{"id":38489,"nom":"PREFECTURE DE BEOUMI","type":"prefecture","district_region":null,"departement_commune":null,"verifie":true,"name":"PREFECTURE DE BEOUMI","source":"Géoportail ANSTAT"}},{"type":"Feature","geometry":{"type":"Point","coordinates":[-5.310667999999964,7.846340000000055]},"properties":{"id":38491,"nom":"PREFECTURE DE BOTRO","type":"prefecture","district_region":null,"departement_commune":null,"verifie":true,"name":"PREFECTURE DE BOTRO","source":"Géoportail ANSTAT"}},{"type":"Feature","geometry":{"type":"Point","coordinates":[-3.35131599999994,9.821138000000076]},"properties":{"id":38494,"nom":"PREFECTURE","type":"prefecture","district_region":null,"departement_commune":null,"verifie":true,"name":"PREFECTURE","source":"Géoportail ANSTAT"}},{"type":"Feature","geometry":{"type":"Point","coordinates":[-3.66887399999996,9.61198600000006]},"properties":{"id":38500,"nom":"PREFECTURE","type":"prefecture","district_region":null,"departement_commune":null,"verifie":true,"name":"PREFECTURE","source":"Géoportail ANSTAT"}},{"type":"Feature","geometry":{"type":"Point","coordinates":[-4.677714999999978,7.342183000000034]},"properties":{"id":38503,"nom":"PREFECTURE DE KOUASSI KOUASSIKRO","type":"prefecture","district_region":null,"departement_commune":null,"verifie":true,"name":"PREFECTURE DE KOUASSI KOUASSIKRO","source":"Géoportail ANSTAT"}},{"type":"Feature","geometry":{"type":"Point","coordinates":[-4.706940999999972,6.651564000000064]},"properties":{"id":38504,"nom":"PREFECTURE DE DIMBOKRO","type":"prefecture","district_region":null,"departement_commune":null,"verifie":true,"name":"PREFECTURE DE DIMBOKRO","source":"Géoportail ANSTAT"}},{"type":"Feature","geometry":{"type":"Point","coordinates":[-8.018001999999967,6.572858000000053]},"properties":{"id":38506,"nom":"PREFECTURE DE BLOLEQUIN","type":"prefecture","district_region":null,"departement_commune":null,"verifie":true,"name":"PREFECTURE DE BLOLEQUIN","source":"Géoportail ANSTAT"}},{"type":"Feature","geometry":{"type":"Point","coordinates":[-8.404888999999969,6.59100200000006]},"properties":{"id":38507,"nom":"PREFECTURE DE TOULEUPLEU","type":"prefecture","district_region":null,"departement_commune":null,"verifie":true,"name":"PREFECTURE DE TOULEUPLEU","source":"Géoportail ANSTAT"}},{"type":"Feature","geometry":{"type":"Point","coordinates":[-6.477931999999953,7.389151000000027]},"properties":{"id":38511,"nom":"PREFECTURE DE VAVOUA","type":"prefecture","district_region":null,"departement_commune":null,"verifie":true,"name":"PREFECTURE DE VAVOUA","source":"Géoportail ANSTAT"}},{"type":"Feature","geometry":{"type":"Point","coordinates":[-6.859770999999967,6.771750000000054]},"properties":{"id":38513,"nom":"PREFECTURE DE ZOUKOUGBEU","type":"prefecture","district_region":null,"departement_commune":null,"verifie":true,"name":"PREFECTURE DE ZOUKOUGBEU","source":"Géoportail ANSTAT"}},{"type":"Feature","geometry":{"type":"Point","coordinates":[-6.451269999999965,6.885185000000035]},"properties":{"id":38518,"nom":"PREFECTURE DE DALOA","type":"prefecture","district_region":null,"departement_commune":null,"verifie":true,"name":"PREFECTURE DE DALOA","source":"Géoportail ANSTAT"}},{"type":"Feature","geometry":{"type":"Point","coordinates":[-6.589130999999952,6.488902000000053]},"properties":{"id":38520,"nom":"PREFECTURE D ISSIA","type":"prefecture","district_region":null,"departement_commune":null,"verifie":true,"name":"PREFECTURE D ISSIA","source":"Géoportail ANSTAT"}},{"type":"Feature","geometry":{"type":"Point","coordinates":[-4.821593999999948,5.893944000000033]},"properties":{"id":38525,"nom":"PREFECTURE  DE TIASSALE","type":"prefecture","district_region":null,"departement_commune":null,"verifie":true,"name":"PREFECTURE  DE TIASSALE","source":"Géoportail ANSTAT"}},{"type":"Feature","geometry":{"type":"Point","coordinates":[-4.577248999999938,5.661115000000052]},"properties":{"id":38526,"nom":"PREFECTURE DE SIKENSI","type":"prefecture","district_region":null,"departement_commune":null,"verifie":true,"name":"PREFECTURE DE SIKENSI","source":"Géoportail ANSTAT"}},{"type":"Feature","geometry":{"type":"Point","coordinates":[-7.68839799999995,8.286591000000044]},"properties":{"id":38532,"nom":"PREFECTURE DE LA REGION DU BAFING","type":"prefecture","district_region":null,"departement_commune":null,"verifie":true,"name":"PREFECTURE DE LA REGION DU BAFING","source":"Géoportail ANSTAT"}},{"type":"Feature","geometry":{"type":"Point","coordinates":[-7.866538999999932,8.236341000000039]},"properties":{"id":38534,"nom":"PREFECTURE DE OUANINOU","type":"prefecture","district_region":null,"departement_commune":null,"verifie":true,"name":"PREFECTURE DE OUANINOU","source":"Géoportail ANSTAT"}},{"type":"Feature","geometry":{"type":"Point","coordinates":[-5.237774999999942,5.525647000000049]},"properties":{"id":38546,"nom":"PREFECTURE DE GUITRY","type":"prefecture","district_region":null,"departement_commune":null,"verifie":true,"name":"PREFECTURE DE GUITRY","source":"Géoportail ANSTAT"}},{"type":"Feature","geometry":{"type":"Point","coordinates":[-5.348324999999932,5.836859000000061]},"properties":{"id":38547,"nom":"PREFECTURE DE DIVO","type":"prefecture","district_region":null,"departement_commune":null,"verifie":true,"name":"PREFECTURE DE DIVO","source":"Géoportail ANSTAT"}},{"type":"Feature","geometry":{"type":"Point","coordinates":[-6.42258099999998,9.87811000000005]},"properties":{"id":38549,"nom":"PREFECTURE DE KOUTO","type":"prefecture","district_region":null,"departement_commune":null,"verifie":true,"name":"PREFECTURE DE KOUTO","source":"Géoportail ANSTAT"}},{"type":"Feature","geometry":{"type":"Point","coordinates":[-6.480103999999926,9.518435000000068]},"properties":{"id":38550,"nom":"PREFECTURE DE BOUNDIALI","type":"prefecture","district_region":null,"departement_commune":null,"verifie":true,"name":"PREFECTURE DE BOUNDIALI","source":"Géoportail ANSTAT"}},{"type":"Feature","geometry":{"type":"Point","coordinates":[-6.407217999999943,10.47960500000005]},"properties":{"id":38553,"nom":"PREFECTURE DE TENGRELA","type":"prefecture","district_region":null,"departement_commune":null,"verifie":true,"name":"PREFECTURE DE TENGRELA","source":"Géoportail ANSTAT"}},{"type":"Feature","geometry":{"type":"Point","coordinates":[-6.18756099999996,8.04927900000007]},"properties":{"id":38556,"nom":"PREFECTURE DE MANKONO","type":"prefecture","district_region":null,"departement_commune":null,"verifie":true,"name":"PREFECTURE DE MANKONO","source":"Géoportail ANSTAT"}},{"type":"Feature","geometry":{"type":"Point","coordinates":[-6.251965999999925,8.954580000000021]},"properties":{"id":38558,"nom":"PREFECTURE DE DIANRA","type":"prefecture","district_region":null,"departement_commune":null,"verifie":true,"name":"PREFECTURE DE DIANRA","source":"Géoportail ANSTAT"}},{"type":"Feature","geometry":{"type":"Point","coordinates":[-5.837470999999937,7.783431000000064]},"properties":{"id":38559,"nom":"PREFECTURE","type":"prefecture","district_region":null,"departement_commune":null,"verifie":true,"name":"PREFECTURE","source":"Géoportail ANSTAT"}},{"type":"Feature","geometry":{"type":"Point","coordinates":[-7.507188999999926,9.816703000000077]},"properties":{"id":38560,"nom":"PREFECTURE DE KANIASSO","type":"prefecture","district_region":null,"departement_commune":null,"verifie":true,"name":"PREFECTURE DE KANIASSO","source":"Géoportail ANSTAT"}},{"type":"Feature","geometry":{"type":"Point","coordinates":[-7.842285999999945,9.99327100000005]},"properties":{"id":38561,"nom":"PREFECTURE DE MINIGNAN","type":"prefecture","district_region":null,"departement_commune":null,"verifie":true,"name":"PREFECTURE DE MINIGNAN","source":"Géoportail ANSTAT"}},{"type":"Feature","geometry":{"type":"Point","coordinates":[-3.200530999999955,7.12049200000007]},"properties":{"id":38566,"nom":"PREFECTURE D AGNIBILEKROU","type":"prefecture","district_region":null,"departement_commune":null,"verifie":true,"name":"PREFECTURE D AGNIBILEKROU","source":"Géoportail ANSTAT"}},{"type":"Feature","geometry":{"type":"Point","coordinates":[-3.418034999999975,6.074712000000034]},"properties":{"id":38568,"nom":"PREFECTURE DE BETIE","type":"prefecture","district_region":null,"departement_commune":null,"verifie":true,"name":"PREFECTURE DE BETIE","source":"Géoportail ANSTAT"}},{"type":"Feature","geometry":{"type":"Point","coordinates":[-7.564248999999961,9.509760000000028]},"properties":{"id":38569,"nom":"PREFECTURE DE ODIENNE","type":"prefecture","district_region":null,"departement_commune":null,"verifie":true,"name":"PREFECTURE DE ODIENNE","source":"Géoportail ANSTAT"}},{"type":"Feature","geometry":{"type":"Point","coordinates":[-6.94617599999998,9.609035000000064]},"properties":{"id":38572,"nom":"PREFECTURE","type":"prefecture","district_region":null,"departement_commune":null,"verifie":true,"name":"PREFECTURE","source":"Géoportail ANSTAT"}},{"type":"Feature","geometry":{"type":"Point","coordinates":[-7.125164999999981,9.355508000000045]},"properties":{"id":38573,"nom":"PREFECTURE DE SEGUELON","type":"prefecture","district_region":null,"departement_commune":null,"verifie":true,"name":"PREFECTURE DE SEGUELON","source":"Géoportail ANSTAT"}},{"type":"Feature","geometry":{"type":"Point","coordinates":[-8.128136999999981,9.59091600000005]},"properties":{"id":38577,"nom":"PREFECTURE DE GBELEBAN","type":"prefecture","district_region":null,"departement_commune":null,"verifie":true,"name":"PREFECTURE DE GBELEBAN","source":"Géoportail ANSTAT"}},{"type":"Feature","geometry":{"type":"Point","coordinates":[-3.66285199999993,5.503484000000071]},"properties":{"id":38578,"nom":"PREFECTURE D ALEPE","type":"prefecture","district_region":null,"departement_commune":null,"verifie":true,"name":"PREFECTURE D ALEPE","source":"Géoportail ANSTAT"}},{"type":"Feature","geometry":{"type":"Point","coordinates":[-3.651369999999929,6.188954000000024]},"properties":{"id":38579,"nom":"PREFECTURE","type":"prefecture","district_region":null,"departement_commune":null,"verifie":true,"name":"PREFECTURE","source":"Géoportail ANSTAT"}},{"type":"Feature","geometry":{"type":"Point","coordinates":[-3.888955999999951,6.394866000000036]},"properties":{"id":38581,"nom":"PREFECTURE AKOUPE","type":"prefecture","district_region":null,"departement_commune":null,"verifie":true,"name":"PREFECTURE AKOUPE","source":"Géoportail ANSTAT"}},{"type":"Feature","geometry":{"type":"Point","coordinates":[-3.737522999999953,5.196121000000062]},"properties":{"id":38582,"nom":"PREFECTURE DE GRAND BASSAM","type":"prefecture","district_region":null,"departement_commune":null,"verifie":true,"name":"PREFECTURE DE GRAND BASSAM","source":"Géoportail ANSTAT"}},{"type":"Feature","geometry":{"type":"Point","coordinates":[-3.299832999999978,5.28402600000004]},"properties":{"id":38591,"nom":"PREFECTURE D ADIAKE","type":"prefecture","district_region":null,"departement_commune":null,"verifie":true,"name":"PREFECTURE D ADIAKE","source":"Géoportail ANSTAT"}},{"type":"Feature","geometry":{"type":"Point","coordinates":[-3.014321999999936,5.141114000000073]},"properties":{"id":38592,"nom":"PREFECTURE DE TIAPOUM","type":"prefecture","district_region":null,"departement_commune":null,"verifie":true,"name":"PREFECTURE DE TIAPOUM","source":"Géoportail ANSTAT"}},{"type":"Feature","geometry":{"type":"Point","coordinates":[-5.284198999999944,8.66035800000003]},"properties":{"id":38599,"nom":"PREFECTURE DE NIAKARAMADOUGOU","type":"prefecture","district_region":null,"departement_commune":null,"verifie":true,"name":"PREFECTURE DE NIAKARAMADOUGOU","source":"Géoportail ANSTAT"}},{"type":"Feature","geometry":{"type":"Point","coordinates":[-5.085309999999936,8.126514000000043]},"properties":{"id":38601,"nom":"PREFECTURE DE KATIOLA","type":"prefecture","district_region":null,"departement_commune":null,"verifie":true,"name":"PREFECTURE DE KATIOLA","source":"Géoportail ANSTAT"}},{"type":"Feature","geometry":{"type":"Point","coordinates":[-4.427164999999945,8.364570000000072]},"properties":{"id":38603,"nom":"PREFECTURE DE DABAKALA","type":"prefecture","district_region":null,"departement_commune":null,"verifie":true,"name":"PREFECTURE DE DABAKALA","source":"Géoportail ANSTAT"}},{"type":"Feature","geometry":{"type":"Point","coordinates":[-7.555906999999934,7.404182000000048]},"properties":{"id":38604,"nom":"PREFECTURE DE MAN","type":"prefecture","district_region":null,"departement_commune":null,"verifie":true,"name":"PREFECTURE DE MAN","source":"Géoportail ANSTAT"}},{"type":"Feature","geometry":{"type":"Point","coordinates":[-8.204625999999962,6.935513000000071]},"properties":{"id":38608,"nom":"PREFECTURE DE ZOUAN HOUNIEN","type":"prefecture","district_region":null,"departement_commune":null,"verifie":true,"name":"PREFECTURE DE ZOUAN HOUNIEN","source":"Géoportail ANSTAT"}},{"type":"Feature","geometry":{"type":"Point","coordinates":[-8.155836999999963,7.262133000000063]},"properties":{"id":38610,"nom":"PREFECTURE DE DANANE","type":"prefecture","district_region":null,"departement_commune":null,"verifie":true,"name":"PREFECTURE DE DANANE","source":"Géoportail ANSTAT"}},{"type":"Feature","geometry":{"type":"Point","coordinates":[-8.097372999999948,7.860773000000052]},"properties":{"id":38611,"nom":"PREFECTURE DE SIPILOU","type":"prefecture","district_region":null,"departement_commune":null,"verifie":true,"name":"PREFECTURE DE SIPILOU","source":"Géoportail ANSTAT"}},{"type":"Feature","geometry":{"type":"Point","coordinates":[-3.99709299999995,7.650750000000073]},"properties":{"id":38613,"nom":"PREFECTURE DE PRIKRO","type":"prefecture","district_region":null,"departement_commune":null,"verifie":true,"name":"PREFECTURE DE PRIKRO","source":"Géoportail ANSTAT"}},{"type":"Feature","geometry":{"type":"Point","coordinates":[-3.978378999999961,7.055657000000053]},"properties":{"id":38615,"nom":"PREFECTURE DE DAOUKRO","type":"prefecture","district_region":null,"departement_commune":null,"verifie":true,"name":"PREFECTURE DE DAOUKRO","source":"Géoportail ANSTAT"}},{"type":"Feature","geometry":{"type":"Point","coordinates":[-4.374920999999972,6.475493000000029]},"properties":{"id":38621,"nom":"PRFECTURE DE M BATTO","type":"prefecture","district_region":null,"departement_commune":null,"verifie":true,"name":"PRFECTURE DE M BATTO","source":"Géoportail ANSTAT"}},{"type":"Feature","geometry":{"type":"Point","coordinates":[-7.247329999999977,7.254226000000074]},"properties":{"id":38622,"nom":"PREFECTUUTRE DE KOUIBLY","type":"prefecture","district_region":null,"departement_commune":null,"verifie":true,"name":"PREFECTUUTRE DE KOUIBLY","source":"Géoportail ANSTAT"}},{"type":"Feature","geometry":{"type":"Point","coordinates":[-4.90649099999996,7.13561100000004]},"properties":{"id":38624,"nom":"PREFECTURE REGINONALE DE DIDIEVI","type":"prefecture","district_region":null,"departement_commune":null,"verifie":true,"name":"PREFECTURE REGINONALE DE DIDIEVI","source":"Géoportail ANSTAT"}},{"type":"Feature","geometry":{"type":"Point","coordinates":[-3.469198999999946,8.453111000000035]},"properties":{"id":38630,"nom":"PREFFECTURE","type":"prefecture","district_region":null,"departement_commune":null,"verifie":true,"name":"PREFFECTURE","source":"Géoportail ANSTAT"}},{"type":"Feature","geometry":{"type":"Point","coordinates":[-3.467448999999931,8.453114000000028]},"properties":{"id":38631,"nom":"PRFECTURE DE NASSIAN","type":"prefecture","district_region":null,"departement_commune":null,"verifie":true,"name":"PRFECTURE DE NASSIAN","source":"Géoportail ANSTAT"}},{"type":"Feature","geometry":{"type":"Point","coordinates":[-4.197753999999975,5.916645000000074]},"properties":{"id":38655,"nom":"REGION AGNEBY TIASSA PREFECTURE D AGBOVILLE","type":"prefecture","district_region":null,"departement_commune":null,"verifie":true,"name":"REGION AGNEBY TIASSA PREFECTURE D AGBOVILLE","source":"Géoportail ANSTAT"}}],"metadata":{"dataset":"Prefecture — ANSTAT","source":"Géoportail ANSTAT","theme":"Administration","verified":true,"apercu":"complet"}}