{"type":"FeatureCollection","features":[{"type":"Feature","geometry":{"type":"Point","coordinates":[-5.031897999999956,7.715837000000022]},"properties":{"id":35960,"nom":"3XIEME ARRONDISSEMENT DAR ES SALAM BOUAKE","type":"commissariat","district_region":null,"departement_commune":null,"verifie":true,"name":"3XIEME ARRONDISSEMENT DAR ES SALAM BOUAKE","source":"Géoportail ANSTAT"}},{"type":"Feature","geometry":{"type":"Point","coordinates":[-5.04418499999997,7.670296000000064]},"properties":{"id":35961,"nom":"6E ARRONDISSEMENT BOYAKE BROUKRO","type":"commissariat","district_region":null,"departement_commune":null,"verifie":true,"name":"6E ARRONDISSEMENT BOYAKE BROUKRO","source":"Géoportail ANSTAT"}},{"type":"Feature","geometry":{"type":"Point","coordinates":[-5.355984999999976,5.84137800000002]},"properties":{"id":35989,"nom":"1ER ARRONDISSEMENT DE DIVO","type":"commissariat","district_region":null,"departement_commune":null,"verifie":true,"name":"1ER ARRONDISSEMENT DE DIVO","source":"Géoportail ANSTAT"}},{"type":"Feature","geometry":{"type":"Point","coordinates":[-3.297962999999925,5.279663000000028]},"properties":{"id":36380,"nom":"BRIGADE LAGUNAIRE ET MARITINE D ADIAKE","type":"commissariat","district_region":null,"departement_commune":null,"verifie":true,"name":"BRIGADE LAGUNAIRE ET MARITINE D ADIAKE","source":"Géoportail ANSTAT"}},{"type":"Feature","geometry":{"type":"Point","coordinates":[-2.795975999999939,8.042800000000057]},"properties":{"id":36556,"nom":"CMMISSARIAT DE POLICE DE BONDOUKOU","type":"commissariat","district_region":null,"departement_commune":null,"verifie":true,"name":"CMMISSARIAT DE POLICE DE BONDOUKOU","source":"Géoportail ANSTAT"}},{"type":"Feature","geometry":{"type":"Point","coordinates":[-5.155705999999952,9.96841900000004]},"properties":{"id":36563,"nom":"COMMISARIAT DE POLICE DE OUANGOLODOUGOU","type":"commissariat","district_region":null,"departement_commune":null,"verifie":true,"name":"COMMISARIAT DE POLICE DE OUANGOLODOUGOU","source":"Géoportail ANSTAT"}},{"type":"Feature","geometry":{"type":"Point","coordinates":[-5.623722999999927,10.19933500000008]},"properties":{"id":36564,"nom":"COMMISSARIAT DE NIELLE","type":"commissariat","district_region":null,"departement_commune":null,"verifie":true,"name":"COMMISSARIAT DE NIELLE","source":"Géoportail ANSTAT"}},{"type":"Feature","geometry":{"type":"Point","coordinates":[-5.195087999999942,9.59649500000006]},"properties":{"id":36565,"nom":"COMMISSARIAT DE FERKESSEDOUGOU","type":"commissariat","district_region":null,"departement_commune":null,"verifie":true,"name":"COMMISSARIAT DE FERKESSEDOUGOU","source":"Géoportail ANSTAT"}},{"type":"Feature","geometry":{"type":"Point","coordinates":[-7.355546999999945,4.418641000000036]},"properties":{"id":36567,"nom":"COMMISSARIAT MIXTE DE POLICE DE TABOU","type":"commissariat","district_region":null,"departement_commune":null,"verifie":true,"name":"COMMISSARIAT MIXTE DE POLICE DE TABOU","source":"Géoportail ANSTAT"}},{"type":"Feature","geometry":{"type":"Point","coordinates":[-6.555320999999935,5.398653000000024]},"properties":{"id":36569,"nom":"COMMISSARIAT DE POLICE DE MEAGUI","type":"commissariat","district_region":null,"departement_commune":null,"verifie":true,"name":"COMMISSARIAT DE POLICE DE MEAGUI","source":"Géoportail ANSTAT"}},{"type":"Feature","geometry":{"type":"Point","coordinates":[-6.400771999999961,6.088832000000025]},"properties":{"id":36570,"nom":"COMMISSARIAT DE MAYO","type":"commissariat","district_region":null,"departement_commune":null,"verifie":true,"name":"COMMISSARIAT DE MAYO","source":"Géoportail ANSTAT"}},{"type":"Feature","geometry":{"type":"Point","coordinates":[-6.401001999999949,6.088535000000036]},"properties":{"id":36571,"nom":"COMMISSARIAT DE MAYO","type":"commissariat","district_region":null,"departement_commune":null,"verifie":true,"name":"COMMISSARIAT DE MAYO","source":"Géoportail ANSTAT"}},{"type":"Feature","geometry":{"type":"Point","coordinates":[-4.199149999999975,6.65142000000003]},"properties":{"id":36574,"nom":"COMMISSARIAT DE BONGOUANOU","type":"commissariat","district_region":null,"departement_commune":null,"verifie":true,"name":"COMMISSARIAT DE BONGOUANOU","source":"Géoportail ANSTAT"}},{"type":"Feature","geometry":{"type":"Point","coordinates":[-7.341319999999939,6.745794000000046]},"properties":{"id":36576,"nom":"COMMISSARIAT DE DUEKOUE","type":"commissariat","district_region":null,"departement_commune":null,"verifie":true,"name":"COMMISSARIAT DE DUEKOUE","source":"Géoportail ANSTAT"}},{"type":"Feature","geometry":{"type":"Point","coordinates":[-4.382194999999967,5.322432000000049]},"properties":{"id":36577,"nom":"COMMISSARIAT DE DABOU","type":"commissariat","district_region":null,"departement_commune":null,"verifie":true,"name":"COMMISSARIAT DE DABOU","source":"Géoportail ANSTAT"}},{"type":"Feature","geometry":{"type":"Point","coordinates":[-5.011838999999952,5.273605000000032]},"properties":{"id":36578,"nom":"COMMISSARIAT DE POLICE DE GRAND LAHOU","type":"commissariat","district_region":null,"departement_commune":null,"verifie":true,"name":"COMMISSARIAT DE POLICE DE GRAND LAHOU","source":"Géoportail ANSTAT"}},{"type":"Feature","geometry":{"type":"Point","coordinates":[-5.94288199999994,6.131860000000074]},"properties":{"id":36579,"nom":"COMMISSARIAT DE POLICE 1ARRONDISSEMENT","type":"commissariat","district_region":null,"departement_commune":null,"verifie":true,"name":"COMMISSARIAT DE POLICE 1ARRONDISSEMENT","source":"Géoportail ANSTAT"}},{"type":"Feature","geometry":{"type":"Point","coordinates":[-5.950917999999945,6.134511000000032]},"properties":{"id":36580,"nom":"COMMISSARIAT DE POLICE DU 2 ARONDISSEMENT DE GAGNOA","type":"commissariat","district_region":null,"departement_commune":null,"verifie":true,"name":"COMMISSARIAT DE POLICE DU 2 ARONDISSEMENT DE GAGNOA","source":"Géoportail ANSTAT"}},{"type":"Feature","geometry":{"type":"Point","coordinates":[-6.170004999999946,6.236923000000047]},"properties":{"id":36582,"nom":"COMMISSARIAT DE POLICE DE GAGNOA","type":"commissariat","district_region":null,"departement_commune":null,"verifie":true,"name":"COMMISSARIAT DE POLICE DE GAGNOA","source":"Géoportail ANSTAT"}},{"type":"Feature","geometry":{"type":"Point","coordinates":[-5.934524999999951,6.300862000000052]},"properties":{"id":36584,"nom":"COMMISSARIAT DE POLICE DE OURAGAHIO","type":"commissariat","district_region":null,"departement_commune":null,"verifie":true,"name":"COMMISSARIAT DE POLICE DE OURAGAHIO","source":"Géoportail ANSTAT"}},{"type":"Feature","geometry":{"type":"Point","coordinates":[-5.420378999999969,6.381073000000072]},"properties":{"id":36585,"nom":"COMMISSARIAT DE POLICE D OUME","type":"commissariat","district_region":null,"departement_commune":null,"verifie":true,"name":"COMMISSARIAT DE POLICE D OUME","source":"Géoportail ANSTAT"}},{"type":"Feature","geometry":{"type":"Point","coordinates":[-6.084862999999928,4.949245000000076]},"properties":{"id":36587,"nom":"COMMISSARIAT DE POLICE DE SASSANDRA","type":"commissariat","district_region":null,"departement_commune":null,"verifie":true,"name":"COMMISSARIAT DE POLICE DE SASSANDRA","source":"Géoportail ANSTAT"}},{"type":"Feature","geometry":{"type":"Point","coordinates":[-3.163197999999966,7.801429000000041]},"properties":{"id":36591,"nom":"COMMISSARIAT DE TANDA","type":"commissariat","district_region":null,"departement_commune":null,"verifie":true,"name":"COMMISSARIAT DE TANDA","source":"Géoportail ANSTAT"}},{"type":"Feature","geometry":{"type":"Point","coordinates":[-3.252906999999936,7.487906000000066]},"properties":{"id":36592,"nom":"COMMISSARIAT DE POLICE DE KOUN FAO","type":"commissariat","district_region":null,"departement_commune":null,"verifie":true,"name":"COMMISSARIAT DE POLICE DE KOUN FAO","source":"Géoportail ANSTAT"}},{"type":"Feature","geometry":{"type":"Point","coordinates":[-6.669366999999966,7.963215000000048]},"properties":{"id":36593,"nom":"COMMISSARIAT DE POLICE DE SEGUELA","type":"commissariat","district_region":null,"departement_commune":null,"verifie":true,"name":"COMMISSARIAT DE POLICE DE SEGUELA","source":"Géoportail ANSTAT"}},{"type":"Feature","geometry":{"type":"Point","coordinates":[-6.040536999999972,6.928315000000055]},"properties":{"id":36594,"nom":"COMMISSARIAT DE POLICE DE BONON","type":"commissariat","district_region":null,"departement_commune":null,"verifie":true,"name":"COMMISSARIAT DE POLICE DE BONON","source":"Géoportail ANSTAT"}},{"type":"Feature","geometry":{"type":"Point","coordinates":[-5.747308999999973,6.982150000000047]},"properties":{"id":36595,"nom":"COMMISSARIA DE POLICE DE BOUAFLE","type":"commissariat","district_region":null,"departement_commune":null,"verifie":true,"name":"COMMISSARIA DE POLICE DE BOUAFLE","source":"Géoportail ANSTAT"}},{"type":"Feature","geometry":{"type":"Point","coordinates":[-6.047857999999962,7.428396000000021]},"properties":{"id":36597,"nom":"COMMISSARIAT DE POLICE DE ZUENOULA","type":"commissariat","district_region":null,"departement_commune":null,"verifie":true,"name":"COMMISSARIAT DE POLICE DE ZUENOULA","source":"Géoportail ANSTAT"}},{"type":"Feature","geometry":{"type":"Point","coordinates":[-5.915986999999973,6.624885000000063]},"properties":{"id":36599,"nom":"COMMISSARIAT DE POLICE","type":"commissariat","district_region":null,"departement_commune":null,"verifie":true,"name":"COMMISSARIAT DE POLICE","source":"Géoportail ANSTAT"}},{"type":"Feature","geometry":{"type":"Point","coordinates":[-5.05509399999994,7.682795000000056]},"properties":{"id":36600,"nom":"COMMISARIAT DE POLICE DU 5EME ARRONDISSEMENT","type":"commissariat","district_region":null,"departement_commune":null,"verifie":true,"name":"COMMISARIAT DE POLICE DU 5EME ARRONDISSEMENT","source":"Géoportail ANSTAT"}},{"type":"Feature","geometry":{"type":"Point","coordinates":[-5.016301999999939,7.673066000000063]},"properties":{"id":36601,"nom":"COMMISSARIAT DE POLICE 4 ARRONDISSEMENT","type":"commissariat","district_region":null,"departement_commune":null,"verifie":true,"name":"COMMISSARIAT DE POLICE 4 ARRONDISSEMENT","source":"Géoportail ANSTAT"}},{"type":"Feature","geometry":{"type":"Point","coordinates":[-5.03760699999998,7.682839000000058]},"properties":{"id":36602,"nom":"COMMISSARIAT DE POLICE DU DEUXIEME ARRONDISSEMENT","type":"commissariat","district_region":null,"departement_commune":null,"verifie":true,"name":"COMMISSARIAT DE POLICE DU DEUXIEME ARRONDISSEMENT","source":"Géoportail ANSTAT"}},{"type":"Feature","geometry":{"type":"Point","coordinates":[-5.016572999999937,7.688218000000063]},"properties":{"id":36603,"nom":"COMMISSARIAT DU 1ER ARRONDISSEMENT DE SOKOURA","type":"commissariat","district_region":null,"departement_commune":null,"verifie":true,"name":"COMMISSARIAT DU 1ER ARRONDISSEMENT DE SOKOURA","source":"Géoportail ANSTAT"}},{"type":"Feature","geometry":{"type":"Point","coordinates":[-5.579864999999927,7.677471000000025]},"properties":{"id":36608,"nom":"COMMISSARIAT DE POLICE DE BEOUMI","type":"commissariat","district_region":null,"departement_commune":null,"verifie":true,"name":"COMMISSARIAT DE POLICE DE BEOUMI","source":"Géoportail ANSTAT"}},{"type":"Feature","geometry":{"type":"Point","coordinates":[-5.309257999999943,7.846685000000036]},"properties":{"id":36609,"nom":"COMMISSARIAT DE POLICE DE BOTRO","type":"commissariat","district_region":null,"departement_commune":null,"verifie":true,"name":"COMMISSARIAT DE POLICE DE BOTRO","source":"Géoportail ANSTAT"}},{"type":"Feature","geometry":{"type":"Point","coordinates":[-3.346044999999947,9.809926000000075]},"properties":{"id":36610,"nom":"COMMISSARIAT DE POLICE DE DOROPO","type":"commissariat","district_region":null,"departement_commune":null,"verifie":true,"name":"COMMISSARIAT DE POLICE DE DOROPO","source":"Géoportail ANSTAT"}},{"type":"Feature","geometry":{"type":"Point","coordinates":[-2.997333999999967,9.268705000000068]},"properties":{"id":36611,"nom":"COMMISSARIAT DE POLICE DE BOUNA","type":"commissariat","district_region":null,"departement_commune":null,"verifie":true,"name":"COMMISSARIAT DE POLICE DE BOUNA","source":"Géoportail ANSTAT"}},{"type":"Feature","geometry":{"type":"Point","coordinates":[-7.499131999999975,6.54676900000004]},"properties":{"id":36616,"nom":"COMMISSARIAT DE POLICE","type":"commissariat","district_region":null,"departement_commune":null,"verifie":true,"name":"COMMISSARIAT DE POLICE","source":"Géoportail ANSTAT"}},{"type":"Feature","geometry":{"type":"Point","coordinates":[-8.012404999999944,6.572667000000024]},"properties":{"id":36617,"nom":"COMMISSARIAT DE POLICE DE BLOLEQUIN","type":"commissariat","district_region":null,"departement_commune":null,"verifie":true,"name":"COMMISSARIAT DE POLICE DE BLOLEQUIN","source":"Géoportail ANSTAT"}},{"type":"Feature","geometry":{"type":"Point","coordinates":[-8.41691099999997,6.582529000000022]},"properties":{"id":36618,"nom":"COMMISSARIAT DE POLICE DE TOULEPLEU","type":"commissariat","district_region":null,"departement_commune":null,"verifie":true,"name":"COMMISSARIAT DE POLICE DE TOULEPLEU","source":"Géoportail ANSTAT"}},{"type":"Feature","geometry":{"type":"Point","coordinates":[-6.47896499999996,7.382011000000034]},"properties":{"id":36619,"nom":"COMMISSARIAT DE POLICE DE VAVOUA","type":"commissariat","district_region":null,"departement_commune":null,"verifie":true,"name":"COMMISSARIAT DE POLICE DE VAVOUA","source":"Géoportail ANSTAT"}},{"type":"Feature","geometry":{"type":"Point","coordinates":[-6.442588999999941,6.901351000000034]},"properties":{"id":36621,"nom":"COMMISSARIAT POLICE  4","type":"commissariat","district_region":null,"departement_commune":null,"verifie":true,"name":"COMMISSARIAT POLICE  4","source":"Géoportail ANSTAT"}},{"type":"Feature","geometry":{"type":"Point","coordinates":[-6.443933999999956,6.868054000000029]},"properties":{"id":36623,"nom":"COMMISSARIAT 3EME ARRONDISSEMENT DE DALOA","type":"commissariat","district_region":null,"departement_commune":null,"verifie":true,"name":"COMMISSARIAT 3EME ARRONDISSEMENT DE DALOA","source":"Géoportail ANSTAT"}},{"type":"Feature","geometry":{"type":"Point","coordinates":[-6.448183999999969,6.880627000000061]},"properties":{"id":36624,"nom":"COMMISSARIAT DE POLICE DU  1ER ARRONDISSEMENT DE DALOA","type":"commissariat","district_region":null,"departement_commune":null,"verifie":true,"name":"COMMISSARIAT DE POLICE DU  1ER ARRONDISSEMENT DE DALOA","source":"Géoportail ANSTAT"}},{"type":"Feature","geometry":{"type":"Point","coordinates":[-6.457752999999968,6.881854000000033]},"properties":{"id":36625,"nom":"COMMISSARIAT DE POLICE DU 2 ARRONDISSEMENT","type":"commissariat","district_region":null,"departement_commune":null,"verifie":true,"name":"COMMISSARIAT DE POLICE DU 2 ARRONDISSEMENT","source":"Géoportail ANSTAT"}},{"type":"Feature","geometry":{"type":"Point","coordinates":[-6.863501999999926,6.762880000000052]},"properties":{"id":36628,"nom":"COMMISSARIAT DE POLICE DE ZOUKOUGBEU","type":"commissariat","district_region":null,"departement_commune":null,"verifie":true,"name":"COMMISSARIAT DE POLICE DE ZOUKOUGBEU","source":"Géoportail ANSTAT"}},{"type":"Feature","geometry":{"type":"Point","coordinates":[-6.271356999999966,6.488178000000062]},"properties":{"id":36629,"nom":"COMMISSARIAT DE POLICE DE SAIOUA","type":"commissariat","district_region":null,"departement_commune":null,"verifie":true,"name":"COMMISSARIAT DE POLICE DE SAIOUA","source":"Géoportail ANSTAT"}},{"type":"Feature","geometry":{"type":"Point","coordinates":[-6.587202999999931,6.492099000000053]},"properties":{"id":36630,"nom":"COMMISSARIAT DE POLICE","type":"commissariat","district_region":null,"departement_commune":null,"verifie":true,"name":"COMMISSARIAT DE POLICE","source":"Géoportail ANSTAT"}},{"type":"Feature","geometry":{"type":"Point","coordinates":[-4.824538999999959,5.892904000000044]},"properties":{"id":36631,"nom":"COMMISSARIAT DE POLICE","type":"commissariat","district_region":null,"departement_commune":null,"verifie":true,"name":"COMMISSARIAT DE POLICE","source":"Géoportail ANSTAT"}},{"type":"Feature","geometry":{"type":"Point","coordinates":[-4.566461999999945,5.674787000000038]},"properties":{"id":36632,"nom":"COMMISSARIET DE POLICE","type":"commissariat","district_region":null,"departement_commune":null,"verifie":true,"name":"COMMISSARIET DE POLICE","source":"Géoportail ANSTAT"}},{"type":"Feature","geometry":{"type":"Point","coordinates":[-7.685353999999961,8.283259000000044]},"properties":{"id":36633,"nom":"COMMISSARIAT DE POLICE DE TOUBA","type":"commissariat","district_region":null,"departement_commune":null,"verifie":true,"name":"COMMISSARIAT DE POLICE DE TOUBA","source":"Géoportail ANSTAT"}},{"type":"Feature","geometry":{"type":"Point","coordinates":[-5.682589999999948,5.853731000000039]},"properties":{"id":36634,"nom":"COMMISARIAT DE POLICE DE LAKOTA","type":"commissariat","district_region":null,"departement_commune":null,"verifie":true,"name":"COMMISARIAT DE POLICE DE LAKOTA","source":"Géoportail ANSTAT"}},{"type":"Feature","geometry":{"type":"Point","coordinates":[-5.675538999999958,5.875868000000025]},"properties":{"id":36635,"nom":"COMMISSARIAT DE POLICE","type":"commissariat","district_region":null,"departement_commune":null,"verifie":true,"name":"COMMISSARIAT DE POLICE","source":"Géoportail ANSTAT"}},{"type":"Feature","geometry":{"type":"Point","coordinates":[-5.299087999999927,6.184637000000066]},"properties":{"id":36636,"nom":"COMMISSARIAT DE POLICE DE HIRE","type":"commissariat","district_region":null,"departement_commune":null,"verifie":true,"name":"COMMISSARIAT DE POLICE DE HIRE","source":"Géoportail ANSTAT"}},{"type":"Feature","geometry":{"type":"Point","coordinates":[-5.359789999999975,5.822622000000024]},"properties":{"id":36637,"nom":"COMMISSARIAT DU 2EME  ARRONDISSEMENT DE DIVO","type":"commissariat","district_region":null,"departement_commune":null,"verifie":true,"name":"COMMISSARIAT DU 2EME  ARRONDISSEMENT DE DIVO","source":"Géoportail ANSTAT"}},{"type":"Feature","geometry":{"type":"Point","coordinates":[-6.412046999999973,9.890375000000065]},"properties":{"id":36638,"nom":"COMMISSARIAT DE POLICE","type":"commissariat","district_region":null,"departement_commune":null,"verifie":true,"name":"COMMISSARIAT DE POLICE","source":"Géoportail ANSTAT"}},{"type":"Feature","geometry":{"type":"Point","coordinates":[-6.407724999999971,10.48145300000004]},"properties":{"id":36639,"nom":"COMMISSARIAT DE POLICE DE  TENGRELA","type":"commissariat","district_region":null,"departement_commune":null,"verifie":true,"name":"COMMISSARIAT DE POLICE DE  TENGRELA","source":"Géoportail ANSTAT"}},{"type":"Feature","geometry":{"type":"Point","coordinates":[-6.187233999999933,8.055432000000053]},"properties":{"id":36640,"nom":"COMMISSARIAT DE POLICE DE MANKONO","type":"commissariat","district_region":null,"departement_commune":null,"verifie":true,"name":"COMMISSARIAT DE POLICE DE MANKONO","source":"Géoportail ANSTAT"}},{"type":"Feature","geometry":{"type":"Point","coordinates":[-7.835389999999961,10.00218500000005]},"properties":{"id":36641,"nom":"COMMISSARIAT DE POLICE MIXTE DE MINIGNAN","type":"commissariat","district_region":null,"departement_commune":null,"verifie":true,"name":"COMMISSARIAT DE POLICE MIXTE DE MINIGNAN","source":"Géoportail ANSTAT"}},{"type":"Feature","geometry":{"type":"Point","coordinates":[-3.265839999999969,6.657886000000076]},"properties":{"id":36643,"nom":"COMMISSARIAT MIXTE DE POLICE","type":"commissariat","district_region":null,"departement_commune":null,"verifie":true,"name":"COMMISSARIAT MIXTE DE POLICE","source":"Géoportail ANSTAT"}},{"type":"Feature","geometry":{"type":"Point","coordinates":[-3.486683999999968,6.731007000000034]},"properties":{"id":36644,"nom":"COMMISSARIAT DE POLICE 1ER ARRONDISSEMENT","type":"commissariat","district_region":null,"departement_commune":null,"verifie":true,"name":"COMMISSARIAT DE POLICE 1ER ARRONDISSEMENT","source":"Géoportail ANSTAT"}},{"type":"Feature","geometry":{"type":"Point","coordinates":[-3.504683999999941,6.727515000000039]},"properties":{"id":36645,"nom":"COMMISSARIAT DEPOLICE DEUXIEME ARRONDISSEMENT","type":"commissariat","district_region":null,"departement_commune":null,"verifie":true,"name":"COMMISSARIAT DEPOLICE DEUXIEME ARRONDISSEMENT","source":"Géoportail ANSTAT"}},{"type":"Feature","geometry":{"type":"Point","coordinates":[-3.201737999999978,7.131069000000025]},"properties":{"id":36649,"nom":"COMMISSARIAT DE POLICE DAGNIBILEKRO","type":"commissariat","district_region":null,"departement_commune":null,"verifie":true,"name":"COMMISSARIAT DE POLICE DAGNIBILEKRO","source":"Géoportail ANSTAT"}},{"type":"Feature","geometry":{"type":"Point","coordinates":[-7.563343999999972,9.501754000000062]},"properties":{"id":36650,"nom":"COMMISSARIAT DE POLICE D ODIENNE","type":"commissariat","district_region":null,"departement_commune":null,"verifie":true,"name":"COMMISSARIAT DE POLICE D ODIENNE","source":"Géoportail ANSTAT"}},{"type":"Feature","geometry":{"type":"Point","coordinates":[-8.124123999999938,9.582460000000026]},"properties":{"id":36651,"nom":"COMMISSARIAT DE POLICE DE GBELEBAN","type":"commissariat","district_region":null,"departement_commune":null,"verifie":true,"name":"COMMISSARIAT DE POLICE DE GBELEBAN","source":"Géoportail ANSTAT"}},{"type":"Feature","geometry":{"type":"Point","coordinates":[-3.862873999999977,6.10561000000007]},"properties":{"id":36652,"nom":"COMMISSARIAT DE POLICE ADZOPE","type":"commissariat","district_region":null,"departement_commune":null,"verifie":true,"name":"COMMISSARIAT DE POLICE ADZOPE","source":"Géoportail ANSTAT"}},{"type":"Feature","geometry":{"type":"Point","coordinates":[-3.949285999999972,6.322974000000045]},"properties":{"id":36655,"nom":"COMMISSARIAT DE POLICE DE AFFERY","type":"commissariat","district_region":null,"departement_commune":null,"verifie":true,"name":"COMMISSARIAT DE POLICE DE AFFERY","source":"Géoportail ANSTAT"}},{"type":"Feature","geometry":{"type":"Point","coordinates":[-3.886340999999959,6.380152000000066]},"properties":{"id":36656,"nom":"COMMISSARIAT DE POLICE AKOUPE","type":"commissariat","district_region":null,"departement_commune":null,"verifie":true,"name":"COMMISSARIAT DE POLICE AKOUPE","source":"Géoportail ANSTAT"}},{"type":"Feature","geometry":{"type":"Point","coordinates":[-3.599047999999925,5.273574000000053]},"properties":{"id":36657,"nom":"COMMISSARIAT DE POLICE DE BONOUA","type":"commissariat","district_region":null,"departement_commune":null,"verifie":true,"name":"COMMISSARIAT DE POLICE DE BONOUA","source":"Géoportail ANSTAT"}},{"type":"Feature","geometry":{"type":"Point","coordinates":[-3.737627999999972,5.20755500000007]},"properties":{"id":36658,"nom":"COMMISSARIAT DE POLICE","type":"commissariat","district_region":null,"departement_commune":null,"verifie":true,"name":"COMMISSARIAT DE POLICE","source":"Géoportail ANSTAT"}},{"type":"Feature","geometry":{"type":"Point","coordinates":[-3.290549999999939,5.135005000000035]},"properties":{"id":36659,"nom":"COMMISSARIAT DE POLICE MIXTE  D ASSINIE  MAFIA","type":"commissariat","district_region":null,"departement_commune":null,"verifie":true,"name":"COMMISSARIAT DE POLICE MIXTE  D ASSINIE  MAFIA","source":"Géoportail ANSTAT"}},{"type":"Feature","geometry":{"type":"Point","coordinates":[-2.787608999999975,5.289971000000037]},"properties":{"id":36660,"nom":"COMISSARIAT DE MIXTE DE NOE","type":"commissariat","district_region":null,"departement_commune":null,"verifie":true,"name":"COMISSARIAT DE MIXTE DE NOE","source":"Géoportail ANSTAT"}},{"type":"Feature","geometry":{"type":"Point","coordinates":[-3.303395999999964,5.277436000000023]},"properties":{"id":36661,"nom":"COMMISSARIAT DE POLICE D ADIAKE","type":"commissariat","district_region":null,"departement_commune":null,"verifie":true,"name":"COMMISSARIAT DE POLICE D ADIAKE","source":"Géoportail ANSTAT"}},{"type":"Feature","geometry":{"type":"Point","coordinates":[-3.022183999999925,5.13631300000003]},"properties":{"id":36662,"nom":"COMMISSARIAT  DE POLICE MIXTE DE TIAPOUM","type":"commissariat","district_region":null,"departement_commune":null,"verifie":true,"name":"COMMISSARIAT  DE POLICE MIXTE DE TIAPOUM","source":"Géoportail ANSTAT"}},{"type":"Feature","geometry":{"type":"Point","coordinates":[-3.030550999999946,5.411597000000029]},"properties":{"id":36664,"nom":"COMMISSARIAT DE MAFERE","type":"commissariat","district_region":null,"departement_commune":null,"verifie":true,"name":"COMMISSARIAT DE MAFERE","source":"Géoportail ANSTAT"}},{"type":"Feature","geometry":{"type":"Point","coordinates":[-5.096021999999948,8.142093000000045]},"properties":{"id":36666,"nom":"COMMISSARIAT DE KATIOLA","type":"commissariat","district_region":null,"departement_commune":null,"verifie":true,"name":"COMMISSARIAT DE KATIOLA","source":"Géoportail ANSTAT"}},{"type":"Feature","geometry":{"type":"Point","coordinates":[-7.556180999999981,7.416124000000025]},"properties":{"id":36668,"nom":"COMMISSARIAT DE POLICE DU 2EME ARRONDISSEMENT DE MAN","type":"commissariat","district_region":null,"departement_commune":null,"verifie":true,"name":"COMMISSARIAT DE POLICE DU 2EME ARRONDISSEMENT DE MAN","source":"Géoportail ANSTAT"}},{"type":"Feature","geometry":{"type":"Point","coordinates":[-8.154859999999928,7.262507000000028]},"properties":{"id":36669,"nom":"COMMISSARIAT DE POLICE URBAINE ET FRONTIERE DE DANANE","type":"commissariat","district_region":null,"departement_commune":null,"verifie":true,"name":"COMMISSARIAT DE POLICE URBAINE ET FRONTIERE DE DANANE","source":"Géoportail ANSTAT"}},{"type":"Feature","geometry":{"type":"Point","coordinates":[-8.20790299999993,6.929104000000052]},"properties":{"id":36670,"nom":"COMMISSARIAT DE POLICE","type":"commissariat","district_region":null,"departement_commune":null,"verifie":true,"name":"COMMISSARIAT DE POLICE","source":"Géoportail ANSTAT"}},{"type":"Feature","geometry":{"type":"Point","coordinates":[-3.976877999999942,7.054618000000062]},"properties":{"id":36671,"nom":"COMMISSARIAT DE POLICE DE DAOUKRO","type":"commissariat","district_region":null,"departement_commune":null,"verifie":true,"name":"COMMISSARIAT DE POLICE DE DAOUKRO","source":"Géoportail ANSTAT"}},{"type":"Feature","geometry":{"type":"Point","coordinates":[-5.141876999999965,9.96345800000006]},"properties":{"id":36897,"nom":"DOUANES SITARAIL","type":"commissariat","district_region":null,"departement_commune":null,"verifie":true,"name":"DOUANES SITARAIL","source":"Géoportail ANSTAT"}},{"type":"Feature","geometry":{"type":"Point","coordinates":[-5.274919999999952,6.803844000000026]},"properties":{"id":37419,"nom":"COMMISSARIAT DE POLICE DU 2EME ARRONDISSEMENT","type":"commissariat","district_region":null,"departement_commune":null,"verifie":true,"name":"COMMISSARIAT DE POLICE DU 2EME ARRONDISSEMENT","source":"Géoportail ANSTAT"}},{"type":"Feature","geometry":{"type":"Point","coordinates":[-5.141676999999959,9.963836000000072]},"properties":{"id":38319,"nom":"POLICE SITARAIL","type":"commissariat","district_region":null,"departement_commune":null,"verifie":true,"name":"POLICE SITARAIL","source":"Géoportail ANSTAT"}},{"type":"Feature","geometry":{"type":"Point","coordinates":[-6.999960999999928,6.252468000000022]},"properties":{"id":38337,"nom":"POLICE MUNICIPALE","type":"commissariat","district_region":null,"departement_commune":null,"verifie":true,"name":"POLICE MUNICIPALE","source":"Géoportail ANSTAT"}},{"type":"Feature","geometry":{"type":"Point","coordinates":[-6.08152199999995,4.95710500000007]},"properties":{"id":38346,"nom":"POLICE MARITIME","type":"commissariat","district_region":null,"departement_commune":null,"verifie":true,"name":"POLICE MARITIME","source":"Géoportail ANSTAT"}},{"type":"Feature","geometry":{"type":"Point","coordinates":[-5.584829999999954,5.097267000000045]},"properties":{"id":38354,"nom":"POLICE PECHE","type":"commissariat","district_region":null,"departement_commune":null,"verifie":true,"name":"POLICE PECHE","source":"Géoportail ANSTAT"}},{"type":"Feature","geometry":{"type":"Point","coordinates":[-5.03088699999995,7.677711000000045]},"properties":{"id":38360,"nom":"POLICE MUNICIPALE","type":"commissariat","district_region":null,"departement_commune":null,"verifie":true,"name":"POLICE MUNICIPALE","source":"Géoportail ANSTAT"}},{"type":"Feature","geometry":{"type":"Point","coordinates":[-3.553273999999931,5.173576000000025]},"properties":{"id":38379,"nom":"POLICE MARITIME","type":"commissariat","district_region":null,"departement_commune":null,"verifie":true,"name":"POLICE MARITIME","source":"Géoportail ANSTAT"}},{"type":"Feature","geometry":{"type":"Point","coordinates":[-5.279743999999937,6.82176000000004]},"properties":{"id":38387,"nom":"COMMIASARIAT DE POLICE DE 1ER ARRONDISEMENT","type":"commissariat","district_region":null,"departement_commune":null,"verifie":true,"name":"COMMIASARIAT DE POLICE DE 1ER ARRONDISEMENT","source":"Géoportail ANSTAT"}},{"type":"Feature","geometry":{"type":"Point","coordinates":[-4.029232999999977,5.438168000000076]},"properties":{"id":39279,"nom":"32 EME ARRONDISSEMENT  ABOBO AVOCATIER","type":"commissariat","district_region":null,"departement_commune":null,"verifie":true,"name":"32 EME ARRONDISSEMENT  ABOBO AVOCATIER","source":"Géoportail ANSTAT"}},{"type":"Feature","geometry":{"type":"Point","coordinates":[-4.014598999999976,5.423084000000074]},"properties":{"id":39288,"nom":"14EME ARRONDISSEMENT D ABOBO","type":"commissariat","district_region":null,"departement_commune":null,"verifie":true,"name":"14EME ARRONDISSEMENT D ABOBO","source":"Géoportail ANSTAT"}},{"type":"Feature","geometry":{"type":"Point","coordinates":[-3.991282999999953,5.398548000000062]},"properties":{"id":39319,"nom":"22 ARRONDISSEMENT","type":"commissariat","district_region":null,"departement_commune":null,"verifie":true,"name":"22 ARRONDISSEMENT","source":"Géoportail ANSTAT"}},{"type":"Feature","geometry":{"type":"Point","coordinates":[-4.000977999999975,5.335255000000075]},"properties":{"id":39388,"nom":"8EME ARRONDISSEMENT","type":"commissariat","district_region":null,"departement_commune":null,"verifie":true,"name":"8EME ARRONDISSEMENT","source":"Géoportail ANSTAT"}},{"type":"Feature","geometry":{"type":"Point","coordinates":[-3.959730999999977,5.357835000000023]},"properties":{"id":39425,"nom":"18EME ARRONDISSEMENT","type":"commissariat","district_region":null,"departement_commune":null,"verifie":true,"name":"18EME ARRONDISSEMENT","source":"Géoportail ANSTAT"}},{"type":"Feature","geometry":{"type":"Point","coordinates":[-4.099306999999953,5.321924000000024]},"properties":{"id":39435,"nom":"17 EME ARRONDICEMENT","type":"commissariat","district_region":null,"departement_commune":null,"verifie":true,"name":"17 EME ARRONDICEMENT","source":"Géoportail ANSTAT"}},{"type":"Feature","geometry":{"type":"Point","coordinates":[-4.073004999999966,5.338025000000073]},"properties":{"id":39439,"nom":"16EME ARRONDISSEMENT","type":"commissariat","district_region":null,"departement_commune":null,"verifie":true,"name":"16EME ARRONDISSEMENT","source":"Géoportail ANSTAT"}},{"type":"Feature","geometry":{"type":"Point","coordinates":[-3.985671999999965,5.306072000000029]},"properties":{"id":39591,"nom":"9EME ARRRONDISSEMENT","type":"commissariat","district_region":null,"departement_commune":null,"verifie":true,"name":"9EME ARRRONDISSEMENT","source":"Géoportail ANSTAT"}},{"type":"Feature","geometry":{"type":"Point","coordinates":[-3.99568499999998,5.297701000000075]},"properties":{"id":39602,"nom":"4 EME ARRONDISSEMENT","type":"commissariat","district_region":null,"departement_commune":null,"verifie":true,"name":"4 EME ARRONDISSEMENT","source":"Géoportail ANSTAT"}},{"type":"Feature","geometry":{"type":"Point","coordinates":[-4.005282999999963,5.311618000000067]},"properties":{"id":39617,"nom":"29E ARRONDISSEMENT","type":"commissariat","district_region":null,"departement_commune":null,"verifie":true,"name":"29E ARRONDISSEMENT","source":"Géoportail ANSTAT"}},{"type":"Feature","geometry":{"type":"Point","coordinates":[-4.014988999999957,5.30613500000004]},"properties":{"id":39623,"nom":"2EME ARRONDISSEMENT","type":"commissariat","district_region":null,"departement_commune":null,"verifie":true,"name":"2EME ARRONDISSEMENT","source":"Géoportail ANSTAT"}},{"type":"Feature","geometry":{"type":"Point","coordinates":[-4.043868999999972,5.310563000000059]},"properties":{"id":39626,"nom":"37EME ARRONDISSEMENT","type":"commissariat","district_region":null,"departement_commune":null,"verifie":true,"name":"37EME ARRONDISSEMENT","source":"Géoportail ANSTAT"}},{"type":"Feature","geometry":{"type":"Point","coordinates":[-4.045783999999969,5.34087100000005]},"properties":{"id":39627,"nom":"28EME ARRONDISSEMENT","type":"commissariat","district_region":null,"departement_commune":null,"verifie":true,"name":"28EME ARRONDISSEMENT","source":"Géoportail ANSTAT"}},{"type":"Feature","geometry":{"type":"Point","coordinates":[-3.963326999999936,5.377500000000055]},"properties":{"id":39668,"nom":"COMMISSARIAT DE POLICE DU 35 ARRONDISSEMENT","type":"commissariat","district_region":null,"departement_commune":null,"verifie":true,"name":"COMMISSARIAT DE POLICE DU 35 ARRONDISSEMENT","source":"Géoportail ANSTAT"}},{"type":"Feature","geometry":{"type":"Point","coordinates":[-4.01279999999997,5.432681000000059]},"properties":{"id":39669,"nom":"COMMISSARIAT DE POLICE DU 15 EME ARRONDISSEMENT D ABOBO","type":"commissariat","district_region":null,"departement_commune":null,"verifie":true,"name":"COMMISSARIAT DE POLICE DU 15 EME ARRONDISSEMENT D ABOBO","source":"Géoportail ANSTAT"}},{"type":"Feature","geometry":{"type":"Point","coordinates":[-4.053175999999951,5.505782000000067]},"properties":{"id":39670,"nom":"COMMISSARIAT ANYAMA","type":"commissariat","district_region":null,"departement_commune":null,"verifie":true,"name":"COMMISSARIAT ANYAMA","source":"Géoportail ANSTAT"}},{"type":"Feature","geometry":{"type":"Point","coordinates":[-4.077358999999944,5.443431000000032]},"properties":{"id":39674,"nom":"COMMISSARIAT","type":"commissariat","district_region":null,"departement_commune":null,"verifie":true,"name":"COMMISSARIAT","source":"Géoportail ANSTAT"}},{"type":"Feature","geometry":{"type":"Point","coordinates":[-4.045407999999952,5.431725000000029]},"properties":{"id":39675,"nom":"COMMISSARIAT DE ANONKOI","type":"commissariat","district_region":null,"departement_commune":null,"verifie":true,"name":"COMMISSARIAT DE ANONKOI","source":"Géoportail ANSTAT"}},{"type":"Feature","geometry":{"type":"Point","coordinates":[-4.023832999999968,5.419906000000026]},"properties":{"id":39676,"nom":"COMMISSARIAT  DU 21E ARRONDISSEMENT","type":"commissariat","district_region":null,"departement_commune":null,"verifie":true,"name":"COMMISSARIAT  DU 21E ARRONDISSEMENT","source":"Géoportail ANSTAT"}},{"type":"Feature","geometry":{"type":"Point","coordinates":[-4.014739999999961,5.436258000000066]},"properties":{"id":39678,"nom":"COMMISSARIAT DE POLICE DU  13 EME ARRONDISSEMENT ABOBO","type":"commissariat","district_region":null,"departement_commune":null,"verifie":true,"name":"COMMISSARIAT DE POLICE DU  13 EME ARRONDISSEMENT ABOBO","source":"Géoportail ANSTAT"}},{"type":"Feature","geometry":{"type":"Point","coordinates":[-3.990553999999975,5.42047400000007]},"properties":{"id":39679,"nom":"COMMISSARIAT DE POLICE 34 EME ARRONDISSEMENTDABOBO BAOULE","type":"commissariat","district_region":null,"departement_commune":null,"verifie":true,"name":"COMMISSARIAT DE POLICE 34 EME ARRONDISSEMENTDABOBO BAOULE","source":"Géoportail ANSTAT"}},{"type":"Feature","geometry":{"type":"Point","coordinates":[-3.984645999999941,5.373700000000042]},"properties":{"id":39701,"nom":"COMMISSARIAT DE POLICE DU 30 ARRONDISSEMENT","type":"commissariat","district_region":null,"departement_commune":null,"verifie":true,"name":"COMMISSARIAT DE POLICE DU 30 ARRONDISSEMENT","source":"Géoportail ANSTAT"}},{"type":"Feature","geometry":{"type":"Point","coordinates":[-4.003292999999928,5.362643000000048]},"properties":{"id":39704,"nom":"COMMISSAIRIAT DU HAJ","type":"commissariat","district_region":null,"departement_commune":null,"verifie":true,"name":"COMMISSAIRIAT DU HAJ","source":"Géoportail ANSTAT"}},{"type":"Feature","geometry":{"type":"Point","coordinates":[-3.889308999999969,5.358190000000036]},"properties":{"id":39731,"nom":"COMMISSARIAT DE POLICE DE BINGERVILLE","type":"commissariat","district_region":null,"departement_commune":null,"verifie":true,"name":"COMMISSARIAT DE POLICE DE BINGERVILLE","source":"Géoportail ANSTAT"}},{"type":"Feature","geometry":{"type":"Point","coordinates":[-4.07207399999993,5.361048000000039]},"properties":{"id":39732,"nom":"COMMISSARIAT DU 23 ARRONDISSEMENT DE YOPOUGON","type":"commissariat","district_region":null,"departement_commune":null,"verifie":true,"name":"COMMISSARIAT DU 23 ARRONDISSEMENT DE YOPOUGON","source":"Géoportail ANSTAT"}},{"type":"Feature","geometry":{"type":"Point","coordinates":[-4.05068499999993,5.327177000000063]},"properties":{"id":39741,"nom":"COMMISSARIAT DU 19 EME ARRONDISSEMENT","type":"commissariat","district_region":null,"departement_commune":null,"verifie":true,"name":"COMMISSARIAT DU 19 EME ARRONDISSEMENT","source":"Géoportail ANSTAT"}},{"type":"Feature","geometry":{"type":"Point","coordinates":[-4.026917999999966,5.361774000000025]},"properties":{"id":39757,"nom":"COMMISSARIAT DE POLICE 27E ARRONDISSEMENT","type":"commissariat","district_region":null,"departement_commune":null,"verifie":true,"name":"COMMISSARIAT DE POLICE 27E ARRONDISSEMENT","source":"Géoportail ANSTAT"}},{"type":"Feature","geometry":{"type":"Point","coordinates":[-4.025425999999925,5.346410000000049]},"properties":{"id":39763,"nom":"COMMISSARIAT DU 3EME ARRONDISSEMENT ADJAME","type":"commissariat","district_region":null,"departement_commune":null,"verifie":true,"name":"COMMISSARIAT DU 3EME ARRONDISSEMENT ADJAME","source":"Géoportail ANSTAT"}},{"type":"Feature","geometry":{"type":"Point","coordinates":[-4.016801999999927,5.349008000000026]},"properties":{"id":39767,"nom":"COMMISSARIAT 7IEME ARRONDISSEMENT DADJAME","type":"commissariat","district_region":null,"departement_commune":null,"verifie":true,"name":"COMMISSARIAT 7IEME ARRONDISSEMENT DADJAME","source":"Géoportail ANSTAT"}},{"type":"Feature","geometry":{"type":"Point","coordinates":[-4.022661999999968,5.367771000000062]},"properties":{"id":39771,"nom":"COMISSARIAT DU ONZIEME ARRONDISSEMENT","type":"commissariat","district_region":null,"departement_commune":null,"verifie":true,"name":"COMISSARIAT DU ONZIEME ARRONDISSEMENT","source":"Géoportail ANSTAT"}},{"type":"Feature","geometry":{"type":"Point","coordinates":[-4.019483999999977,5.32608300000004]},"properties":{"id":39784,"nom":"COMMISSARIAT DU PREMIER ARRONDISSEMENT","type":"commissariat","district_region":null,"departement_commune":null,"verifie":true,"name":"COMMISSARIAT DU PREMIER ARRONDISSEMENT","source":"Géoportail ANSTAT"}},{"type":"Feature","geometry":{"type":"Point","coordinates":[-3.998328999999956,5.31411300000002]},"properties":{"id":39795,"nom":"COMMISSARIAT SPECIAL","type":"commissariat","district_region":null,"departement_commune":null,"verifie":true,"name":"COMMISSARIAT SPECIAL","source":"Géoportail ANSTAT"}},{"type":"Feature","geometry":{"type":"Point","coordinates":[-3.984348999999952,5.28286600000007]},"properties":{"id":39799,"nom":"COMMISSARIAT DE POLICE DU 31EME ARRONDISSEMENT","type":"commissariat","district_region":null,"departement_commune":null,"verifie":true,"name":"COMMISSARIAT DE POLICE DU 31EME ARRONDISSEMENT","source":"Géoportail ANSTAT"}},{"type":"Feature","geometry":{"type":"Point","coordinates":[-3.963871999999981,5.306561000000045]},"properties":{"id":39806,"nom":"COMMISSARIAT DE POLICE 26 ARRONDISSEMENT","type":"commissariat","district_region":null,"departement_commune":null,"verifie":true,"name":"COMMISSARIAT DE POLICE 26 ARRONDISSEMENT","source":"Géoportail ANSTAT"}},{"type":"Feature","geometry":{"type":"Point","coordinates":[-4.02309299999996,5.303841000000034]},"properties":{"id":39813,"nom":"COMMISARIAT DE POLICE SPECIALE DU PORT AUTONOME ABIDJAN","type":"commissariat","district_region":null,"departement_commune":null,"verifie":true,"name":"COMMISARIAT DE POLICE SPECIALE DU PORT AUTONOME ABIDJAN","source":"Géoportail ANSTAT"}},{"type":"Feature","geometry":{"type":"Point","coordinates":[-4.034463999999957,5.347270000000037]},"properties":{"id":39833,"nom":"COMMISSARIAT DE POLICE 10E ARRONDISSEMENT D ATTECOUBE","type":"commissariat","district_region":null,"departement_commune":null,"verifie":true,"name":"COMMISSARIAT DE POLICE 10E ARRONDISSEMENT D ATTECOUBE","source":"Géoportail ANSTAT"}},{"type":"Feature","geometry":{"type":"Point","coordinates":[-3.943242999999939,5.305361000000062]},"properties":{"id":39839,"nom":"COMMUSSARIAT DE POLICE DU 20E ARRONDISSEMENT DE KOUMASSI","type":"commissariat","district_region":null,"departement_commune":null,"verifie":true,"name":"COMMUSSARIAT DE POLICE DU 20E ARRONDISSEMENT DE KOUMASSI","source":"Géoportail ANSTAT"}},{"type":"Feature","geometry":{"type":"Point","coordinates":[-3.96449599999994,5.258224000000041]},"properties":{"id":39847,"nom":"COMMISSARIAT DE POLICE DU 5 ARRONDISSEMENT DE PORT BOUET","type":"commissariat","district_region":null,"departement_commune":null,"verifie":true,"name":"COMMISSARIAT DE POLICE DU 5 ARRONDISSEMENT DE PORT BOUET","source":"Géoportail ANSTAT"}},{"type":"Feature","geometry":{"type":"Point","coordinates":[-3.943892999999946,5.247231000000056]},"properties":{"id":39852,"nom":"COMMISSARIAT DE POLICE DU 33EME ARRONDISSEMENT","type":"commissariat","district_region":null,"departement_commune":null,"verifie":true,"name":"COMMISSARIAT DE POLICE DU 33EME ARRONDISSEMENT","source":"Géoportail ANSTAT"}},{"type":"Feature","geometry":{"type":"Point","coordinates":[-3.896519999999953,5.239994000000024]},"properties":{"id":39854,"nom":"COMMISSARIAT  DE POLICE DU 24 EME ARRONDISSEMENT","type":"commissariat","district_region":null,"departement_commune":null,"verifie":true,"name":"COMMISSARIAT  DE POLICE DU 24 EME ARRONDISSEMENT","source":"Géoportail ANSTAT"}},{"type":"Feature","geometry":{"type":"Point","coordinates":[-3.993127999999956,5.373847000000069]},"properties":{"id":39872,"nom":"DOUZIEME ARRONDISSEMENT DEUX PLATEAUX","type":"commissariat","district_region":null,"departement_commune":null,"verifie":true,"name":"DOUZIEME ARRONDISSEMENT DEUX PLATEAUX","source":"Géoportail ANSTAT"}},{"type":"Feature","geometry":{"type":"Point","coordinates":[-4.003780999999947,5.328943000000038]},"properties":{"id":40428,"nom":"POLICE SCIENTIFIQUE","type":"commissariat","district_region":null,"departement_commune":null,"verifie":true,"name":"POLICE SCIENTIFIQUE","source":"Géoportail ANSTAT"}},{"type":"Feature","geometry":{"type":"Point","coordinates":[-4.007067999999947,5.344934000000023]},"properties":{"id":40437,"nom":"POLICE SCIENTIPHIQUE","type":"commissariat","district_region":null,"departement_commune":null,"verifie":true,"name":"POLICE SCIENTIPHIQUE","source":"Géoportail ANSTAT"}},{"type":"Feature","geometry":{"type":"Point","coordinates":[-4.023291999999969,5.323080000000061]},"properties":{"id":40529,"nom":"POLICE MUNICIPALE","type":"commissariat","district_region":null,"departement_commune":null,"verifie":true,"name":"POLICE MUNICIPALE","source":"Géoportail ANSTAT"}},{"type":"Feature","geometry":{"type":"Point","coordinates":[-3.964067999999941,5.253284000000065]},"properties":{"id":40582,"nom":"POLICE MUNICIPALE","type":"commissariat","district_region":null,"departement_commune":null,"verifie":true,"name":"POLICE MUNICIPALE","source":"Géoportail ANSTAT"}}],"metadata":{"dataset":"Commissariat — ANSTAT","source":"Géoportail ANSTAT","theme":"Sécurité","verified":true,"apercu":"complet"}}