{"type":"FeatureCollection","features":[{"type":"Feature","geometry":{"type":"Point","coordinates":[-7.499137999999959,6.548400000000072]},"properties":{"id":36892,"nom":"DIRECTION GENERALE DU BULGET ET DES FINANCES DE SEA YORO2","type":"dir genreal finance","district_region":null,"departement_commune":null,"verifie":true,"name":"DIRECTION GENERALE DU BULGET ET DES FINANCES DE SEA YORO2","source":"Géoportail ANSTAT"}},{"type":"Feature","geometry":{"type":"Point","coordinates":[-3.294542999999976,5.290619000000049]},"properties":{"id":36894,"nom":"DIRECTION GENERALE DU BUDGET ET DES FINANCES D ADIAKE","type":"dir genreal finance","district_region":null,"departement_commune":null,"verifie":true,"name":"DIRECTION GENERALE DU BUDGET ET DES FINANCES D ADIAKE","source":"Géoportail ANSTAT"}},{"type":"Feature","geometry":{"type":"Point","coordinates":[-6.434308999999928,6.891935000000046]},"properties":{"id":37736,"nom":"MINISTERE DE LECONOMIE ET DES FINANCES DIRECTION GENERALE DES IMPOTS RECETTE PRINCIPALE DES IMPOTS DE DALOA","type":"dir genreal finance","district_region":null,"departement_commune":null,"verifie":true,"name":"MINISTERE DE LECONOMIE ET DES FINANCES DIRECTION GENERALE DES IMPOTS RECETTE PRINCIPALE DES IMPOTS DE DALOA","source":"Géoportail ANSTAT"}},{"type":"Feature","geometry":{"type":"Point","coordinates":[-3.991917999999941,5.361406000000045]},"properties":{"id":39889,"nom":"DIRECTION GENERALE DU BUDGET ET DES FINANCES","type":"dir genreal finance","district_region":null,"departement_commune":null,"verifie":true,"name":"DIRECTION GENERALE DU BUDGET ET DES FINANCES","source":"Géoportail ANSTAT"}}],"metadata":{"dataset":"Dir genreal finance — ANSTAT","source":"Géoportail ANSTAT","theme":"Finance","verified":true,"apercu":"complet"}}