{"type":"FeatureCollection","features":[{"type":"Feature","geometry":{"type":"Point","coordinates":[-3.200248999999928,7.137566000000049]},"properties":{"id":36878,"nom":"DIRECTION TERRITORIALE DES INFRASTRUCTURE ROUTIER","type":"dir depart transport","district_region":null,"departement_commune":null,"verifie":true,"name":"DIRECTION TERRITORIALE DES INFRASTRUCTURE ROUTIER","source":"Géoportail ANSTAT"}},{"type":"Feature","geometry":{"type":"Point","coordinates":[-6.410394999999937,10.49616200000003]},"properties":{"id":37436,"nom":"INFRASTRUCTURES ROUTIERES","type":"dir depart transport","district_region":null,"departement_commune":null,"verifie":true,"name":"INFRASTRUCTURES ROUTIERES","source":"Géoportail ANSTAT"}},{"type":"Feature","geometry":{"type":"Point","coordinates":[-5.283946999999955,7.442435000000046]},"properties":{"id":37680,"nom":"MINISTERE DE LA EQUIPEMENT ET DE L ENTRETIEN ROUTIER SAKASSOU","type":"dir depart transport","district_region":null,"departement_commune":null,"verifie":true,"name":"MINISTERE DE LA EQUIPEMENT ET DE L ENTRETIEN ROUTIER SAKASSOU","source":"Géoportail ANSTAT"}}],"metadata":{"dataset":"Dir depart transport — ANSTAT","source":"Géoportail ANSTAT","theme":"Transport & mobilité","verified":true,"apercu":"complet"}}