{"type":"FeatureCollection","features":[{"type":"Feature","geometry":{"type":"Point","coordinates":[-5.936418,6.125659]},"properties":{"id":36581,"nom":"COMPAGNIE REPUBLICAINE DE SECURITE CRS 4","type":"bureau securite","district_region":null,"departement_commune":null,"verifie":true,"name":"COMPAGNIE REPUBLICAINE DE SECURITE CRS 4","source":"Géoportail ANSTAT"}},{"type":"Feature","geometry":{"type":"Point","coordinates":[-7.495181,4.920256]},"properties":{"id":36293,"nom":"BUREAU DES DOUANES DE GRABO","type":"bureau securite","district_region":null,"departement_commune":null,"verifie":true,"name":"BUREAU DES DOUANES DE GRABO","source":"Géoportail ANSTAT"}},{"type":"Feature","geometry":{"type":"Point","coordinates":[-7.835207,6.548125]},"properties":{"id":36348,"nom":"BUREAU EAUX FORET ZEAGLO","type":"bureau securite","district_region":null,"departement_commune":null,"verifie":true,"name":"BUREAU EAUX FORET ZEAGLO","source":"Géoportail ANSTAT"}},{"type":"Feature","geometry":{"type":"Point","coordinates":[-4.574514,5.672268]},"properties":{"id":36354,"nom":"BUREAU FORESTIER DE SIKENSI","type":"bureau securite","district_region":null,"departement_commune":null,"verifie":true,"name":"BUREAU FORESTIER DE SIKENSI","source":"Géoportail ANSTAT"}},{"type":"Feature","geometry":{"type":"Point","coordinates":[-7.837082,10.004441]},"properties":{"id":36366,"nom":"BUREAU DES DOUANES DE MINIGNAN","type":"bureau securite","district_region":null,"departement_commune":null,"verifie":true,"name":"BUREAU DES DOUANES DE MINIGNAN","source":"Géoportail ANSTAT"}},{"type":"Feature","geometry":{"type":"Point","coordinates":[-7.835849,9.993626]},"properties":{"id":36367,"nom":"BUREAU SAPEURS POMPIERS CIVILS","type":"bureau securite","district_region":null,"departement_commune":null,"verifie":true,"name":"BUREAU SAPEURS POMPIERS CIVILS","source":"Géoportail ANSTAT"}},{"type":"Feature","geometry":{"type":"Point","coordinates":[-3.264225,6.653313]},"properties":{"id":36368,"nom":"BUREAU DES DOUANES DE NIABLE","type":"bureau securite","district_region":null,"departement_commune":null,"verifie":true,"name":"BUREAU DES DOUANES DE NIABLE","source":"Géoportail ANSTAT"}},{"type":"Feature","geometry":{"type":"Point","coordinates":[-3.196486,7.127326]},"properties":{"id":36372,"nom":"BUREAU DE DOUANE","type":"bureau securite","district_region":null,"departement_commune":null,"verifie":true,"name":"BUREAU DE DOUANE","source":"Géoportail ANSTAT"}},{"type":"Feature","geometry":{"type":"Point","coordinates":[-3.955945,5.810817]},"properties":{"id":36376,"nom":"CABINET DES EAUX ET FORET","type":"bureau securite","district_region":null,"departement_commune":null,"verifie":true,"name":"CABINET DES EAUX ET FORET","source":"Géoportail ANSTAT"}},{"type":"Feature","geometry":{"type":"Point","coordinates":[-3.549002,5.513552]},"properties":{"id":36377,"nom":"BUREAU DES EAUX ET FORETS DE BONGO","type":"bureau securite","district_region":null,"departement_commune":null,"verifie":true,"name":"BUREAU DES EAUX ET FORETS DE BONGO","source":"Géoportail ANSTAT"}},{"type":"Feature","geometry":{"type":"Point","coordinates":[-2.787245,5.289925]},"properties":{"id":36379,"nom":"BUREAU DES DOUANE DE NOE","type":"bureau securite","district_region":null,"departement_commune":null,"verifie":true,"name":"BUREAU DES DOUANE DE NOE","source":"Géoportail ANSTAT"}},{"type":"Feature","geometry":{"type":"Point","coordinates":[-3.189035,6.009162]},"properties":{"id":36382,"nom":"BUREAU DES DOUANES DE BIANOUAN","type":"bureau securite","district_region":null,"departement_commune":null,"verifie":true,"name":"BUREAU DES DOUANES DE BIANOUAN","source":"Géoportail ANSTAT"}},{"type":"Feature","geometry":{"type":"Point","coordinates":[-7.553132,7.106927]},"properties":{"id":36390,"nom":"BUREAU DES EAUX ET FORETS","type":"bureau securite","district_region":null,"departement_commune":null,"verifie":true,"name":"BUREAU DES EAUX ET FORETS","source":"Géoportail ANSTAT"}},{"type":"Feature","geometry":{"type":"Point","coordinates":[-8.109841,7.860622]},"properties":{"id":36392,"nom":"BUREAU DE DOUANE DE SIPILOU","type":"bureau securite","district_region":null,"departement_commune":null,"verifie":true,"name":"BUREAU DE DOUANE DE SIPILOU","source":"Géoportail ANSTAT"}},{"type":"Feature","geometry":{"type":"Point","coordinates":[-2.977447,7.701842]},"properties":{"id":36903,"nom":"DOUANE IVOIRIENNES BUREAU D ASSUEFRY","type":"bureau securite","district_region":null,"departement_commune":null,"verifie":true,"name":"DOUANE IVOIRIENNES BUREAU D ASSUEFRY","source":"Géoportail ANSTAT"}},{"type":"Feature","geometry":{"type":"Point","coordinates":[-7.540646,4.433407]},"properties":{"id":38662,"nom":"RHABILITATION DES BUREAUX DE POLICE DU POSTE FRONTALIER DE PROLLO","type":"bureau securite","district_region":null,"departement_commune":null,"verifie":true,"name":"RHABILITATION DES BUREAUX DE POLICE DU POSTE FRONTALIER DE PROLLO","source":"Géoportail ANSTAT"}},{"type":"Feature","geometry":{"type":"Point","coordinates":[-5.29121,6.825059]},"properties":{"id":38750,"nom":"CCDO","type":"bureau securite","district_region":null,"departement_commune":null,"verifie":true,"name":"CCDO","source":"Géoportail ANSTAT"}}],"metadata":{"dataset":"Bureau securite — ANSTAT","source":"Géoportail ANSTAT","theme":"Sécurité","verified":true,"apercu":"complet"}}