{"type":"FeatureCollection","features":[{"type":"Feature","geometry":{"type":"Point","coordinates":[-5.27740799999998,6.79273500000005]},"properties":{"id":131409,"nom":"CENTRE ANTI TUBERCULOSE DE YAMOUSSOUKRO","type":"centre hospitalier universitaire","district_region":null,"departement_commune":null,"verifie":true,"name":"CENTRE ANTI TUBERCULOSE DE YAMOUSSOUKRO","source":"Géoportail ANSTAT"}},{"type":"Feature","geometry":{"type":"Point","coordinates":[-6.638857999999971,4.745434000000046]},"properties":{"id":131458,"nom":"CENTRE ANTI TUBERCULEUX DE SAN PEDRO","type":"centre hospitalier universitaire","district_region":null,"departement_commune":null,"verifie":true,"name":"CENTRE ANTI TUBERCULEUX DE SAN PEDRO","source":"Géoportail ANSTAT"}},{"type":"Feature","geometry":{"type":"Point","coordinates":[-5.935543999999936,6.123064000000056]},"properties":{"id":131471,"nom":"CENTRE  ANTI TUBERCULEUX","type":"centre hospitalier universitaire","district_region":null,"departement_commune":null,"verifie":true,"name":"CENTRE  ANTI TUBERCULEUX","source":"Géoportail ANSTAT"}},{"type":"Feature","geometry":{"type":"Point","coordinates":[-5.03315699999996,7.687869000000035]},"properties":{"id":131481,"nom":"CENTRE D IMAGERIE","type":"centre hospitalier universitaire","district_region":null,"departement_commune":null,"verifie":true,"name":"CENTRE D IMAGERIE","source":"Géoportail ANSTAT"}},{"type":"Feature","geometry":{"type":"Point","coordinates":[-6.451557999999977,6.888799000000063]},"properties":{"id":131485,"nom":"CENTRE ANTI TUBERCULEUX","type":"centre hospitalier universitaire","district_region":null,"departement_commune":null,"verifie":true,"name":"CENTRE ANTI TUBERCULEUX","source":"Géoportail ANSTAT"}},{"type":"Feature","geometry":{"type":"Point","coordinates":[-3.872203999999954,6.117727000000059]},"properties":{"id":131492,"nom":"CENTRE ANTITUBERCULEUX D ADZOPE","type":"centre hospitalier universitaire","district_region":null,"departement_commune":null,"verifie":true,"name":"CENTRE ANTITUBERCULEUX D ADZOPE","source":"Géoportail ANSTAT"}},{"type":"Feature","geometry":{"type":"Point","coordinates":[-4.375390999999979,5.314862000000062]},"properties":{"id":131598,"nom":"CENTRE DE REEDUCATION POUR MINEURS","type":"centre hospitalier universitaire","district_region":null,"departement_commune":null,"verifie":true,"name":"CENTRE DE REEDUCATION POUR MINEURS","source":"Géoportail ANSTAT"}},{"type":"Feature","geometry":{"type":"Point","coordinates":[-5.035554999999931,7.699917000000028]},"properties":{"id":132520,"nom":"CENTRE DE TRANSFUSION DE BOUAKE","type":"centre hospitalier universitaire","district_region":null,"departement_commune":null,"verifie":true,"name":"CENTRE DE TRANSFUSION DE BOUAKE","source":"Géoportail ANSTAT"}},{"type":"Feature","geometry":{"type":"Point","coordinates":[-5.030577999999934,7.698565000000031]},"properties":{"id":133235,"nom":"CHU BOUAKE","type":"centre hospitalier universitaire","district_region":null,"departement_commune":null,"verifie":true,"name":"CHU BOUAKE","source":"Géoportail ANSTAT"}},{"type":"Feature","geometry":{"type":"Point","coordinates":[-6.494434999999953,9.522237000000075]},"properties":{"id":134957,"nom":"GRANDES ENDEMIES","type":"centre hospitalier universitaire","district_region":null,"departement_commune":null,"verifie":true,"name":"GRANDES ENDEMIES","source":"Géoportail ANSTAT"}},{"type":"Feature","geometry":{"type":"Point","coordinates":[-5.947095999999931,6.140930000000026]},"properties":{"id":135091,"nom":"INSTITUT NATIONAL DE L HYGIENE PUBLIQUE","type":"centre hospitalier universitaire","district_region":null,"departement_commune":null,"verifie":true,"name":"INSTITUT NATIONAL DE L HYGIENE PUBLIQUE","source":"Géoportail ANSTAT"}},{"type":"Feature","geometry":{"type":"Point","coordinates":[-2.96272399999998,7.235732000000041]},"properties":{"id":135092,"nom":"INHP DE TAKIKRO","type":"centre hospitalier universitaire","district_region":null,"departement_commune":null,"verifie":true,"name":"INHP DE TAKIKRO","source":"Géoportail ANSTAT"}},{"type":"Feature","geometry":{"type":"Point","coordinates":[-6.674361999999974,7.961267000000021]},"properties":{"id":135093,"nom":"INSTITUT NATIONAL DHYGIENE PUBLIQUE","type":"centre hospitalier universitaire","district_region":null,"departement_commune":null,"verifie":true,"name":"INSTITUT NATIONAL DHYGIENE PUBLIQUE","source":"Géoportail ANSTAT"}},{"type":"Feature","geometry":{"type":"Point","coordinates":[-5.035367999999949,7.682786000000021]},"properties":{"id":135096,"nom":"INSTITUT NATIONAL D HYGIENE PUBLIQUE","type":"centre hospitalier universitaire","district_region":null,"departement_commune":null,"verifie":true,"name":"INSTITUT NATIONAL D HYGIENE PUBLIQUE","source":"Géoportail ANSTAT"}},{"type":"Feature","geometry":{"type":"Point","coordinates":[-6.453098999999952,6.874099000000058]},"properties":{"id":135097,"nom":"INSTITUT NATIONALE DE LHYGIENE PUBLIQUE","type":"centre hospitalier universitaire","district_region":null,"departement_commune":null,"verifie":true,"name":"INSTITUT NATIONALE DE LHYGIENE PUBLIQUE","source":"Géoportail ANSTAT"}},{"type":"Feature","geometry":{"type":"Point","coordinates":[-6.478992999999946,9.522002000000043]},"properties":{"id":135099,"nom":"INHP","type":"centre hospitalier universitaire","district_region":null,"departement_commune":null,"verifie":true,"name":"INHP","source":"Géoportail ANSTAT"}},{"type":"Feature","geometry":{"type":"Point","coordinates":[-6.407475999999974,10.48110400000007]},"properties":{"id":135100,"nom":"INSTITUT NATIONAL D HYGIENE PUBLIQUE","type":"centre hospitalier universitaire","district_region":null,"departement_commune":null,"verifie":true,"name":"INSTITUT NATIONAL D HYGIENE PUBLIQUE","source":"Géoportail ANSTAT"}},{"type":"Feature","geometry":{"type":"Point","coordinates":[-3.914873999999941,6.182745000000068]},"properties":{"id":135101,"nom":"INSTITUT RAOUL FOLEREAU","type":"centre hospitalier universitaire","district_region":null,"departement_commune":null,"verifie":true,"name":"INSTITUT RAOUL FOLEREAU","source":"Géoportail ANSTAT"}},{"type":"Feature","geometry":{"type":"Point","coordinates":[-5.098189999999931,8.140683000000024]},"properties":{"id":135103,"nom":"INHP DE KATIOLA","type":"centre hospitalier universitaire","district_region":null,"departement_commune":null,"verifie":true,"name":"INHP DE KATIOLA","source":"Géoportail ANSTAT"}},{"type":"Feature","geometry":{"type":"Point","coordinates":[-7.550166999999931,7.405036000000052]},"properties":{"id":135104,"nom":"INSTITUT TECHNOLOGIQUE DE MAN","type":"centre hospitalier universitaire","district_region":null,"departement_commune":null,"verifie":true,"name":"INSTITUT TECHNOLOGIQUE DE MAN","source":"Géoportail ANSTAT"}},{"type":"Feature","geometry":{"type":"Point","coordinates":[-5.631023999999968,9.444642000000044]},"properties":{"id":135113,"nom":"LES GRANDES ENDEMIES","type":"centre hospitalier universitaire","district_region":null,"departement_commune":null,"verifie":true,"name":"LES GRANDES ENDEMIES","source":"Géoportail ANSTAT"}},{"type":"Feature","geometry":{"type":"Point","coordinates":[-3.97399699999994,5.393276000000071]},"properties":{"id":135788,"nom":"CHU COCODY ANGRE","type":"centre hospitalier universitaire","district_region":null,"departement_commune":null,"verifie":true,"name":"CHU COCODY ANGRE","source":"Géoportail ANSTAT"}},{"type":"Feature","geometry":{"type":"Point","coordinates":[-4.015617999999961,5.436702000000025]},"properties":{"id":135854,"nom":"CENTRE ANTI TUBERCULEUX","type":"centre hospitalier universitaire","district_region":null,"departement_commune":null,"verifie":true,"name":"CENTRE ANTI TUBERCULEUX","source":"Géoportail ANSTAT"}},{"type":"Feature","geometry":{"type":"Point","coordinates":[-3.994432999999958,5.343421000000035]},"properties":{"id":135921,"nom":"CENTRE DES GRANDS BRULES","type":"centre hospitalier universitaire","district_region":null,"departement_commune":null,"verifie":true,"name":"CENTRE DES GRANDS BRULES","source":"Géoportail ANSTAT"}},{"type":"Feature","geometry":{"type":"Point","coordinates":[-3.99420699999996,5.344513000000063]},"properties":{"id":135922,"nom":"CENTRE HOSPITALIER ET UNIVERSITAIRE DE COCODY","type":"centre hospitalier universitaire","district_region":null,"departement_commune":null,"verifie":true,"name":"CENTRE HOSPITALIER ET UNIVERSITAIRE DE COCODY","source":"Géoportail ANSTAT"}},{"type":"Feature","geometry":{"type":"Point","coordinates":[-4.089374999999961,5.356932000000029]},"properties":{"id":136034,"nom":"CENTRE HOSPITALIER UNIVERSITAIRE DE YOPOUGON","type":"centre hospitalier universitaire","district_region":null,"departement_commune":null,"verifie":true,"name":"CENTRE HOSPITALIER UNIVERSITAIRE DE YOPOUGON","source":"Géoportail ANSTAT"}},{"type":"Feature","geometry":{"type":"Point","coordinates":[-4.018204999999966,5.363140000000044]},"properties":{"id":136066,"nom":"CROIX BLEUE COTE COTE D IVOIRE","type":"centre hospitalier universitaire","district_region":null,"departement_commune":null,"verifie":true,"name":"CROIX BLEUE COTE COTE D IVOIRE","source":"Géoportail ANSTAT"}},{"type":"Feature","geometry":{"type":"Point","coordinates":[-4.01707399999998,5.320456000000036]},"properties":{"id":136069,"nom":"CENTRE DE DEPISTAGE DU CANCER DU COL PAR VISUALISATION A ACIDE ACETIQUE IVA","type":"centre hospitalier universitaire","district_region":null,"departement_commune":null,"verifie":true,"name":"CENTRE DE DEPISTAGE DU CANCER DU COL PAR VISUALISATION A ACIDE ACETIQUE IVA","source":"Géoportail ANSTAT"}},{"type":"Feature","geometry":{"type":"Point","coordinates":[-4.004452999999955,5.293375000000026]},"properties":{"id":136095,"nom":"CENTRE HOSPITALIER ET UNIVERSITAIRE DE TREICHVILLE","type":"centre hospitalier universitaire","district_region":null,"departement_commune":null,"verifie":true,"name":"CENTRE HOSPITALIER ET UNIVERSITAIRE DE TREICHVILLE","source":"Géoportail ANSTAT"}},{"type":"Feature","geometry":{"type":"Point","coordinates":[-4.015386999999976,5.306417000000067]},"properties":{"id":136101,"nom":"CENTRE ANTITUBERCULLEUX","type":"centre hospitalier universitaire","district_region":null,"departement_commune":null,"verifie":true,"name":"CENTRE ANTITUBERCULLEUX","source":"Géoportail ANSTAT"}},{"type":"Feature","geometry":{"type":"Point","coordinates":[-4.001156999999978,5.299845000000062]},"properties":{"id":136105,"nom":"CENTRE ANTITUBERCULEUX DE TREICHVILLE","type":"centre hospitalier universitaire","district_region":null,"departement_commune":null,"verifie":true,"name":"CENTRE ANTITUBERCULEUX DE TREICHVILLE","source":"Géoportail ANSTAT"}},{"type":"Feature","geometry":{"type":"Point","coordinates":[-3.964196999999956,5.289531000000068]},"properties":{"id":136130,"nom":"CENTRE ANTITUBERCULEUX DE KOUMASSI","type":"centre hospitalier universitaire","district_region":null,"departement_commune":null,"verifie":true,"name":"CENTRE ANTITUBERCULEUX DE KOUMASSI","source":"Géoportail ANSTAT"}},{"type":"Feature","geometry":{"type":"Point","coordinates":[-4.056791999999973,5.325958000000071]},"properties":{"id":136229,"nom":"INHP","type":"centre hospitalier universitaire","district_region":null,"departement_commune":null,"verifie":true,"name":"INHP","source":"Géoportail ANSTAT"}},{"type":"Feature","geometry":{"type":"Point","coordinates":[-4.005454999999927,5.294642000000067]},"properties":{"id":136237,"nom":"INHP","type":"centre hospitalier universitaire","district_region":null,"departement_commune":null,"verifie":true,"name":"INHP","source":"Géoportail ANSTAT"}},{"type":"Feature","geometry":{"type":"Point","coordinates":[-3.896072999999944,5.240700000000061]},"properties":{"id":136248,"nom":"INHP","type":"centre hospitalier universitaire","district_region":null,"departement_commune":null,"verifie":true,"name":"INHP","source":"Géoportail ANSTAT"}}],"metadata":{"dataset":"Centre hospitalier universitaire — ANSTAT","source":"Géoportail ANSTAT","theme":"Santé","verified":true,"apercu":"complet"}}