{"type":"FeatureCollection","features":[{"type":"Feature","geometry":{"type":"Point","coordinates":[-3.992701999999952,5.391856000000075]},"properties":{"id":39336,"nom":"AMBASSADE DE LA REPUBLIQUE","type":"ambassade","district_region":null,"departement_commune":null,"verifie":true,"name":"AMBASSADE DE LA REPUBLIQUE","source":"Géoportail ANSTAT"}},{"type":"Feature","geometry":{"type":"Point","coordinates":[-3.989431999999965,5.380934000000025]},"properties":{"id":39341,"nom":"AMBASSADE DU SOUDAN","type":"ambassade","district_region":null,"departement_commune":null,"verifie":true,"name":"AMBASSADE DU SOUDAN","source":"Géoportail ANSTAT"}},{"type":"Feature","geometry":{"type":"Point","coordinates":[-4.004216999999926,5.357629000000031]},"properties":{"id":39344,"nom":"AMBASSADE DE MAURITANIE","type":"ambassade","district_region":null,"departement_commune":null,"verifie":true,"name":"AMBASSADE DE MAURITANIE","source":"Géoportail ANSTAT"}},{"type":"Feature","geometry":{"type":"Point","coordinates":[-4.005351999999959,5.330286000000058]},"properties":{"id":39348,"nom":"AMBASSADE DARABE DEGYPTE","type":"ambassade","district_region":null,"departement_commune":null,"verifie":true,"name":"AMBASSADE DARABE DEGYPTE","source":"Géoportail ANSTAT"}},{"type":"Feature","geometry":{"type":"Point","coordinates":[-3.993149999999957,5.33043200000003]},"properties":{"id":39349,"nom":"AMBASSADE DE BELGIQUE","type":"ambassade","district_region":null,"departement_commune":null,"verifie":true,"name":"AMBASSADE DE BELGIQUE","source":"Géoportail ANSTAT"}},{"type":"Feature","geometry":{"type":"Point","coordinates":[-3.996147999999948,5.329154000000074]},"properties":{"id":39350,"nom":"AMBASSADE DE CHINE","type":"ambassade","district_region":null,"departement_commune":null,"verifie":true,"name":"AMBASSADE DE CHINE","source":"Géoportail ANSTAT"}},{"type":"Feature","geometry":{"type":"Point","coordinates":[-3.992327999999929,5.332100000000025]},"properties":{"id":39351,"nom":"AMBASSADE DE GRANDE BREYAGNE","type":"ambassade","district_region":null,"departement_commune":null,"verifie":true,"name":"AMBASSADE DE GRANDE BREYAGNE","source":"Géoportail ANSTAT"}},{"type":"Feature","geometry":{"type":"Point","coordinates":[-3.997863999999936,5.326653000000022]},"properties":{"id":39352,"nom":"AMBASSADE DE L AFRIQUE DU SUD","type":"ambassade","district_region":null,"departement_commune":null,"verifie":true,"name":"AMBASSADE DE L AFRIQUE DU SUD","source":"Géoportail ANSTAT"}},{"type":"Feature","geometry":{"type":"Point","coordinates":[-3.991089999999929,5.331203000000073]},"properties":{"id":39353,"nom":"AMBASSADE DE LA REPUBLIQUE ALGERIENNE DEMOCRATIQ","type":"ambassade","district_region":null,"departement_commune":null,"verifie":true,"name":"AMBASSADE DE LA REPUBLIQUE ALGERIENNE DEMOCRATIQ","source":"Géoportail ANSTAT"}},{"type":"Feature","geometry":{"type":"Point","coordinates":[-3.990247999999951,5.333205000000021]},"properties":{"id":39354,"nom":"AMBASSADE DE LA REPUBLIQUE ISLAMIQUE D IRAN","type":"ambassade","district_region":null,"departement_commune":null,"verifie":true,"name":"AMBASSADE DE LA REPUBLIQUE ISLAMIQUE D IRAN","source":"Géoportail ANSTAT"}},{"type":"Feature","geometry":{"type":"Point","coordinates":[-3.99022199999996,5.333158000000026]},"properties":{"id":39355,"nom":"AMBASSADE DE LA REPUBLIQUE ISLAMIQUE DIRAN","type":"ambassade","district_region":null,"departement_commune":null,"verifie":true,"name":"AMBASSADE DE LA REPUBLIQUE ISLAMIQUE DIRAN","source":"Géoportail ANSTAT"}},{"type":"Feature","geometry":{"type":"Point","coordinates":[-3.993010999999967,5.329140000000052]},"properties":{"id":39356,"nom":"AMBASSADE DE SUISSE","type":"ambassade","district_region":null,"departement_commune":null,"verifie":true,"name":"AMBASSADE DE SUISSE","source":"Géoportail ANSTAT"}},{"type":"Feature","geometry":{"type":"Point","coordinates":[-3.998577999999952,5.331528000000048]},"properties":{"id":39357,"nom":"AMBASSADE DU BRESIL","type":"ambassade","district_region":null,"departement_commune":null,"verifie":true,"name":"AMBASSADE DU BRESIL","source":"Géoportail ANSTAT"}},{"type":"Feature","geometry":{"type":"Point","coordinates":[-3.993566999999928,5.333078000000057]},"properties":{"id":39358,"nom":"AMBASSADE DU JAPON","type":"ambassade","district_region":null,"departement_commune":null,"verifie":true,"name":"AMBASSADE DU JAPON","source":"Géoportail ANSTAT"}},{"type":"Feature","geometry":{"type":"Point","coordinates":[-3.994635999999957,5.330116000000032]},"properties":{"id":39359,"nom":"AMBASSADE DU LIBERIA","type":"ambassade","district_region":null,"departement_commune":null,"verifie":true,"name":"AMBASSADE DU LIBERIA","source":"Géoportail ANSTAT"}},{"type":"Feature","geometry":{"type":"Point","coordinates":[-4.011032999999941,5.33097900000007]},"properties":{"id":39360,"nom":"AMBASSADE DU ROYAUME ARABIE SAOUDITE","type":"ambassade","district_region":null,"departement_commune":null,"verifie":true,"name":"AMBASSADE DU ROYAUME ARABIE SAOUDITE","source":"Géoportail ANSTAT"}},{"type":"Feature","geometry":{"type":"Point","coordinates":[-4.005616999999972,5.328306000000055]},"properties":{"id":39361,"nom":"AMBASSADE LA REPUBLIQUE FEDERALE DALLEMAGNE","type":"ambassade","district_region":null,"departement_commune":null,"verifie":true,"name":"AMBASSADE LA REPUBLIQUE FEDERALE DALLEMAGNE","source":"Géoportail ANSTAT"}},{"type":"Feature","geometry":{"type":"Point","coordinates":[-3.978984999999966,5.330323000000021]},"properties":{"id":39375,"nom":"AMBASSADE DE LA GUINEE","type":"ambassade","district_region":null,"departement_commune":null,"verifie":true,"name":"AMBASSADE DE LA GUINEE","source":"Géoportail ANSTAT"}},{"type":"Feature","geometry":{"type":"Point","coordinates":[-3.977153999999928,5.336386000000061]},"properties":{"id":39376,"nom":"AMBASSADE DE LA RUSSIE","type":"ambassade","district_region":null,"departement_commune":null,"verifie":true,"name":"AMBASSADE DE LA RUSSIE","source":"Géoportail ANSTAT"}},{"type":"Feature","geometry":{"type":"Point","coordinates":[-3.974320999999975,5.33571900000004]},"properties":{"id":39377,"nom":"AMBASSADE DE LETAT DU QATAR","type":"ambassade","district_region":null,"departement_commune":null,"verifie":true,"name":"AMBASSADE DE LETAT DU QATAR","source":"Géoportail ANSTAT"}},{"type":"Feature","geometry":{"type":"Point","coordinates":[-3.976758999999959,5.335528000000068]},"properties":{"id":39378,"nom":"AMBASSADE DES ETATS UNIS D AMERIQUE","type":"ambassade","district_region":null,"departement_commune":null,"verifie":true,"name":"AMBASSADE DES ETATS UNIS D AMERIQUE","source":"Géoportail ANSTAT"}},{"type":"Feature","geometry":{"type":"Point","coordinates":[-3.978609999999946,5.330507000000068]},"properties":{"id":39379,"nom":"AMBASSADE DU BENIN","type":"ambassade","district_region":null,"departement_commune":null,"verifie":true,"name":"AMBASSADE DU BENIN","source":"Géoportail ANSTAT"}},{"type":"Feature","geometry":{"type":"Point","coordinates":[-4.00572399999993,5.346463000000028]},"properties":{"id":39380,"nom":"AMBASSADE D ESPAGNE","type":"ambassade","district_region":null,"departement_commune":null,"verifie":true,"name":"AMBASSADE D ESPAGNE","source":"Géoportail ANSTAT"}},{"type":"Feature","geometry":{"type":"Point","coordinates":[-4.005139999999926,5.347022000000038]},"properties":{"id":39381,"nom":"AMBASSADE D ETHIOPIE","type":"ambassade","district_region":null,"departement_commune":null,"verifie":true,"name":"AMBASSADE D ETHIOPIE","source":"Géoportail ANSTAT"}},{"type":"Feature","geometry":{"type":"Point","coordinates":[-4.006432999999959,5.341407000000061]},"properties":{"id":39382,"nom":"AMBASSADE DE LA REPUBLIQUE CENTRAFRICAINE","type":"ambassade","district_region":null,"departement_commune":null,"verifie":true,"name":"AMBASSADE DE LA REPUBLIQUE CENTRAFRICAINE","source":"Géoportail ANSTAT"}},{"type":"Feature","geometry":{"type":"Point","coordinates":[-4.004038999999977,5.343845000000044]},"properties":{"id":39383,"nom":"AMBASSADE DE LA REPUBLIQUE D ANGOLA EN REPUBLIQUE DE COTE D IVOIRE","type":"ambassade","district_region":null,"departement_commune":null,"verifie":true,"name":"AMBASSADE DE LA REPUBLIQUE D ANGOLA EN REPUBLIQUE DE COTE D IVOIRE","source":"Géoportail ANSTAT"}},{"type":"Feature","geometry":{"type":"Point","coordinates":[-4.003993999999977,5.347738000000049]},"properties":{"id":39384,"nom":"AMBASSADE DE LA REPUBLIQUE GABONAISE","type":"ambassade","district_region":null,"departement_commune":null,"verifie":true,"name":"AMBASSADE DE LA REPUBLIQUE GABONAISE","source":"Géoportail ANSTAT"}},{"type":"Feature","geometry":{"type":"Point","coordinates":[-4.007596999999976,5.343777000000046]},"properties":{"id":39385,"nom":"AMBASSADE DU CANADA","type":"ambassade","district_region":null,"departement_commune":null,"verifie":true,"name":"AMBASSADE DU CANADA","source":"Géoportail ANSTAT"}},{"type":"Feature","geometry":{"type":"Point","coordinates":[-3.997061999999971,5.332388000000037]},"properties":{"id":39389,"nom":"AMBASSADE DE LA REPUBLIQUE DE COREE","type":"ambassade","district_region":null,"departement_commune":null,"verifie":true,"name":"AMBASSADE DE LA REPUBLIQUE DE COREE","source":"Géoportail ANSTAT"}},{"type":"Feature","geometry":{"type":"Point","coordinates":[-3.998642999999959,5.332237000000021]},"properties":{"id":39390,"nom":"AMBASSADE DU SENEGAL","type":"ambassade","district_region":null,"departement_commune":null,"verifie":true,"name":"AMBASSADE DU SENEGAL","source":"Géoportail ANSTAT"}},{"type":"Feature","geometry":{"type":"Point","coordinates":[-4.012587999999937,5.340874000000042]},"properties":{"id":39394,"nom":"AMBASSADE D ITALIE","type":"ambassade","district_region":null,"departement_commune":null,"verifie":true,"name":"AMBASSADE D ITALIE","source":"Géoportail ANSTAT"}},{"type":"Feature","geometry":{"type":"Point","coordinates":[-4.012986999999953,5.339015000000074]},"properties":{"id":39395,"nom":"AMBASSADE DU MAROC","type":"ambassade","district_region":null,"departement_commune":null,"verifie":true,"name":"AMBASSADE DU MAROC","source":"Géoportail ANSTAT"}},{"type":"Feature","geometry":{"type":"Point","coordinates":[-3.989983999999936,5.370678000000055]},"properties":{"id":39408,"nom":"AMBASSADE DU BENIN","type":"ambassade","district_region":null,"departement_commune":null,"verifie":true,"name":"AMBASSADE DU BENIN","source":"Géoportail ANSTAT"}},{"type":"Feature","geometry":{"type":"Point","coordinates":[-3.988331999999957,5.371179000000041]},"properties":{"id":39409,"nom":"AMBASSADE DU MALI","type":"ambassade","district_region":null,"departement_commune":null,"verifie":true,"name":"AMBASSADE DU MALI","source":"Géoportail ANSTAT"}},{"type":"Feature","geometry":{"type":"Point","coordinates":[-3.981160999999929,5.340930000000071]},"properties":{"id":39417,"nom":"AMBASSADE REPUBLIQUE DU TCHAD","type":"ambassade","district_region":null,"departement_commune":null,"verifie":true,"name":"AMBASSADE REPUBLIQUE DU TCHAD","source":"Géoportail ANSTAT"}},{"type":"Feature","geometry":{"type":"Point","coordinates":[-3.942665999999974,5.332194000000072]},"properties":{"id":39419,"nom":"AMBASSADE DE  CHINE","type":"ambassade","district_region":null,"departement_commune":null,"verifie":true,"name":"AMBASSADE DE  CHINE","source":"Géoportail ANSTAT"}},{"type":"Feature","geometry":{"type":"Point","coordinates":[-3.954923999999949,5.341899000000069]},"properties":{"id":39420,"nom":"AMBASSADE DE L ETAT DE LA PALESTINE RESIDENCE","type":"ambassade","district_region":null,"departement_commune":null,"verifie":true,"name":"AMBASSADE DE L ETAT DE LA PALESTINE RESIDENCE","source":"Géoportail ANSTAT"}},{"type":"Feature","geometry":{"type":"Point","coordinates":[-4.014177999999959,5.322890000000029]},"properties":{"id":39522,"nom":"AMBASSADE DE TURQUIE","type":"ambassade","district_region":null,"departement_commune":null,"verifie":true,"name":"AMBASSADE DE TURQUIE","source":"Géoportail ANSTAT"}},{"type":"Feature","geometry":{"type":"Point","coordinates":[-4.016952999999944,5.318192000000067]},"properties":{"id":39527,"nom":"AMBASSADE DU BURKINA FASSO","type":"ambassade","district_region":null,"departement_commune":null,"verifie":true,"name":"AMBASSADE DU BURKINA FASSO","source":"Géoportail ANSTAT"}},{"type":"Feature","geometry":{"type":"Point","coordinates":[-4.015616999999963,5.318142000000023]},"properties":{"id":39528,"nom":"AMBASSADE DU CANADA","type":"ambassade","district_region":null,"departement_commune":null,"verifie":true,"name":"AMBASSADE DU CANADA","source":"Géoportail ANSTAT"}},{"type":"Feature","geometry":{"type":"Point","coordinates":[-4.016459999999938,5.315951000000041]},"properties":{"id":39529,"nom":"AMBASSADE DU JOPN","type":"ambassade","district_region":null,"departement_commune":null,"verifie":true,"name":"AMBASSADE DU JOPN","source":"Géoportail ANSTAT"}},{"type":"Feature","geometry":{"type":"Point","coordinates":[-4.012059999999963,5.318877000000043]},"properties":{"id":39530,"nom":"AMBASSADE DU MALI","type":"ambassade","district_region":null,"departement_commune":null,"verifie":true,"name":"AMBASSADE DU MALI","source":"Géoportail ANSTAT"}},{"type":"Feature","geometry":{"type":"Point","coordinates":[-4.018599999999935,5.32347500000003]},"properties":{"id":39549,"nom":"AMBASSADE BREZIL","type":"ambassade","district_region":null,"departement_commune":null,"verifie":true,"name":"AMBASSADE BREZIL","source":"Géoportail ANSTAT"}},{"type":"Feature","geometry":{"type":"Point","coordinates":[-4.017841999999973,5.326159000000075]},"properties":{"id":39550,"nom":"AMBASSADE DE FRANCE","type":"ambassade","district_region":null,"departement_commune":null,"verifie":true,"name":"AMBASSADE DE FRANCE","source":"Géoportail ANSTAT"}},{"type":"Feature","geometry":{"type":"Point","coordinates":[-4.02069199999994,5.330609000000038]},"properties":{"id":39551,"nom":"AMBASSADE DE LA REPUBLICAINE ALGERIENNE","type":"ambassade","district_region":null,"departement_commune":null,"verifie":true,"name":"AMBASSADE DE LA REPUBLICAINE ALGERIENNE","source":"Géoportail ANSTAT"}},{"type":"Feature","geometry":{"type":"Point","coordinates":[-4.019739999999956,5.328245000000038]},"properties":{"id":39552,"nom":"AMBASSADE DU NIGERIA","type":"ambassade","district_region":null,"departement_commune":null,"verifie":true,"name":"AMBASSADE DU NIGERIA","source":"Géoportail ANSTAT"}},{"type":"Feature","geometry":{"type":"Point","coordinates":[-3.98739699999993,5.302185000000065]},"properties":{"id":39807,"nom":"CIRCUSALE DE L AMBASSADE DU TOGO","type":"ambassade","district_region":null,"departement_commune":null,"verifie":true,"name":"CIRCUSALE DE L AMBASSADE DU TOGO","source":"Géoportail ANSTAT"}},{"type":"Feature","geometry":{"type":"Point","coordinates":[-3.999022999999966,5.331921000000023]},"properties":{"id":39885,"nom":"DOMICIL DE L AMBASSADEUR DE LA GRANDE BRETAGNE","type":"ambassade","district_region":null,"departement_commune":null,"verifie":true,"name":"DOMICIL DE L AMBASSADEUR DE LA GRANDE BRETAGNE","source":"Géoportail ANSTAT"}},{"type":"Feature","geometry":{"type":"Point","coordinates":[-3.998820999999964,5.331503000000055]},"properties":{"id":39886,"nom":"DOMICIL DE L AMBASSDEUR DU BRESIL","type":"ambassade","district_region":null,"departement_commune":null,"verifie":true,"name":"DOMICIL DE L AMBASSDEUR DU BRESIL","source":"Géoportail ANSTAT"}},{"type":"Feature","geometry":{"type":"Point","coordinates":[-3.989864999999952,5.357291000000032]},"properties":{"id":39997,"nom":"GUINEE","type":"ambassade","district_region":null,"departement_commune":null,"verifie":true,"name":"GUINEE","source":"Géoportail ANSTAT"}},{"type":"Feature","geometry":{"type":"Point","coordinates":[-3.980148999999926,5.330148000000065]},"properties":{"id":40435,"nom":"RESIDENCE DE LAMBASSADE DU NIGERIA","type":"ambassade","district_region":null,"departement_commune":null,"verifie":true,"name":"RESIDENCE DE LAMBASSADE DU NIGERIA","source":"Géoportail ANSTAT"}},{"type":"Feature","geometry":{"type":"Point","coordinates":[-3.989957999999945,5.369110000000035]},"properties":{"id":40448,"nom":"RD CONGO","type":"ambassade","district_region":null,"departement_commune":null,"verifie":true,"name":"RD CONGO","source":"Géoportail ANSTAT"}},{"type":"Feature","geometry":{"type":"Point","coordinates":[-3.988107999999954,5.369777000000056]},"properties":{"id":40449,"nom":"RESIDENCE DE LAMBASSADE DE LETHIOPIE","type":"ambassade","district_region":null,"departement_commune":null,"verifie":true,"name":"RESIDENCE DE LAMBASSADE DE LETHIOPIE","source":"Géoportail ANSTAT"}},{"type":"Feature","geometry":{"type":"Point","coordinates":[-3.98916399999996,5.371170000000063]},"properties":{"id":40450,"nom":"RESIDENCE DE LAMBASSADE DU GABON","type":"ambassade","district_region":null,"departement_commune":null,"verifie":true,"name":"RESIDENCE DE LAMBASSADE DU GABON","source":"Géoportail ANSTAT"}}],"metadata":{"dataset":"Ambassade — ANSTAT","source":"Géoportail ANSTAT","theme":"Administration","verified":true,"apercu":"complet"}}