{"type":"FeatureCollection","features":[{"type":"Feature","geometry":{"type":"Point","coordinates":[-5.03135999999995,7.647170000000074]},"properties":{"id":131366,"nom":"CONTRUCTION LYCEE TECHNIQUE","type":"lycee technique","district_region":"GBEKE","departement_commune":null,"verifie":true,"name":"CONTRUCTION LYCEE TECHNIQUE","nomreg":"GBEKE","codreg":4,"source":"Géoportail ANSTAT"}},{"type":"Feature","geometry":{"type":"Point","coordinates":[-5.050775999999928,7.690944000000059]},"properties":{"id":131367,"nom":"LYCEE TECHNIQUE","type":"lycee technique","district_region":"GBEKE","departement_commune":null,"verifie":true,"name":"LYCEE TECHNIQUE","nomreg":"GBEKE","codreg":4,"source":"Géoportail ANSTAT"}},{"type":"Feature","geometry":{"type":"Point","coordinates":[-7.56423899999993,7.414886000000024]},"properties":{"id":131368,"nom":"LYCEE TECHNIQUE ET PROFESSIONNEL PRIVE SARHAOUM MAN","type":"lycee technique","district_region":"TONKPI","departement_commune":null,"verifie":true,"name":"LYCEE TECHNIQUE ET PROFESSIONNEL PRIVE SARHAOUM MAN","nomreg":"TONKPI","codreg":6,"source":"Géoportail ANSTAT"}},{"type":"Feature","geometry":{"type":"Point","coordinates":[-7.564269999999965,7.414900000000046]},"properties":{"id":131369,"nom":"LYCEE TECHNIQUE ET PROFESSIONNEL PRIVE SARHAOUM MAN","type":"lycee technique","district_region":"TONKPI","departement_commune":null,"verifie":true,"name":"LYCEE TECHNIQUE ET PROFESSIONNEL PRIVE SARHAOUM MAN","nomreg":"TONKPI","codreg":6,"source":"Géoportail ANSTAT"}},{"type":"Feature","geometry":{"type":"Point","coordinates":[-6.438711999999953,9.82993300000004]},"properties":{"id":131370,"nom":"LYCEE TECHNIQUE","type":"lycee technique","district_region":"BAGOUE","departement_commune":null,"verifie":true,"name":"LYCEE TECHNIQUE","nomreg":"BAGOUE","codreg":20,"source":"Géoportail ANSTAT"}},{"type":"Feature","geometry":{"type":"Point","coordinates":[-4.008590999999967,5.349879000000044]},"properties":{"id":131371,"nom":"LYCEE TECHNIQUE D ABIDJAN","type":"lycee technique","district_region":"ABIDJAN","departement_commune":null,"verifie":true,"name":"LYCEE TECHNIQUE D ABIDJAN","nomreg":"ABIDJAN","codreg":1,"source":"Géoportail ANSTAT"}},{"type":"Feature","geometry":{"type":"Point","coordinates":[-4.08128499999998,5.357408000000021]},"properties":{"id":131372,"nom":"LYCEE TECHNIQUE DE YOPOUGON","type":"lycee technique","district_region":"ABIDJAN","departement_commune":null,"verifie":true,"name":"LYCEE TECHNIQUE DE YOPOUGON","nomreg":"ABIDJAN","codreg":1,"source":"Géoportail ANSTAT"}}],"metadata":{"dataset":"Lycee technique — ANSTAT","source":"Géoportail ANSTAT","theme":"Éducation","verified":true,"apercu":"complet"}}