{"type":"FeatureCollection","features":[{"type":"Feature","geometry":{"type":"Point","coordinates":[-6.082210999999973,4.954196000000024]},"properties":{"id":36315,"nom":"BRIGADE MOBILE DES DOUANES","type":"poste douane","district_region":null,"departement_commune":null,"verifie":true,"name":"BRIGADE MOBILE DES DOUANES","source":"Géoportail ANSTAT"}},{"type":"Feature","geometry":{"type":"Point","coordinates":[-2.985668999999973,9.269411000000048]},"properties":{"id":36342,"nom":"BRIGADE MOBILE DES DOUANES DE BOUNA","type":"poste douane","district_region":null,"departement_commune":null,"verifie":true,"name":"BRIGADE MOBILE DES DOUANES DE BOUNA","source":"Géoportail ANSTAT"}},{"type":"Feature","geometry":{"type":"Point","coordinates":[-3.033449999999959,5.413265000000024]},"properties":{"id":36385,"nom":"BRIGADE MOBILE DOUANES DE MAFERE","type":"poste douane","district_region":null,"departement_commune":null,"verifie":true,"name":"BRIGADE MOBILE DOUANES DE MAFERE","source":"Géoportail ANSTAT"}},{"type":"Feature","geometry":{"type":"Point","coordinates":[-2.984159999999974,7.892073000000039]},"properties":{"id":36406,"nom":"CAMP DE DOUANE DE GOUMERE","type":"poste douane","district_region":null,"departement_commune":null,"verifie":true,"name":"CAMP DE DOUANE DE GOUMERE","source":"Géoportail ANSTAT"}},{"type":"Feature","geometry":{"type":"Point","coordinates":[-7.479702999999972,10.40492600000005]},"properties":{"id":36414,"nom":"CAMP DE DO7ANES","type":"poste douane","district_region":null,"departement_commune":null,"verifie":true,"name":"CAMP DE DO7ANES","source":"Géoportail ANSTAT"}},{"type":"Feature","geometry":{"type":"Point","coordinates":[-2.985524999999939,9.269125000000033]},"properties":{"id":36440,"nom":"CAMP DOUANE","type":"poste douane","district_region":null,"departement_commune":null,"verifie":true,"name":"CAMP DOUANE","source":"Géoportail ANSTAT"}},{"type":"Feature","geometry":{"type":"Point","coordinates":[-7.565691999999956,9.523131000000037]},"properties":{"id":36464,"nom":"CAMP DOUANE","type":"poste douane","district_region":null,"departement_commune":null,"verifie":true,"name":"CAMP DOUANE","source":"Géoportail ANSTAT"}},{"type":"Feature","geometry":{"type":"Point","coordinates":[-4.60558999999995,9.154784000000063]},"properties":{"id":36895,"nom":"DOUANE BRIGARDE MOBILE DE KONG","type":"poste douane","district_region":null,"departement_commune":null,"verifie":true,"name":"DOUANE BRIGARDE MOBILE DE KONG","source":"Géoportail ANSTAT"}},{"type":"Feature","geometry":{"type":"Point","coordinates":[-5.161314999999945,9.98065900000006]},"properties":{"id":36896,"nom":"DOUANE TERRESTRE DE OUANGOLODOUGOU","type":"poste douane","district_region":null,"departement_commune":null,"verifie":true,"name":"DOUANE TERRESTRE DE OUANGOLODOUGOU","source":"Géoportail ANSTAT"}},{"type":"Feature","geometry":{"type":"Point","coordinates":[-5.190069999999935,9.606555000000071]},"properties":{"id":36898,"nom":"DOUANE","type":"poste douane","district_region":null,"departement_commune":null,"verifie":true,"name":"DOUANE","source":"Géoportail ANSTAT"}},{"type":"Feature","geometry":{"type":"Point","coordinates":[-6.922342999999955,4.653733000000045]},"properties":{"id":36899,"nom":"DOUANE IVOIRIENNE","type":"poste douane","district_region":null,"departement_commune":null,"verifie":true,"name":"DOUANE IVOIRIENNE","source":"Géoportail ANSTAT"}},{"type":"Feature","geometry":{"type":"Point","coordinates":[-7.285849999999925,5.356832000000054]},"properties":{"id":36900,"nom":"DOUANE DE DJOUROUTOU","type":"poste douane","district_region":null,"departement_commune":null,"verifie":true,"name":"DOUANE DE DJOUROUTOU","source":"Géoportail ANSTAT"}},{"type":"Feature","geometry":{"type":"Point","coordinates":[-2.959183999999937,7.240263000000027]},"properties":{"id":36902,"nom":"DOUANE","type":"poste douane","district_region":null,"departement_commune":null,"verifie":true,"name":"DOUANE","source":"Géoportail ANSTAT"}},{"type":"Feature","geometry":{"type":"Point","coordinates":[-3.36915399999998,9.842314000000044]},"properties":{"id":36905,"nom":"DOUANE","type":"poste douane","district_region":null,"departement_commune":null,"verifie":true,"name":"DOUANE","source":"Géoportail ANSTAT"}},{"type":"Feature","geometry":{"type":"Point","coordinates":[-3.201530999999932,6.405423000000042]},"properties":{"id":36907,"nom":"DOUANE D AKATI","type":"poste douane","district_region":null,"departement_commune":null,"verifie":true,"name":"DOUANE D AKATI","source":"Géoportail ANSTAT"}},{"type":"Feature","geometry":{"type":"Point","coordinates":[-2.97895699999998,5.270923000000039]},"properties":{"id":36909,"nom":"DOUANE IVOIRIENNE","type":"poste douane","district_region":null,"departement_commune":null,"verifie":true,"name":"DOUANE IVOIRIENNE","source":"Géoportail ANSTAT"}},{"type":"Feature","geometry":{"type":"Point","coordinates":[-5.26618099999996,6.959311000000071]},"properties":{"id":38389,"nom":"POSTE DE DOUANE","type":"poste douane","district_region":null,"departement_commune":null,"verifie":true,"name":"POSTE DE DOUANE","source":"Géoportail ANSTAT"}},{"type":"Feature","geometry":{"type":"Point","coordinates":[-5.471127999999965,10.10834600000004]},"properties":{"id":38396,"nom":"POSTE DE CONTROLE DOUANE","type":"poste douane","district_region":null,"departement_commune":null,"verifie":true,"name":"POSTE DE CONTROLE DOUANE","source":"Géoportail ANSTAT"}},{"type":"Feature","geometry":{"type":"Point","coordinates":[-7.539874999999938,4.43332300000003]},"properties":{"id":38401,"nom":"POSTE DE DOUANE","type":"poste douane","district_region":null,"departement_commune":null,"verifie":true,"name":"POSTE DE DOUANE","source":"Géoportail ANSTAT"}},{"type":"Feature","geometry":{"type":"Point","coordinates":[-5.948773999999958,10.23676700000004]},"properties":{"id":38404,"nom":"POSTE DE DOUANE NGANDANA","type":"poste douane","district_region":null,"departement_commune":null,"verifie":true,"name":"POSTE DE DOUANE NGANDANA","source":"Géoportail ANSTAT"}},{"type":"Feature","geometry":{"type":"Point","coordinates":[-4.924574999999948,5.285703000000069]},"properties":{"id":38439,"nom":"POSTE DE DOUANE","type":"poste douane","district_region":null,"departement_commune":null,"verifie":true,"name":"POSTE DE DOUANE","source":"Géoportail ANSTAT"}},{"type":"Feature","geometry":{"type":"Point","coordinates":[-2.985768999999948,7.192621000000031]},"properties":{"id":38461,"nom":"POSTE DE DOUANE","type":"poste douane","district_region":null,"departement_commune":null,"verifie":true,"name":"POSTE DE DOUANE","source":"Géoportail ANSTAT"}},{"type":"Feature","geometry":{"type":"Point","coordinates":[-2.983304999999973,7.280624000000046]},"properties":{"id":38463,"nom":"POSTE DE DOUANE","type":"poste douane","district_region":null,"departement_commune":null,"verifie":true,"name":"POSTE DE DOUANE","source":"Géoportail ANSTAT"}},{"type":"Feature","geometry":{"type":"Point","coordinates":[-3.035199999999975,7.286395000000027]},"properties":{"id":38465,"nom":"POSTE DE DOUANE","type":"poste douane","district_region":null,"departement_commune":null,"verifie":true,"name":"POSTE DE DOUANE","source":"Géoportail ANSTAT"}},{"type":"Feature","geometry":{"type":"Point","coordinates":[-3.013838999999962,7.545844000000045]},"properties":{"id":38469,"nom":"POSTE DE DOUANE","type":"poste douane","district_region":null,"departement_commune":null,"verifie":true,"name":"POSTE DE DOUANE","source":"Géoportail ANSTAT"}},{"type":"Feature","geometry":{"type":"Point","coordinates":[-5.043766999999946,7.796473000000049]},"properties":{"id":38482,"nom":"POSTE DE DOUANE D ASSOUAKRO","type":"poste douane","district_region":null,"departement_commune":null,"verifie":true,"name":"POSTE DE DOUANE D ASSOUAKRO","source":"Géoportail ANSTAT"}},{"type":"Feature","geometry":{"type":"Point","coordinates":[-3.426648999999941,9.919021000000043]},"properties":{"id":38495,"nom":"POSTE DE DOUANE FRONTALIER","type":"poste douane","district_region":null,"departement_commune":null,"verifie":true,"name":"POSTE DE DOUANE FRONTALIER","source":"Géoportail ANSTAT"}},{"type":"Feature","geometry":{"type":"Point","coordinates":[-3.620078999999976,6.711011000000042]},"properties":{"id":38562,"nom":"POSTE DE DOUANE DRAMANEKRO","type":"poste douane","district_region":null,"departement_commune":null,"verifie":true,"name":"POSTE DE DOUANE DRAMANEKRO","source":"Géoportail ANSTAT"}},{"type":"Feature","geometry":{"type":"Point","coordinates":[-3.112515999999971,5.093156000000022]},"properties":{"id":38586,"nom":"POSTE DE DOUANE","type":"poste douane","district_region":null,"departement_commune":null,"verifie":true,"name":"POSTE DE DOUANE","source":"Géoportail ANSTAT"}},{"type":"Feature","geometry":{"type":"Point","coordinates":[-3.106631999999934,5.092454000000032]},"properties":{"id":38587,"nom":"POSTE DE DOUANE 2","type":"poste douane","district_region":null,"departement_commune":null,"verifie":true,"name":"POSTE DE DOUANE 2","source":"Géoportail ANSTAT"}},{"type":"Feature","geometry":{"type":"Point","coordinates":[-3.145621999999946,5.127709000000038]},"properties":{"id":38588,"nom":"POSTE DE DOUANE","type":"poste douane","district_region":null,"departement_commune":null,"verifie":true,"name":"POSTE DE DOUANE","source":"Géoportail ANSTAT"}},{"type":"Feature","geometry":{"type":"Point","coordinates":[-3.119343999999955,5.381882000000076]},"properties":{"id":38593,"nom":"POSTE DE DOUANE","type":"poste douane","district_region":null,"departement_commune":null,"verifie":true,"name":"POSTE DE DOUANE","source":"Géoportail ANSTAT"}},{"type":"Feature","geometry":{"type":"Point","coordinates":[-2.786342999999931,5.56155300000006]},"properties":{"id":38594,"nom":"POSTE DE DOUANE","type":"poste douane","district_region":null,"departement_commune":null,"verifie":true,"name":"POSTE DE DOUANE","source":"Géoportail ANSTAT"}},{"type":"Feature","geometry":{"type":"Point","coordinates":[-2.959907999999928,5.403358000000026]},"properties":{"id":38595,"nom":"POSTE DE DOUANE KOUAMEKRO","type":"poste douane","district_region":null,"departement_commune":null,"verifie":true,"name":"POSTE DE DOUANE KOUAMEKRO","source":"Géoportail ANSTAT"}},{"type":"Feature","geometry":{"type":"Point","coordinates":[-8.325687999999957,6.804838000000075]},"properties":{"id":38607,"nom":"POSTE FRONTALIER DE DOUANE DOHOUBA","type":"poste douane","district_region":null,"departement_commune":null,"verifie":true,"name":"POSTE FRONTALIER DE DOUANE DOHOUBA","source":"Géoportail ANSTAT"}},{"type":"Feature","geometry":{"type":"Point","coordinates":[-4.024649999999951,5.304988000000037]},"properties":{"id":39812,"nom":"BRIGARDE DU PORT","type":"poste douane","district_region":null,"departement_commune":null,"verifie":true,"name":"BRIGARDE DU PORT","source":"Géoportail ANSTAT"}},{"type":"Feature","geometry":{"type":"Point","coordinates":[-3.986832999999933,5.266107000000034]},"properties":{"id":39846,"nom":"BRIGADE DE PORT BOUET","type":"poste douane","district_region":null,"departement_commune":null,"verifie":true,"name":"BRIGADE DE PORT BOUET","source":"Géoportail ANSTAT"}},{"type":"Feature","geometry":{"type":"Point","coordinates":[-4.103206999999941,5.367510000000038]},"properties":{"id":39901,"nom":"DOUANE GESCO","type":"poste douane","district_region":null,"departement_commune":null,"verifie":true,"name":"DOUANE GESCO","source":"Géoportail ANSTAT"}},{"type":"Feature","geometry":{"type":"Point","coordinates":[-4.01405699999998,5.297322000000065]},"properties":{"id":40553,"nom":"POSTE DE CONTROLE 3 PORT AUTONOME D ABIDJAN","type":"poste douane","district_region":null,"departement_commune":null,"verifie":true,"name":"POSTE DE CONTROLE 3 PORT AUTONOME D ABIDJAN","source":"Géoportail ANSTAT"}},{"type":"Feature","geometry":{"type":"Point","coordinates":[-4.021998999999937,5.30800000000005]},"properties":{"id":40554,"nom":"POSTE DE DOUANE PORT AUTONOM D ABIDJAN","type":"poste douane","district_region":null,"departement_commune":null,"verifie":true,"name":"POSTE DE DOUANE PORT AUTONOM D ABIDJAN","source":"Géoportail ANSTAT"}},{"type":"Feature","geometry":{"type":"Point","coordinates":[-4.021680999999944,5.308289000000059]},"properties":{"id":40555,"nom":"POSTE GENDARMERIE ENTREE PORT AUTONOME D ABIDJAN","type":"poste douane","district_region":null,"departement_commune":null,"verifie":true,"name":"POSTE GENDARMERIE ENTREE PORT AUTONOME D ABIDJAN","source":"Géoportail ANSTAT"}}],"metadata":{"dataset":"Poste douane — ANSTAT","source":"Géoportail ANSTAT","theme":"Finance","verified":true,"apercu":"complet"}}