{"type":"FeatureCollection","features":[{"type":"Feature","geometry":{"type":"Point","coordinates":[-6.191699999999969,8.076886000000059]},"properties":{"id":36229,"nom":"BASE DES SAPEURS POMPIER CIVIL DE MANKONO","type":"caserne pompier","district_region":null,"departement_commune":null,"verifie":true,"name":"BASE DES SAPEURS POMPIER CIVIL DE MANKONO","source":"Géoportail ANSTAT"}},{"type":"Feature","geometry":{"type":"Point","coordinates":[-7.323500999999965,6.743964000000062]},"properties":{"id":36430,"nom":"CAMP SAPEUR POMPIER","type":"caserne pompier","district_region":null,"departement_commune":null,"verifie":true,"name":"CAMP SAPEUR POMPIER","source":"Géoportail ANSTAT"}},{"type":"Feature","geometry":{"type":"Point","coordinates":[-7.499459999999942,4.91667300000006]},"properties":{"id":36478,"nom":"CASERNE MILITAIRE DE GRABO","type":"caserne pompier","district_region":null,"departement_commune":null,"verifie":true,"name":"CASERNE MILITAIRE DE GRABO","source":"Géoportail ANSTAT"}},{"type":"Feature","geometry":{"type":"Point","coordinates":[-5.646223999999961,9.445936000000074]},"properties":{"id":36479,"nom":"CASERNE PONPIER","type":"caserne pompier","district_region":null,"departement_commune":null,"verifie":true,"name":"CASERNE PONPIER","source":"Géoportail ANSTAT"}},{"type":"Feature","geometry":{"type":"Point","coordinates":[-6.60117699999995,5.955612000000031]},"properties":{"id":36480,"nom":"CASERNE SAPEUR POMPIER MILITAIRE","type":"caserne pompier","district_region":null,"departement_commune":null,"verifie":true,"name":"CASERNE SAPEUR POMPIER MILITAIRE","source":"Géoportail ANSTAT"}},{"type":"Feature","geometry":{"type":"Point","coordinates":[-2.818433999999968,8.011257000000057]},"properties":{"id":36481,"nom":"CASERNE DES SAPEURS POMPIERS","type":"caserne pompier","district_region":null,"departement_commune":null,"verifie":true,"name":"CASERNE DES SAPEURS POMPIERS","source":"Géoportail ANSTAT"}},{"type":"Feature","geometry":{"type":"Point","coordinates":[-2.818066999999928,8.011430000000075]},"properties":{"id":36482,"nom":"CASERNE DES SAPEURS POMPIERS","type":"caserne pompier","district_region":null,"departement_commune":null,"verifie":true,"name":"CASERNE DES SAPEURS POMPIERS","source":"Géoportail ANSTAT"}},{"type":"Feature","geometry":{"type":"Point","coordinates":[-6.649996999999928,7.953873000000044]},"properties":{"id":36483,"nom":"CASERNE D UNITE DE SECOURS ET D URGENCE DE SEGUELA","type":"caserne pompier","district_region":null,"departement_commune":null,"verifie":true,"name":"CASERNE D UNITE DE SECOURS ET D URGENCE DE SEGUELA","source":"Géoportail ANSTAT"}},{"type":"Feature","geometry":{"type":"Point","coordinates":[-3.671297999999979,9.60868400000004]},"properties":{"id":36484,"nom":"CASERNE MILITAIRE","type":"caserne pompier","district_region":null,"departement_commune":null,"verifie":true,"name":"CASERNE MILITAIRE","source":"Géoportail ANSTAT"}},{"type":"Feature","geometry":{"type":"Point","coordinates":[-4.728612999999939,6.656281000000035]},"properties":{"id":36485,"nom":"CASERNE POMPIER","type":"caserne pompier","district_region":null,"departement_commune":null,"verifie":true,"name":"CASERNE POMPIER","source":"Géoportail ANSTAT"}},{"type":"Feature","geometry":{"type":"Point","coordinates":[-4.72854499999994,6.656299000000047]},"properties":{"id":36486,"nom":"CASERNE SAPEUR POMPIER DE DIMBOKRO","type":"caserne pompier","district_region":null,"departement_commune":null,"verifie":true,"name":"CASERNE SAPEUR POMPIER DE DIMBOKRO","source":"Géoportail ANSTAT"}},{"type":"Feature","geometry":{"type":"Point","coordinates":[-7.680717999999956,8.265635000000032]},"properties":{"id":36487,"nom":"CASERNE DES SAPEURS POMPIER DE TOUBA","type":"caserne pompier","district_region":null,"departement_commune":null,"verifie":true,"name":"CASERNE DES SAPEURS POMPIER DE TOUBA","source":"Géoportail ANSTAT"}},{"type":"Feature","geometry":{"type":"Point","coordinates":[-5.241867999999954,6.788136000000065]},"properties":{"id":36488,"nom":"SAPER POMBIER","type":"caserne pompier","district_region":null,"departement_commune":null,"verifie":true,"name":"SAPER POMBIER","source":"Géoportail ANSTAT"}},{"type":"Feature","geometry":{"type":"Point","coordinates":[-5.943752999999958,6.132010000000037]},"properties":{"id":36539,"nom":"CENTRE DE SECOURS D URGENCE","type":"caserne pompier","district_region":null,"departement_commune":null,"verifie":true,"name":"CENTRE DE SECOURS D URGENCE","source":"Géoportail ANSTAT"}},{"type":"Feature","geometry":{"type":"Point","coordinates":[-5.041504999999972,6.543401000000074]},"properties":{"id":36540,"nom":"CENTRE DE SECOURS D URGENCE REGION DU BELIER","type":"caserne pompier","district_region":null,"departement_commune":null,"verifie":true,"name":"CENTRE DE SECOURS D URGENCE REGION DU BELIER","source":"Géoportail ANSTAT"}},{"type":"Feature","geometry":{"type":"Point","coordinates":[-3.014685999999926,9.296060000000068]},"properties":{"id":36541,"nom":"CENTRE DE SECOURS D URGENCE REGION DU BOUNKANI","type":"caserne pompier","district_region":null,"departement_commune":null,"verifie":true,"name":"CENTRE DE SECOURS D URGENCE REGION DU BOUNKANI","source":"Géoportail ANSTAT"}},{"type":"Feature","geometry":{"type":"Point","coordinates":[-6.458773999999949,6.884155000000021]},"properties":{"id":36542,"nom":"CENTRE DE SECOURS D URGENCE DU HAUT SASSANDRA","type":"caserne pompier","district_region":null,"departement_commune":null,"verifie":true,"name":"CENTRE DE SECOURS D URGENCE DU HAUT SASSANDRA","source":"Géoportail ANSTAT"}},{"type":"Feature","geometry":{"type":"Point","coordinates":[-4.212077999999963,5.932521000000065]},"properties":{"id":36543,"nom":"CENTRE DE SECOURS D URGENCE DE L AGNEBY TIASSA","type":"caserne pompier","district_region":null,"departement_commune":null,"verifie":true,"name":"CENTRE DE SECOURS D URGENCE DE L AGNEBY TIASSA","source":"Géoportail ANSTAT"}},{"type":"Feature","geometry":{"type":"Point","coordinates":[-5.366869999999949,5.838384000000076]},"properties":{"id":36544,"nom":"CENTRE DE SECOURS D URGENCE DU LOH DJIBOUA","type":"caserne pompier","district_region":null,"departement_commune":null,"verifie":true,"name":"CENTRE DE SECOURS D URGENCE DU LOH DJIBOUA","source":"Géoportail ANSTAT"}},{"type":"Feature","geometry":{"type":"Point","coordinates":[-6.484684999999956,9.53577400000006]},"properties":{"id":36545,"nom":"CENTRE DE SECOURS D URGENCE DE BOUNDIALI","type":"caserne pompier","district_region":null,"departement_commune":null,"verifie":true,"name":"CENTRE DE SECOURS D URGENCE DE BOUNDIALI","source":"Géoportail ANSTAT"}},{"type":"Feature","geometry":{"type":"Point","coordinates":[-3.510297999999977,6.757269000000065]},"properties":{"id":36546,"nom":"CENTRE DE SECOUR D URGENCE D ABENGOUROU","type":"caserne pompier","district_region":null,"departement_commune":null,"verifie":true,"name":"CENTRE DE SECOUR D URGENCE D ABENGOUROU","source":"Géoportail ANSTAT"}},{"type":"Feature","geometry":{"type":"Point","coordinates":[-3.259709999999927,5.448086000000046]},"properties":{"id":36547,"nom":"CENTRE DE SECOURS D URGENCE DABOISSO","type":"caserne pompier","district_region":null,"departement_commune":null,"verifie":true,"name":"CENTRE DE SECOURS D URGENCE DABOISSO","source":"Géoportail ANSTAT"}},{"type":"Feature","geometry":{"type":"Point","coordinates":[-5.094195999999954,8.115598000000034]},"properties":{"id":36548,"nom":"CENTRE DE SECOURS DE D URGENCE REGION DU HAMBOL","type":"caserne pompier","district_region":null,"departement_commune":null,"verifie":true,"name":"CENTRE DE SECOURS DE D URGENCE REGION DU HAMBOL","source":"Géoportail ANSTAT"}},{"type":"Feature","geometry":{"type":"Point","coordinates":[-7.092975999999965,6.194980000000044]},"properties":{"id":37476,"nom":"LA ZONE  CASERNE OIPR ADK","type":"caserne pompier","district_region":null,"departement_commune":null,"verifie":true,"name":"LA ZONE  CASERNE OIPR ADK","source":"Géoportail ANSTAT"}},{"type":"Feature","geometry":{"type":"Point","coordinates":[-3.964714999999956,7.065170000000023]},"properties":{"id":38614,"nom":"POMPIER CIVILDE DAOUKRO","type":"caserne pompier","district_region":null,"departement_commune":null,"verifie":true,"name":"POMPIER CIVILDE DAOUKRO","source":"Géoportail ANSTAT"}},{"type":"Feature","geometry":{"type":"Point","coordinates":[-4.20225499999998,6.641673000000026]},"properties":{"id":38675,"nom":"SAPEUR POMPIER","type":"caserne pompier","district_region":null,"departement_commune":null,"verifie":true,"name":"SAPEUR POMPIER","source":"Géoportail ANSTAT"}},{"type":"Feature","geometry":{"type":"Point","coordinates":[-6.108154999999954,4.946015000000045]},"properties":{"id":38677,"nom":"SAPEUR POMPIER CIVIL","type":"caserne pompier","district_region":null,"departement_commune":null,"verifie":true,"name":"SAPEUR POMPIER CIVIL","source":"Géoportail ANSTAT"}},{"type":"Feature","geometry":{"type":"Point","coordinates":[-2.800891999999976,8.041265000000067]},"properties":{"id":38678,"nom":"SAPEUR POMPIER MILITAIRE","type":"caserne pompier","district_region":null,"departement_commune":null,"verifie":true,"name":"SAPEUR POMPIER MILITAIRE","source":"Géoportail ANSTAT"}},{"type":"Feature","geometry":{"type":"Point","coordinates":[-4.822959999999966,6.00082800000007]},"properties":{"id":38679,"nom":"SAPEUR POMPIER","type":"caserne pompier","district_region":null,"departement_commune":null,"verifie":true,"name":"SAPEUR POMPIER","source":"Géoportail ANSTAT"}},{"type":"Feature","geometry":{"type":"Point","coordinates":[-5.414336999999932,5.834509000000025]},"properties":{"id":38680,"nom":"SAPEUR POMPIER MILITAIRE","type":"caserne pompier","district_region":null,"departement_commune":null,"verifie":true,"name":"SAPEUR POMPIER MILITAIRE","source":"Géoportail ANSTAT"}},{"type":"Feature","geometry":{"type":"Point","coordinates":[-6.476580999999953,9.52785700000004]},"properties":{"id":38683,"nom":"SAPEUR POMPIER","type":"caserne pompier","district_region":null,"departement_commune":null,"verifie":true,"name":"SAPEUR POMPIER","source":"Géoportail ANSTAT"}},{"type":"Feature","geometry":{"type":"Point","coordinates":[-7.56487999999996,9.511484000000053]},"properties":{"id":38684,"nom":"SAPEUR POMPIER DE ODIENNE","type":"caserne pompier","district_region":null,"departement_commune":null,"verifie":true,"name":"SAPEUR POMPIER DE ODIENNE","source":"Géoportail ANSTAT"}},{"type":"Feature","geometry":{"type":"Point","coordinates":[-3.734822999999949,5.195965000000058]},"properties":{"id":38685,"nom":"SAPEUR POMPIER DE GRAND BASSAM","type":"caserne pompier","district_region":null,"departement_commune":null,"verifie":true,"name":"SAPEUR POMPIER DE GRAND BASSAM","source":"Géoportail ANSTAT"}},{"type":"Feature","geometry":{"type":"Point","coordinates":[-7.589939999999956,7.272786000000053]},"properties":{"id":38688,"nom":"SAPEUR POMPIER","type":"caserne pompier","district_region":null,"departement_commune":null,"verifie":true,"name":"SAPEUR POMPIER","source":"Géoportail ANSTAT"}},{"type":"Feature","geometry":{"type":"Point","coordinates":[-5.289855999999929,6.825845000000072]},"properties":{"id":38751,"nom":"SAMU","type":"caserne pompier","district_region":null,"departement_commune":null,"verifie":true,"name":"SAMU","source":"Géoportail ANSTAT"}},{"type":"Feature","geometry":{"type":"Point","coordinates":[-4.020627999999931,5.336127000000033]},"properties":{"id":40498,"nom":"SERVICE CASERNEMENT","type":"caserne pompier","district_region":null,"departement_commune":null,"verifie":true,"name":"SERVICE CASERNEMENT","source":"Géoportail ANSTAT"}}],"metadata":{"dataset":"Caserne pompier — ANSTAT","source":"Géoportail ANSTAT","theme":"Sécurité","verified":true,"apercu":"complet"}}