{"type":"FeatureCollection","features":[{"type":"Feature","geometry":{"type":"Point","coordinates":[-8.203864,6.918485]},"properties":{"id":131160,"nom":"INSPECTION L ENSEIGNEMENT PRESCOLAIRE ET PRIMAIRE","type":"iepp","district_region":"TONKPI","departement_commune":null,"verifie":true,"name":"INSPECTION L ENSEIGNEMENT PRESCOLAIRE ET PRIMAIRE","nomreg":"TONKPI","codreg":6,"source":"Géoportail ANSTAT"}},{"type":"Feature","geometry":{"type":"Point","coordinates":[-3.158045,7.801396]},"properties":{"id":131152,"nom":"INSPECTION DE L ENSEIGNEMENT PRESCOLAIRE ET PRIMAIRE DE TANDA","type":"iepp","district_region":"GONTOUGO","departement_commune":null,"verifie":true,"name":"INSPECTION DE L ENSEIGNEMENT PRESCOLAIRE ET PRIMAIRE DE TANDA","nomreg":"GONTOUGO","codreg":8,"source":"Géoportail ANSTAT"}},{"type":"Feature","geometry":{"type":"Point","coordinates":[-5.302154,7.846372]},"properties":{"id":131153,"nom":"INSPECTION DE LENSEIGNEMENT PRESCOLAIRE ET PRIMAIRE DE BOTRO","type":"iepp","district_region":"GBEKE","departement_commune":null,"verifie":true,"name":"INSPECTION DE LENSEIGNEMENT PRESCOLAIRE ET PRIMAIRE DE BOTRO","nomreg":"GBEKE","codreg":4,"source":"Géoportail ANSTAT"}},{"type":"Feature","geometry":{"type":"Point","coordinates":[-6.405268,9.888537]},"properties":{"id":131154,"nom":"ANNEXE IEP KOUTO","type":"iepp","district_region":"BAGOUE","departement_commune":null,"verifie":true,"name":"ANNEXE IEP KOUTO","nomreg":"BAGOUE","codreg":20,"source":"Géoportail ANSTAT"}},{"type":"Feature","geometry":{"type":"Point","coordinates":[-7.934216,7.220659]},"properties":{"id":131155,"nom":"INSPECTION DU PRESCOLAIRE ET DU PRIMAIRE","type":"iepp","district_region":"TONKPI","departement_commune":null,"verifie":true,"name":"INSPECTION DU PRESCOLAIRE ET DU PRIMAIRE","nomreg":"TONKPI","codreg":6,"source":"Géoportail ANSTAT"}},{"type":"Feature","geometry":{"type":"Point","coordinates":[-5.589788,9.294219]},"properties":{"id":131156,"nom":"INSPECTION DE L ENSEIGNEMENT PRESCOLAIRE ET PRIMAIRE DE NAPIE","type":"iepp","district_region":"PORO","departement_commune":null,"verifie":true,"name":"INSPECTION DE L ENSEIGNEMENT PRESCOLAIRE ET PRIMAIRE DE NAPIE","nomreg":"PORO","codreg":3,"source":"Géoportail ANSTAT"}},{"type":"Feature","geometry":{"type":"Point","coordinates":[-3.033419,5.413754]},"properties":{"id":131157,"nom":"INSPECTION DE L ENSEIGNEMENT PRESCOLAIRE DE MAFERE","type":"iepp","district_region":"SUD-COMOE","departement_commune":null,"verifie":true,"name":"INSPECTION DE L ENSEIGNEMENT PRESCOLAIRE DE MAFERE","nomreg":"SUD-COMOE","codreg":13,"source":"Géoportail ANSTAT"}},{"type":"Feature","geometry":{"type":"Point","coordinates":[-6.245354,6.903324]},"properties":{"id":131158,"nom":"INSPECTION DE LENSEIGNEMENT PRIMAIRE ET PRESCOLAIRE DE GONATE","type":"iepp","district_region":"HAUT-SASSANDRA","departement_commune":null,"verifie":true,"name":"INSPECTION DE LENSEIGNEMENT PRIMAIRE ET PRESCOLAIRE DE GONATE","nomreg":"HAUT-SASSANDRA","codreg":2,"source":"Géoportail ANSTAT"}},{"type":"Feature","geometry":{"type":"Point","coordinates":[-8.148013,7.266991]},"properties":{"id":131159,"nom":"INSPECTION DE L ENSEIGNEMENT PRESCOLAIRE ET PRIMAIRE DE DANANE","type":"iepp","district_region":"TONKPI","departement_commune":null,"verifie":true,"name":"INSPECTION DE L ENSEIGNEMENT PRESCOLAIRE ET PRIMAIRE DE DANANE","nomreg":"TONKPI","codreg":6,"source":"Géoportail ANSTAT"}},{"type":"Feature","geometry":{"type":"Point","coordinates":[-8.312311,6.784653]},"properties":{"id":131161,"nom":"INSPECTION DE LENSEIGNEMENT PRESCOLAIRE ET PRIMAIRE DE BIN HOUYE","type":"iepp","district_region":"TONKPI","departement_commune":null,"verifie":true,"name":"INSPECTION DE LENSEIGNEMENT PRESCOLAIRE ET PRIMAIRE DE BIN HOUYE","nomreg":"TONKPI","codreg":6,"source":"Géoportail ANSTAT"}},{"type":"Feature","geometry":{"type":"Point","coordinates":[-2.965435,8.292754]},"properties":{"id":131162,"nom":"INSPECTION DE LENSEIGNEMENT PRESCOLAIRE ET PRIMAIRE","type":"iepp","district_region":"GONTOUGO","departement_commune":null,"verifie":true,"name":"INSPECTION DE LENSEIGNEMENT PRESCOLAIRE ET PRIMAIRE","nomreg":"GONTOUGO","codreg":8,"source":"Géoportail ANSTAT"}},{"type":"Feature","geometry":{"type":"Point","coordinates":[-3.432021,8.135646]},"properties":{"id":131163,"nom":"INSPECTION DE ENSEIGNEMENT PRESCOLAIRE ET PRIMAIRE DE TAOUDI","type":"iepp","district_region":"GONTOUGO","departement_commune":null,"verifie":true,"name":"INSPECTION DE ENSEIGNEMENT PRESCOLAIRE ET PRIMAIRE DE TAOUDI","nomreg":"GONTOUGO","codreg":8,"source":"Géoportail ANSTAT"}},{"type":"Feature","geometry":{"type":"Point","coordinates":[-7.56238,9.502024]},"properties":{"id":131164,"nom":"INSPECTION DE L ENSEIGNEMENT PRESCOLAIRE ET PRIMAIRE D ODIENNE 1 ET 2","type":"iepp","district_region":"KABADOUGOU","departement_commune":null,"verifie":true,"name":"INSPECTION DE L ENSEIGNEMENT PRESCOLAIRE ET PRIMAIRE D ODIENNE 1 ET 2","nomreg":"KABADOUGOU","codreg":10,"source":"Géoportail ANSTAT"}},{"type":"Feature","geometry":{"type":"Point","coordinates":[-6.049298,6.925035]},"properties":{"id":131165,"nom":"INSPECTION DE L ENSEIGNEMENT PRESCOLAIRE ET PRIMAIRE DE BONON","type":"iepp","district_region":"MARAHOUE","departement_commune":null,"verifie":true,"name":"INSPECTION DE L ENSEIGNEMENT PRESCOLAIRE ET PRIMAIRE DE BONON","nomreg":"MARAHOUE","codreg":12,"source":"Géoportail ANSTAT"}},{"type":"Feature","geometry":{"type":"Point","coordinates":[-5.772246,9.071515]},"properties":{"id":131166,"nom":"INSPECTION DE LENSEIGNEMENT PRIMAIRE ET PRESCOLAIRE","type":"iepp","district_region":"PORO","departement_commune":null,"verifie":true,"name":"INSPECTION DE LENSEIGNEMENT PRIMAIRE ET PRESCOLAIRE","nomreg":"PORO","codreg":3,"source":"Géoportail ANSTAT"}},{"type":"Feature","geometry":{"type":"Point","coordinates":[-6.174584,6.239706]},"properties":{"id":131167,"nom":"L INSPECTION DE L ENSEIGNEMENT PRESCOLAIRE ET PRIMAIRE DE GUIBEROUA","type":"iepp","district_region":"GOH","departement_commune":null,"verifie":true,"name":"L INSPECTION DE L ENSEIGNEMENT PRESCOLAIRE ET PRIMAIRE DE GUIBEROUA","nomreg":"GOH","codreg":17,"source":"Géoportail ANSTAT"}},{"type":"Feature","geometry":{"type":"Point","coordinates":[-3.300268,5.281888]},"properties":{"id":131168,"nom":"INSPECTION DE LENSEIGNEMENT PRESCOLAIRE ET PRIMAIRE D ADIAKE","type":"iepp","district_region":"SUD-COMOE","departement_commune":null,"verifie":true,"name":"INSPECTION DE LENSEIGNEMENT PRESCOLAIRE ET PRIMAIRE D ADIAKE","nomreg":"SUD-COMOE","codreg":13,"source":"Géoportail ANSTAT"}},{"type":"Feature","geometry":{"type":"Point","coordinates":[-8.418363,6.578144]},"properties":{"id":131169,"nom":"INSPECTION DE LENSEIGNEMENT PRESCOLAIRE ET PRIMAIRE DE TOULEPLEU","type":"iepp","district_region":"CAVALLY","departement_commune":null,"verifie":true,"name":"INSPECTION DE LENSEIGNEMENT PRESCOLAIRE ET PRIMAIRE DE TOULEPLEU","nomreg":"CAVALLY","codreg":18,"source":"Géoportail ANSTAT"}},{"type":"Feature","geometry":{"type":"Point","coordinates":[-6.455009,6.882206]},"properties":{"id":131170,"nom":"INSPECTION DE L ENSEIGEMENT PRESCOLAIRE ET PRIMAIRE","type":"iepp","district_region":"HAUT-SASSANDRA","departement_commune":null,"verifie":true,"name":"INSPECTION DE L ENSEIGEMENT PRESCOLAIRE ET PRIMAIRE","nomreg":"HAUT-SASSANDRA","codreg":2,"source":"Géoportail ANSTAT"}},{"type":"Feature","geometry":{"type":"Point","coordinates":[-4.081956,6.774228]},"properties":{"id":131171,"nom":"INSPECTION DE L ENSEIGNEMENT PRESCOLAIRE ET PRIMAIRE D ANDE","type":"iepp","district_region":"MORONOU","departement_commune":null,"verifie":true,"name":"INSPECTION DE L ENSEIGNEMENT PRESCOLAIRE ET PRIMAIRE D ANDE","nomreg":"MORONOU","codreg":33,"source":"Géoportail ANSTAT"}},{"type":"Feature","geometry":{"type":"Point","coordinates":[-6.451398,6.882695]},"properties":{"id":131172,"nom":"INSPECTION DE LENSEIGNEMENT PRESCOLAIRE ET PRIMAIRE","type":"iepp","district_region":"HAUT-SASSANDRA","departement_commune":null,"verifie":true,"name":"INSPECTION DE LENSEIGNEMENT PRESCOLAIRE ET PRIMAIRE","nomreg":"HAUT-SASSANDRA","codreg":2,"source":"Géoportail ANSTAT"}},{"type":"Feature","geometry":{"type":"Point","coordinates":[-5.094365,8.141429]},"properties":{"id":131173,"nom":"INSPECTION DE LENSEIGNEMENT PRESCOLAIRE DE KATIOLA","type":"iepp","district_region":"HAMBOL","departement_commune":null,"verifie":true,"name":"INSPECTION DE LENSEIGNEMENT PRESCOLAIRE DE KATIOLA","nomreg":"HAMBOL","codreg":28,"source":"Géoportail ANSTAT"}},{"type":"Feature","geometry":{"type":"Point","coordinates":[-5.894872,10.009662]},"properties":{"id":131174,"nom":"INSPECTION DE L ENSEIGNEMENT PRESCOLAIRE ET PRIMAIRE DE M BENGUE","type":"iepp","district_region":"PORO","departement_commune":null,"verifie":true,"name":"INSPECTION DE L ENSEIGNEMENT PRESCOLAIRE ET PRIMAIRE DE M BENGUE","nomreg":"PORO","codreg":3,"source":"Géoportail ANSTAT"}},{"type":"Feature","geometry":{"type":"Point","coordinates":[-5.117807,6.777486]},"properties":{"id":131175,"nom":"INSPECTION DE L ENSEIGNEMENT PRESCOLAIRE ET PRIMAIRE D ATTIEGOUAKRO","type":"iepp","district_region":"YAMOUSSOUKRO","departement_commune":null,"verifie":true,"name":"INSPECTION DE L ENSEIGNEMENT PRESCOLAIRE ET PRIMAIRE D ATTIEGOUAKRO","nomreg":"YAMOUSSOUKRO","codreg":7,"source":"Géoportail ANSTAT"}},{"type":"Feature","geometry":{"type":"Point","coordinates":[-3.02273,5.138818]},"properties":{"id":131176,"nom":"INSPECTION DE L ENSEIGNEMENT PRESCOLAIRE ET PRIMAIRE DE TIAPOUM","type":"iepp","district_region":"SUD-COMOE","departement_commune":null,"verifie":true,"name":"INSPECTION DE L ENSEIGNEMENT PRESCOLAIRE ET PRIMAIRE DE TIAPOUM","nomreg":"SUD-COMOE","codreg":13,"source":"Géoportail ANSTAT"}},{"type":"Feature","geometry":{"type":"Point","coordinates":[-5.960925,6.467072]},"properties":{"id":131177,"nom":"INSPECTION DE L ENSEIGNEMENT PRESCOLAIRE ET PRIMAIRE DE BAYOTA","type":"iepp","district_region":"GOH","departement_commune":null,"verifie":true,"name":"INSPECTION DE L ENSEIGNEMENT PRESCOLAIRE ET PRIMAIRE DE BAYOTA","nomreg":"GOH","codreg":17,"source":"Géoportail ANSTAT"}},{"type":"Feature","geometry":{"type":"Point","coordinates":[-5.393315,9.579779]},"properties":{"id":131178,"nom":"INSPECTION DE L ENSEIGNEMENT PRESCOLAIRE ET PRIMAIRE DE SINEMATIALI","type":"iepp","district_region":"PORO","departement_commune":null,"verifie":true,"name":"INSPECTION DE L ENSEIGNEMENT PRESCOLAIRE ET PRIMAIRE DE SINEMATIALI","nomreg":"PORO","codreg":3,"source":"Géoportail ANSTAT"}},{"type":"Feature","geometry":{"type":"Point","coordinates":[-6.587507,6.489717]},"properties":{"id":131179,"nom":"INSPECTION DE L ENSEIGNEMENT PRESCOLAIRE ET PRIMAIRE ISSIA 1","type":"iepp","district_region":"HAUT-SASSANDRA","departement_commune":null,"verifie":true,"name":"INSPECTION DE L ENSEIGNEMENT PRESCOLAIRE ET PRIMAIRE ISSIA 1","nomreg":"HAUT-SASSANDRA","codreg":2,"source":"Géoportail ANSTAT"}},{"type":"Feature","geometry":{"type":"Point","coordinates":[-7.002628,6.25568]},"properties":{"id":131180,"nom":"INSPECTION DE L ENSEIGNEMENT PRESCOLAIRE  ET PRIMAIRE BUYO2","type":"iepp","district_region":"NAWA","departement_commune":null,"verifie":true,"name":"INSPECTION DE L ENSEIGNEMENT PRESCOLAIRE  ET PRIMAIRE BUYO2","nomreg":"NAWA","codreg":31,"source":"Géoportail ANSTAT"}},{"type":"Feature","geometry":{"type":"Point","coordinates":[-7.355229,4.421237]},"properties":{"id":131181,"nom":"INSPECTION DE LENSEIGNEMENT PRESCOLAIRE ET PRIMAIRE","type":"iepp","district_region":"SAN-PEDRO","departement_commune":null,"verifie":true,"name":"INSPECTION DE LENSEIGNEMENT PRESCOLAIRE ET PRIMAIRE","nomreg":"SAN-PEDRO","codreg":9,"source":"Géoportail ANSTAT"}},{"type":"Feature","geometry":{"type":"Point","coordinates":[-8.009076,6.568758]},"properties":{"id":131182,"nom":"INSPECTION DE L ENSEIGNEMENT PRESCOLAIRE ET PRIMAIRE DE BLOLEQUIN","type":"iepp","district_region":"CAVALLY","departement_commune":null,"verifie":true,"name":"INSPECTION DE L ENSEIGNEMENT PRESCOLAIRE ET PRIMAIRE DE BLOLEQUIN","nomreg":"CAVALLY","codreg":18,"source":"Géoportail ANSTAT"}},{"type":"Feature","geometry":{"type":"Point","coordinates":[-3.203255,7.12124]},"properties":{"id":131183,"nom":"INSPECTION DE L ENSEIGNEMENT PRESCOLAIRE ET PRIMAIRE","type":"iepp","district_region":"INDENIE-DJUABLIN","departement_commune":null,"verifie":true,"name":"INSPECTION DE L ENSEIGNEMENT PRESCOLAIRE ET PRIMAIRE","nomreg":"INDENIE-DJUABLIN","codreg":5,"source":"Géoportail ANSTAT"}},{"type":"Feature","geometry":{"type":"Point","coordinates":[-5.759405,6.990265]},"properties":{"id":131185,"nom":"INSPECTION DE LENSEIGNEMENT PRESCOLAIRE ET PRIMAIRE DE BOUAFLE NORD","type":"iepp","district_region":"MARAHOUE","departement_commune":null,"verifie":true,"name":"INSPECTION DE LENSEIGNEMENT PRESCOLAIRE ET PRIMAIRE DE BOUAFLE NORD","nomreg":"MARAHOUE","codreg":12,"source":"Géoportail ANSTAT"}},{"type":"Feature","geometry":{"type":"Point","coordinates":[-4.883113,7.402126]},"properties":{"id":131186,"nom":"INSPECTION DE L ENSEIGNEMENT PRESCOLAIRE  ET PRIMAIRE DE RAVIART","type":"iepp","district_region":"BELIER","departement_commune":null,"verifie":true,"name":"INSPECTION DE L ENSEIGNEMENT PRESCOLAIRE  ET PRIMAIRE DE RAVIART","nomreg":"BELIER","codreg":21,"source":"Géoportail ANSTAT"}},{"type":"Feature","geometry":{"type":"Point","coordinates":[-7.496635,4.926455]},"properties":{"id":131188,"nom":"INSPECTION DE LENSEIGNEMENT PRESCOLAIRE ET PRIMAIRE DE GRABO","type":"iepp","district_region":"SAN-PEDRO","departement_commune":null,"verifie":true,"name":"INSPECTION DE LENSEIGNEMENT PRESCOLAIRE ET PRIMAIRE DE GRABO","nomreg":"SAN-PEDRO","codreg":9,"source":"Géoportail ANSTAT"}},{"type":"Feature","geometry":{"type":"Point","coordinates":[-2.8053,8.032362]},"properties":{"id":131199,"nom":"INSPECTION DE LENSEIGNEMENT PRESCOLAIRE ET PRIMAIRE DE BONDOUKOU 1","type":"iepp","district_region":"GONTOUGO","departement_commune":null,"verifie":true,"name":"INSPECTION DE LENSEIGNEMENT PRESCOLAIRE ET PRIMAIRE DE BONDOUKOU 1","nomreg":"GONTOUGO","codreg":8,"source":"Géoportail ANSTAT"}},{"type":"Feature","geometry":{"type":"Point","coordinates":[-6.405779,5.765916]},"properties":{"id":131201,"nom":"INSPECTION DE L ENSEIGNEMENT PRESCOLAIRE ET PRIMAIRE D OKROUYO","type":"iepp","district_region":"NAWA","departement_commune":null,"verifie":true,"name":"INSPECTION DE L ENSEIGNEMENT PRESCOLAIRE ET PRIMAIRE D OKROUYO","nomreg":"NAWA","codreg":31,"source":"Géoportail ANSTAT"}},{"type":"Feature","geometry":{"type":"Point","coordinates":[-5.917711,5.259068]},"properties":{"id":131207,"nom":"INSPECTION DE LENSEIGNEMENT  PRIMAIRE ET PRESCOLAIRE","type":"iepp","district_region":"GBOKLE","departement_commune":null,"verifie":true,"name":"INSPECTION DE LENSEIGNEMENT  PRIMAIRE ET PRESCOLAIRE","nomreg":"GBOKLE","codreg":25,"source":"Géoportail ANSTAT"}},{"type":"Feature","geometry":{"type":"Point","coordinates":[-6.472606,7.381138]},"properties":{"id":131210,"nom":"INSPECTION DE L ENSEIGNEMENT PRESCOLAIRE DE VAVOUA","type":"iepp","district_region":"HAUT-SASSANDRA","departement_commune":null,"verifie":true,"name":"INSPECTION DE L ENSEIGNEMENT PRESCOLAIRE DE VAVOUA","nomreg":"HAUT-SASSANDRA","codreg":2,"source":"Géoportail ANSTAT"}},{"type":"Feature","geometry":{"type":"Point","coordinates":[-3.967878,7.054677]},"properties":{"id":131211,"nom":"INSPECTION DE LENSEIGNEMENT PRESCOLAIRE ET SCOLAIRE DE DAOUKRO","type":"iepp","district_region":"IFFOU","departement_commune":null,"verifie":true,"name":"INSPECTION DE LENSEIGNEMENT PRESCOLAIRE ET SCOLAIRE DE DAOUKRO","nomreg":"IFFOU","codreg":29,"source":"Géoportail ANSTAT"}},{"type":"Feature","geometry":{"type":"Point","coordinates":[-7.23752,7.254807]},"properties":{"id":131212,"nom":"INSPECTION DE L ENSEIGNEMENT  PRESCOLAIRE ET PRIMAIRE DE KOUIBLY","type":"iepp","district_region":"GUEMON","departement_commune":null,"verifie":true,"name":"INSPECTION DE L ENSEIGNEMENT  PRESCOLAIRE ET PRIMAIRE DE KOUIBLY","nomreg":"GUEMON","codreg":27,"source":"Géoportail ANSTAT"}},{"type":"Feature","geometry":{"type":"Point","coordinates":[-6.674574,7.961377]},"properties":{"id":131213,"nom":"INSPECTION DE LENSEIGNEMENT PRIMAIRE ET PRESCOLAIRE DE SEGUELA","type":"iepp","district_region":"WORODOUGOU","departement_commune":null,"verifie":true,"name":"INSPECTION DE LENSEIGNEMENT PRIMAIRE ET PRESCOLAIRE DE SEGUELA","nomreg":"WORODOUGOU","codreg":14,"source":"Géoportail ANSTAT"}},{"type":"Feature","geometry":{"type":"Point","coordinates":[-6.936986,9.613961]},"properties":{"id":131216,"nom":"INSPECTION DE ENSEIGNEMENT PRIMAIRE ET PRESCOLAIRE","type":"iepp","district_region":"KABADOUGOU","departement_commune":null,"verifie":true,"name":"INSPECTION DE ENSEIGNEMENT PRIMAIRE ET PRESCOLAIRE","nomreg":"KABADOUGOU","codreg":10,"source":"Géoportail ANSTAT"}},{"type":"Feature","geometry":{"type":"Point","coordinates":[-5.125188,8.213695]},"properties":{"id":131217,"nom":"INSPECTION DE LENSEIGNEMENT PRESCOLAIRE ET PRIMAIRE DE FRONAN","type":"iepp","district_region":"HAMBOL","departement_commune":null,"verifie":true,"name":"INSPECTION DE LENSEIGNEMENT PRESCOLAIRE ET PRIMAIRE DE FRONAN","nomreg":"HAMBOL","codreg":28,"source":"Géoportail ANSTAT"}},{"type":"Feature","geometry":{"type":"Point","coordinates":[-6.844986,6.5498]},"properties":{"id":131218,"nom":"INSPECTION DE L EDUCATION PRIMAIRE ET PRESCOLAIRE","type":"iepp","district_region":"HAUT-SASSANDRA","departement_commune":null,"verifie":true,"name":"INSPECTION DE L EDUCATION PRIMAIRE ET PRESCOLAIRE","nomreg":"HAUT-SASSANDRA","codreg":2,"source":"Géoportail ANSTAT"}},{"type":"Feature","geometry":{"type":"Point","coordinates":[-5.942235,6.130011]},"properties":{"id":131219,"nom":"INSPECTION DE L ENSEIGNEMENT PRESCOLAIRE ET PRIMAIRE","type":"iepp","district_region":"GOH","departement_commune":null,"verifie":true,"name":"INSPECTION DE L ENSEIGNEMENT PRESCOLAIRE ET PRIMAIRE","nomreg":"GOH","codreg":17,"source":"Géoportail ANSTAT"}},{"type":"Feature","geometry":{"type":"Point","coordinates":[-7.777721,7.270215]},"properties":{"id":131221,"nom":"INSPECTION DE L EDUCATION PRIMAIRE ET PRESCOLAIRE DE SAN SANGOUINE","type":"iepp","district_region":"TONKPI","departement_commune":null,"verifie":true,"name":"INSPECTION DE L EDUCATION PRIMAIRE ET PRESCOLAIRE DE SAN SANGOUINE","nomreg":"TONKPI","codreg":6,"source":"Géoportail ANSTAT"}},{"type":"Feature","geometry":{"type":"Point","coordinates":[-2.805258,8.028419]},"properties":{"id":131223,"nom":"INSPECTION DE L ENSEIGNEMENT PRIMAIRE ET PRESCOLAIRE BONDOUKOU 2","type":"iepp","district_region":"GONTOUGO","departement_commune":null,"verifie":true,"name":"INSPECTION DE L ENSEIGNEMENT PRIMAIRE ET PRESCOLAIRE BONDOUKOU 2","nomreg":"GONTOUGO","codreg":8,"source":"Géoportail ANSTAT"}},{"type":"Feature","geometry":{"type":"Point","coordinates":[-4.824716,5.890206]},"properties":{"id":131224,"nom":"INSPECTION DE L ENSEIGNEMENT PRESCOLAIRE ET PRIMAIRE TIASSALE 1","type":"iepp","district_region":"AGNEBY-TIASSA","departement_commune":null,"verifie":true,"name":"INSPECTION DE L ENSEIGNEMENT PRESCOLAIRE ET PRIMAIRE TIASSALE 1","nomreg":"AGNEBY-TIASSA","codreg":16,"source":"Géoportail ANSTAT"}},{"type":"Feature","geometry":{"type":"Point","coordinates":[-6.64477,4.754655]},"properties":{"id":131225,"nom":"INSPECTION DE L ENSEIGNEMENT PRIMAIRE","type":"iepp","district_region":"SAN-PEDRO","departement_commune":null,"verifie":true,"name":"INSPECTION DE L ENSEIGNEMENT PRIMAIRE","nomreg":"SAN-PEDRO","codreg":9,"source":"Géoportail ANSTAT"}},{"type":"Feature","geometry":{"type":"Point","coordinates":[-6.400713,6.087522]},"properties":{"id":131226,"nom":"INSPECTION DE MAYO","type":"iepp","district_region":"NAWA","departement_commune":null,"verifie":true,"name":"INSPECTION DE MAYO","nomreg":"NAWA","codreg":31,"source":"Géoportail ANSTAT"}},{"type":"Feature","geometry":{"type":"Point","coordinates":[-6.998195,6.273799]},"properties":{"id":131227,"nom":"INSPECTION DE  L ENSEIGNEMENT PRIMAIRE DE BUYO","type":"iepp","district_region":"NAWA","departement_commune":null,"verifie":true,"name":"INSPECTION DE  L ENSEIGNEMENT PRIMAIRE DE BUYO","nomreg":"NAWA","codreg":31,"source":"Géoportail ANSTAT"}},{"type":"Feature","geometry":{"type":"Point","coordinates":[-7.37464,7.391032]},"properties":{"id":131228,"nom":"IEP DE FAKOBLY","type":"iepp","district_region":"GUEMON","departement_commune":null,"verifie":true,"name":"IEP DE FAKOBLY","nomreg":"GUEMON","codreg":27,"source":"Géoportail ANSTAT"}},{"type":"Feature","geometry":{"type":"Point","coordinates":[-6.1187,5.904074]},"properties":{"id":131229,"nom":"INSPECTION PRIMAIRE DE SERIHIO","type":"iepp","district_region":"GOH","departement_commune":null,"verifie":true,"name":"INSPECTION PRIMAIRE DE SERIHIO","nomreg":"GOH","codreg":17,"source":"Géoportail ANSTAT"}},{"type":"Feature","geometry":{"type":"Point","coordinates":[-5.944946,6.131521]},"properties":{"id":131230,"nom":"IEPP","type":"iepp","district_region":"GOH","departement_commune":null,"verifie":true,"name":"IEPP","nomreg":"GOH","codreg":17,"source":"Géoportail ANSTAT"}},{"type":"Feature","geometry":{"type":"Point","coordinates":[-6.081649,4.955242]},"properties":{"id":131231,"nom":"INSPECTION  DE L ENSEIGNEMENT PRIMAIRE DE SASSANDRA","type":"iepp","district_region":"GBOKLE","departement_commune":null,"verifie":true,"name":"INSPECTION  DE L ENSEIGNEMENT PRIMAIRE DE SASSANDRA","nomreg":"GBOKLE","codreg":25,"source":"Géoportail ANSTAT"}},{"type":"Feature","geometry":{"type":"Point","coordinates":[-3.197258,7.348069]},"properties":{"id":131232,"nom":"INSPECTION DE LENSEIGNEMENT PRESCOLAIRE ET PRIMAIRE DE TANKESSE","type":"iepp","district_region":"GONTOUGO","departement_commune":null,"verifie":true,"name":"INSPECTION DE LENSEIGNEMENT PRESCOLAIRE ET PRIMAIRE DE TANKESSE","nomreg":"GONTOUGO","codreg":8,"source":"Géoportail ANSTAT"}},{"type":"Feature","geometry":{"type":"Point","coordinates":[-3.278978,7.88013]},"properties":{"id":131233,"nom":"INSPECTION DE TIEDIO","type":"iepp","district_region":"GONTOUGO","departement_commune":null,"verifie":true,"name":"INSPECTION DE TIEDIO","nomreg":"GONTOUGO","codreg":8,"source":"Géoportail ANSTAT"}},{"type":"Feature","geometry":{"type":"Point","coordinates":[-3.010214,7.544183]},"properties":{"id":131234,"nom":"INSPECTION DE LEDUCATION DE TRANSUA","type":"iepp","district_region":"GONTOUGO","departement_commune":null,"verifie":true,"name":"INSPECTION DE LEDUCATION DE TRANSUA","nomreg":"GONTOUGO","codreg":8,"source":"Géoportail ANSTAT"}},{"type":"Feature","geometry":{"type":"Point","coordinates":[-6.906428,8.272659]},"properties":{"id":131235,"nom":"IEPP DE WOROFLA","type":"iepp","district_region":"WORODOUGOU","departement_commune":null,"verifie":true,"name":"IEPP DE WOROFLA","nomreg":"WORODOUGOU","codreg":14,"source":"Géoportail ANSTAT"}},{"type":"Feature","geometry":{"type":"Point","coordinates":[-6.782782,8.953419]},"properties":{"id":131236,"nom":"INSPECTION PRIMAIRE","type":"iepp","district_region":"WORODOUGOU","departement_commune":null,"verifie":true,"name":"INSPECTION PRIMAIRE","nomreg":"WORODOUGOU","codreg":14,"source":"Géoportail ANSTAT"}},{"type":"Feature","geometry":{"type":"Point","coordinates":[-6.604024,8.478754]},"properties":{"id":131237,"nom":"INPECTION DE KANI","type":"iepp","district_region":"WORODOUGOU","departement_commune":null,"verifie":true,"name":"INPECTION DE KANI","nomreg":"WORODOUGOU","codreg":14,"source":"Géoportail ANSTAT"}},{"type":"Feature","geometry":{"type":"Point","coordinates":[-6.60402,8.478754]},"properties":{"id":131238,"nom":"INPECTION DE KANI","type":"iepp","district_region":"WORODOUGOU","departement_commune":null,"verifie":true,"name":"INPECTION DE KANI","nomreg":"WORODOUGOU","codreg":14,"source":"Géoportail ANSTAT"}},{"type":"Feature","geometry":{"type":"Point","coordinates":[-6.684335,7.960737]},"properties":{"id":131239,"nom":"INSPECTION DUBTRAVAIL DE SEGUELA","type":"iepp","district_region":"WORODOUGOU","departement_commune":null,"verifie":true,"name":"INSPECTION DUBTRAVAIL DE SEGUELA","nomreg":"WORODOUGOU","codreg":14,"source":"Géoportail ANSTAT"}},{"type":"Feature","geometry":{"type":"Point","coordinates":[-6.044476,6.616342]},"properties":{"id":131240,"nom":"INSOECTION DE L ENSEIGNEMEMT PRIMIERE","type":"iepp","district_region":"MARAHOUE","departement_commune":null,"verifie":true,"name":"INSOECTION DE L ENSEIGNEMEMT PRIMIERE","nomreg":"MARAHOUE","codreg":12,"source":"Géoportail ANSTAT"}},{"type":"Feature","geometry":{"type":"Point","coordinates":[-5.922163,6.609117]},"properties":{"id":131241,"nom":"IEP","type":"iepp","district_region":"MARAHOUE","departement_commune":null,"verifie":true,"name":"IEP","nomreg":"MARAHOUE","codreg":12,"source":"Géoportail ANSTAT"}},{"type":"Feature","geometry":{"type":"Point","coordinates":[-5.013645,7.671682]},"properties":{"id":131242,"nom":"INSPECTION DE LENSEIGNEMENT PRIMAIRE","type":"iepp","district_region":"GBEKE","departement_commune":null,"verifie":true,"name":"INSPECTION DE LENSEIGNEMENT PRIMAIRE","nomreg":"GBEKE","codreg":4,"source":"Géoportail ANSTAT"}},{"type":"Feature","geometry":{"type":"Point","coordinates":[-5.02494,7.682314]},"properties":{"id":131243,"nom":"INSPECTION DE TRAVAIL","type":"iepp","district_region":"GBEKE","departement_commune":null,"verifie":true,"name":"INSPECTION DE TRAVAIL","nomreg":"GBEKE","codreg":4,"source":"Géoportail ANSTAT"}},{"type":"Feature","geometry":{"type":"Point","coordinates":[-5.57605,7.671477]},"properties":{"id":131244,"nom":"INSPECTION DE ENSEIGNEMENT PRIMAIRE DE BEOUMI","type":"iepp","district_region":"GBEKE","departement_commune":null,"verifie":true,"name":"INSPECTION DE ENSEIGNEMENT PRIMAIRE DE BEOUMI","nomreg":"GBEKE","codreg":4,"source":"Géoportail ANSTAT"}},{"type":"Feature","geometry":{"type":"Point","coordinates":[-5.170384,7.786008]},"properties":{"id":131245,"nom":"INSPECTION ENSEIGNEMENT PRIMAIRE","type":"iepp","district_region":"GBEKE","departement_commune":null,"verifie":true,"name":"INSPECTION ENSEIGNEMENT PRIMAIRE","nomreg":"GBEKE","codreg":4,"source":"Géoportail ANSTAT"}},{"type":"Feature","geometry":{"type":"Point","coordinates":[-3.004229,9.268053]},"properties":{"id":131246,"nom":"INSPECTION DU TRAVAIL","type":"iepp","district_region":"BOUNKANI","departement_commune":null,"verifie":true,"name":"INSPECTION DU TRAVAIL","nomreg":"BOUNKANI","codreg":23,"source":"Géoportail ANSTAT"}},{"type":"Feature","geometry":{"type":"Point","coordinates":[-4.503611,7.06259]},"properties":{"id":131247,"nom":"IEPP DE BOCANDA","type":"iepp","district_region":"N ZI","departement_commune":null,"verifie":true,"name":"IEPP DE BOCANDA","nomreg":"N ZI","codreg":11,"source":"Géoportail ANSTAT"}},{"type":"Feature","geometry":{"type":"Point","coordinates":[-7.457438,5.87232]},"properties":{"id":131248,"nom":"IEPP TAI","type":"iepp","district_region":"CAVALLY","departement_commune":null,"verifie":true,"name":"IEPP TAI","nomreg":"CAVALLY","codreg":18,"source":"Géoportail ANSTAT"}},{"type":"Feature","geometry":{"type":"Point","coordinates":[-4.756984,5.855765]},"properties":{"id":131249,"nom":"INSPECTION D EDUCATION PRIMAIRE","type":"iepp","district_region":"AGNEBY-TIASSA","departement_commune":null,"verifie":true,"name":"INSPECTION D EDUCATION PRIMAIRE","nomreg":"AGNEBY-TIASSA","codreg":16,"source":"Géoportail ANSTAT"}},{"type":"Feature","geometry":{"type":"Point","coordinates":[-4.575382,5.656035]},"properties":{"id":131250,"nom":"INSPECTION DE LENSEIGNEMENT PRIMAIRE","type":"iepp","district_region":"AGNEBY-TIASSA","departement_commune":null,"verifie":true,"name":"INSPECTION DE LENSEIGNEMENT PRIMAIRE","nomreg":"AGNEBY-TIASSA","codreg":16,"source":"Géoportail ANSTAT"}},{"type":"Feature","geometry":{"type":"Point","coordinates":[-4.13153,5.979003]},"properties":{"id":131251,"nom":"INSPECTION DE GRANG MORIE","type":"iepp","district_region":"AGNEBY-TIASSA","departement_commune":null,"verifie":true,"name":"INSPECTION DE GRANG MORIE","nomreg":"AGNEBY-TIASSA","codreg":16,"source":"Géoportail ANSTAT"}},{"type":"Feature","geometry":{"type":"Point","coordinates":[-5.702474,6.066828]},"properties":{"id":131252,"nom":"IEP ZIKISSO","type":"iepp","district_region":"LOH-DJIBOUA","departement_commune":null,"verifie":true,"name":"IEP ZIKISSO","nomreg":"LOH-DJIBOUA","codreg":15,"source":"Géoportail ANSTAT"}},{"type":"Feature","geometry":{"type":"Point","coordinates":[-5.243888,5.52483]},"properties":{"id":131253,"nom":"IEPP GUITY","type":"iepp","district_region":"LOH-DJIBOUA","departement_commune":null,"verifie":true,"name":"IEPP GUITY","nomreg":"LOH-DJIBOUA","codreg":15,"source":"Géoportail ANSTAT"}},{"type":"Feature","geometry":{"type":"Point","coordinates":[-6.478482,9.518888]},"properties":{"id":131254,"nom":"INSPECTION DU PRIMAIRE","type":"iepp","district_region":"BAGOUE","departement_commune":null,"verifie":true,"name":"INSPECTION DU PRIMAIRE","nomreg":"BAGOUE","codreg":20,"source":"Géoportail ANSTAT"}},{"type":"Feature","geometry":{"type":"Point","coordinates":[-5.714749,8.185145]},"properties":{"id":131255,"nom":"INSPECTION PRIMAIRE","type":"iepp","district_region":"BERE","departement_commune":null,"verifie":true,"name":"INSPECTION PRIMAIRE","nomreg":"BERE","codreg":22,"source":"Géoportail ANSTAT"}},{"type":"Feature","geometry":{"type":"Point","coordinates":[-6.167648,8.416986]},"properties":{"id":131256,"nom":"IEPP SARHALA","type":"iepp","district_region":"BERE","departement_commune":null,"verifie":true,"name":"IEPP SARHALA","nomreg":"BERE","codreg":22,"source":"Géoportail ANSTAT"}},{"type":"Feature","geometry":{"type":"Point","coordinates":[-3.414615,6.95711]},"properties":{"id":131257,"nom":"INSPECTION DE L ENSEIGNEMENT PRESCOLAIR ET PRIMAIRE DE YAKASSE FEYASSE","type":"iepp","district_region":"INDENIE-DJUABLIN","departement_commune":null,"verifie":true,"name":"INSPECTION DE L ENSEIGNEMENT PRESCOLAIR ET PRIMAIRE DE YAKASSE FEYASSE","nomreg":"INDENIE-DJUABLIN","codreg":5,"source":"Géoportail ANSTAT"}},{"type":"Feature","geometry":{"type":"Point","coordinates":[-3.489362,6.731324]},"properties":{"id":131258,"nom":"INSPECTION DE L ENSEIGNEMENT PRIMAIRE ABENGOUROU 1","type":"iepp","district_region":"INDENIE-DJUABLIN","departement_commune":null,"verifie":true,"name":"INSPECTION DE L ENSEIGNEMENT PRIMAIRE ABENGOUROU 1","nomreg":"INDENIE-DJUABLIN","codreg":5,"source":"Géoportail ANSTAT"}},{"type":"Feature","geometry":{"type":"Point","coordinates":[-3.887363,6.395846]},"properties":{"id":131260,"nom":"INSPECTION DE L ENSEIGNEMENT PRIMAIRE AKOUPE","type":"iepp","district_region":"LA ME","departement_commune":null,"verifie":true,"name":"INSPECTION DE L ENSEIGNEMENT PRIMAIRE AKOUPE","nomreg":"LA ME","codreg":30,"source":"Géoportail ANSTAT"}},{"type":"Feature","geometry":{"type":"Point","coordinates":[-7.553832,7.405348]},"properties":{"id":131261,"nom":"INSPECTION DU TRAVAIL MAN","type":"iepp","district_region":"TONKPI","departement_commune":null,"verifie":true,"name":"INSPECTION DU TRAVAIL MAN","nomreg":"TONKPI","codreg":6,"source":"Géoportail ANSTAT"}},{"type":"Feature","geometry":{"type":"Point","coordinates":[-3.997455,7.651247]},"properties":{"id":131262,"nom":"IEP PRIKRO","type":"iepp","district_region":"IFFOU","departement_commune":null,"verifie":true,"name":"IEP PRIKRO","nomreg":"IFFOU","codreg":29,"source":"Géoportail ANSTAT"}},{"type":"Feature","geometry":{"type":"Point","coordinates":[-4.010706,7.293328]},"properties":{"id":131263,"nom":"I E P OUELLE","type":"iepp","district_region":"IFFOU","departement_commune":null,"verifie":true,"name":"I E P OUELLE","nomreg":"IFFOU","codreg":29,"source":"Géoportail ANSTAT"}},{"type":"Feature","geometry":{"type":"Point","coordinates":[-7.495751,4.916946]},"properties":{"id":131264,"nom":"INSPECTION GENERALE DE LENSEIGNEMENT","type":"iepp","district_region":"SAN-PEDRO","departement_commune":null,"verifie":true,"name":"INSPECTION GENERALE DE LENSEIGNEMENT","nomreg":"SAN-PEDRO","codreg":9,"source":"Géoportail ANSTAT"}},{"type":"Feature","geometry":{"type":"Point","coordinates":[-6.597041,5.784576]},"properties":{"id":131265,"nom":"INSPECTION 1","type":"iepp","district_region":"NAWA","departement_commune":null,"verifie":true,"name":"INSPECTION 1","nomreg":"NAWA","codreg":31,"source":"Géoportail ANSTAT"}},{"type":"Feature","geometry":{"type":"Point","coordinates":[-4.364853,6.469152]},"properties":{"id":131266,"nom":"INSPECTION","type":"iepp","district_region":"MORONOU","departement_commune":null,"verifie":true,"name":"INSPECTION","nomreg":"MORONOU","codreg":33,"source":"Géoportail ANSTAT"}},{"type":"Feature","geometry":{"type":"Point","coordinates":[-3.582254,7.95344]},"properties":{"id":131267,"nom":"INSPECTION PRIMAIRE DE SANDEGUE","type":"iepp","district_region":"GONTOUGO","departement_commune":null,"verifie":true,"name":"INSPECTION PRIMAIRE DE SANDEGUE","nomreg":"GONTOUGO","codreg":8,"source":"Géoportail ANSTAT"}},{"type":"Feature","geometry":{"type":"Point","coordinates":[-2.979051,7.701146]},"properties":{"id":131268,"nom":"INSPECTION","type":"iepp","district_region":"GONTOUGO","departement_commune":null,"verifie":true,"name":"INSPECTION","nomreg":"GONTOUGO","codreg":8,"source":"Géoportail ANSTAT"}},{"type":"Feature","geometry":{"type":"Point","coordinates":[-5.743889,6.981351]},"properties":{"id":131269,"nom":"INSPECTION DE L ENSEIGNEMENT PRIMAIRE","type":"iepp","district_region":"MARAHOUE","departement_commune":null,"verifie":true,"name":"INSPECTION DE L ENSEIGNEMENT PRIMAIRE","nomreg":"MARAHOUE","codreg":12,"source":"Géoportail ANSTAT"}},{"type":"Feature","geometry":{"type":"Point","coordinates":[-5.608187,6.650016]},"properties":{"id":131270,"nom":"INSPECTION DE LENSEIGNEMENT PRIMAIRE DE KONONFLA","type":"iepp","district_region":"MARAHOUE","departement_commune":null,"verifie":true,"name":"INSPECTION DE LENSEIGNEMENT PRIMAIRE DE KONONFLA","nomreg":"MARAHOUE","codreg":12,"source":"Géoportail ANSTAT"}},{"type":"Feature","geometry":{"type":"Point","coordinates":[-3.658321,9.603225]},"properties":{"id":131271,"nom":"INSPECTION DE L ENSEIGNEMENT PUBLIQUE ET PRIMAIRE","type":"iepp","district_region":"BOUNKANI","departement_commune":null,"verifie":true,"name":"INSPECTION DE L ENSEIGNEMENT PUBLIQUE ET PRIMAIRE","nomreg":"BOUNKANI","codreg":23,"source":"Géoportail ANSTAT"}},{"type":"Feature","geometry":{"type":"Point","coordinates":[-4.274989,7.070277]},"properties":{"id":131272,"nom":"INSPECTION DE NZECREZESSOU","type":"iepp","district_region":"N ZI","departement_commune":null,"verifie":true,"name":"INSPECTION DE NZECREZESSOU","nomreg":"N ZI","codreg":11,"source":"Géoportail ANSTAT"}},{"type":"Feature","geometry":{"type":"Point","coordinates":[-6.48019,7.390784]},"properties":{"id":131273,"nom":"INSPECTION DE L ENSEIGNEMENT PRESCOCLAIRE ET PRIMAIRE DE SEITIFLA","type":"iepp","district_region":"HAUT-SASSANDRA","departement_commune":null,"verifie":true,"name":"INSPECTION DE L ENSEIGNEMENT PRESCOCLAIRE ET PRIMAIRE DE SEITIFLA","nomreg":"HAUT-SASSANDRA","codreg":2,"source":"Géoportail ANSTAT"}},{"type":"Feature","geometry":{"type":"Point","coordinates":[-6.152429,6.673517]},"properties":{"id":131274,"nom":"INSPECTION DE L ENSEIGNEMENT PRIMAIRE GADOUAN","type":"iepp","district_region":"HAUT-SASSANDRA","departement_commune":null,"verifie":true,"name":"INSPECTION DE L ENSEIGNEMENT PRIMAIRE GADOUAN","nomreg":"HAUT-SASSANDRA","codreg":2,"source":"Géoportail ANSTAT"}},{"type":"Feature","geometry":{"type":"Point","coordinates":[-7.465794,8.554795]},"properties":{"id":131275,"nom":"INSPECTION","type":"iepp","district_region":"BAFING","departement_commune":null,"verifie":true,"name":"INSPECTION","nomreg":"BAFING","codreg":19,"source":"Géoportail ANSTAT"}},{"type":"Feature","geometry":{"type":"Point","coordinates":[-5.298985,6.198322]},"properties":{"id":131276,"nom":"INSPECTION DE HIRE","type":"iepp","district_region":"LOH-DJIBOUA","departement_commune":null,"verifie":true,"name":"INSPECTION DE HIRE","nomreg":"LOH-DJIBOUA","codreg":15,"source":"Géoportail ANSTAT"}},{"type":"Feature","geometry":{"type":"Point","coordinates":[-6.403714,10.476308]},"properties":{"id":131277,"nom":"INSPECTION DE LENSEIGNEMENT PRIMAIRE DE TENGRELA","type":"iepp","district_region":"BAGOUE","departement_commune":null,"verifie":true,"name":"INSPECTION DE LENSEIGNEMENT PRIMAIRE DE TENGRELA","nomreg":"BAGOUE","codreg":20,"source":"Géoportail ANSTAT"}},{"type":"Feature","geometry":{"type":"Point","coordinates":[-3.279397,6.653281]},"properties":{"id":131278,"nom":"INSPECTION DE L ENSEIGNEMENT PRESCOLAIRE ET PRIMAIRE DE NIABLE","type":"iepp","district_region":"INDENIE-DJUABLIN","departement_commune":null,"verifie":true,"name":"INSPECTION DE L ENSEIGNEMENT PRESCOLAIRE ET PRIMAIRE DE NIABLE","nomreg":"INDENIE-DJUABLIN","codreg":5,"source":"Géoportail ANSTAT"}},{"type":"Feature","geometry":{"type":"Point","coordinates":[-3.398451,5.73605]},"properties":{"id":131279,"nom":"INSPECTION DE ABOISSOCOMOE","type":"iepp","district_region":"LA ME","departement_commune":null,"verifie":true,"name":"INSPECTION DE ABOISSOCOMOE","nomreg":"LA ME","codreg":30,"source":"Géoportail ANSTAT"}},{"type":"Feature","geometry":{"type":"Point","coordinates":[-4.336063,7.45631]},"properties":{"id":131280,"nom":"INSPECTION DE L ENSEIGNEMENT PRIMAIRE","type":"iepp","district_region":"IFFOU","departement_commune":null,"verifie":true,"name":"INSPECTION DE L ENSEIGNEMENT PRIMAIRE","nomreg":"IFFOU","codreg":29,"source":"Géoportail ANSTAT"}},{"type":"Feature","geometry":{"type":"Point","coordinates":[-3.760125,7.258595]},"properties":{"id":131281,"nom":"INSPECTION DE LENSEIGNEMENT PRIMAIRE","type":"iepp","district_region":"IFFOU","departement_commune":null,"verifie":true,"name":"INSPECTION DE LENSEIGNEMENT PRIMAIRE","nomreg":"IFFOU","codreg":29,"source":"Géoportail ANSTAT"}},{"type":"Feature","geometry":{"type":"Point","coordinates":[-4.385923,5.319201]},"properties":{"id":131282,"nom":"INSPECTION DE L ENSEIGNEMENT PRESCOLAIRE ET PRIMAIRE DE DABOU","type":"iepp","district_region":"GRAND-PONTS","departement_commune":null,"verifie":true,"name":"INSPECTION DE L ENSEIGNEMENT PRESCOLAIRE ET PRIMAIRE DE DABOU","nomreg":"GRAND-PONTS","codreg":26,"source":"Géoportail ANSTAT"}},{"type":"Feature","geometry":{"type":"Point","coordinates":[-5.023976,6.5546]},"properties":{"id":131283,"nom":"INSPECTION DE L ENSEIGNEMENT PRESCOLAIRE ET PRIMAIRE","type":"iepp","district_region":"BELIER","departement_commune":null,"verifie":true,"name":"INSPECTION DE L ENSEIGNEMENT PRESCOLAIRE ET PRIMAIRE","nomreg":"BELIER","codreg":21,"source":"Géoportail ANSTAT"}},{"type":"Feature","geometry":{"type":"Point","coordinates":[-6.936475,4.657316]},"properties":{"id":131285,"nom":"INSPECTION DE L ENSEIGNEMENT PRESCOLAIRE ET PRIMAIRE DE GRAND BEREBY","type":"iepp","district_region":"SAN-PEDRO","departement_commune":null,"verifie":true,"name":"INSPECTION DE L ENSEIGNEMENT PRESCOLAIRE ET PRIMAIRE DE GRAND BEREBY","nomreg":"SAN-PEDRO","codreg":9,"source":"Géoportail ANSTAT"}},{"type":"Feature","geometry":{"type":"Point","coordinates":[-6.435192,6.895232]},"properties":{"id":131286,"nom":"INSPECTION DE L ENSEIGNEMENT PRESCOLAIRE ET PRIMAIRE","type":"iepp","district_region":"HAUT-SASSANDRA","departement_commune":null,"verifie":true,"name":"INSPECTION DE L ENSEIGNEMENT PRESCOLAIRE ET PRIMAIRE","nomreg":"HAUT-SASSANDRA","codreg":2,"source":"Géoportail ANSTAT"}},{"type":"Feature","geometry":{"type":"Point","coordinates":[-5.288705,8.656014]},"properties":{"id":131287,"nom":"INSPECTION DE LENSEIGNEMENT PRIMAIRE ET PRESCOLAIRE","type":"iepp","district_region":"HAMBOL","departement_commune":null,"verifie":true,"name":"INSPECTION DE LENSEIGNEMENT PRIMAIRE ET PRESCOLAIRE","nomreg":"HAMBOL","codreg":28,"source":"Géoportail ANSTAT"}},{"type":"Feature","geometry":{"type":"Point","coordinates":[-4.722748,8.376439]},"properties":{"id":131288,"nom":"INSPECTION DE L ENSEIGNEMENT PRESCOLAIRE ET PRIMAIRE DE BONIEREDOUGOU","type":"iepp","district_region":"HAMBOL","departement_commune":null,"verifie":true,"name":"INSPECTION DE L ENSEIGNEMENT PRESCOLAIRE ET PRIMAIRE DE BONIEREDOUGOU","nomreg":"HAMBOL","codreg":28,"source":"Géoportail ANSTAT"}},{"type":"Feature","geometry":{"type":"Point","coordinates":[-5.153713,5.891016]},"properties":{"id":131289,"nom":"INSPECTION DE L ENSEIGNEMENT PRESCOLAIRE ET PRIMAIRE D OGOUDOU","type":"iepp","district_region":"LOH-DJIBOUA","departement_commune":null,"verifie":true,"name":"INSPECTION DE L ENSEIGNEMENT PRESCOLAIRE ET PRIMAIRE D OGOUDOU","nomreg":"LOH-DJIBOUA","codreg":15,"source":"Géoportail ANSTAT"}},{"type":"Feature","geometry":{"type":"Point","coordinates":[-6.188164,8.050182]},"properties":{"id":131290,"nom":"INSPECTION DE LENSEIGNEMENT PRIMAIRE ET PRESCOLAIRE","type":"iepp","district_region":"BERE","departement_commune":null,"verifie":true,"name":"INSPECTION DE LENSEIGNEMENT PRIMAIRE ET PRESCOLAIRE","nomreg":"BERE","codreg":22,"source":"Géoportail ANSTAT"}},{"type":"Feature","geometry":{"type":"Point","coordinates":[-4.675707,7.346587]},"properties":{"id":131291,"nom":"INSPECTION DE LENSEIGNEMENT PRESCOLAIRE ET PRIMAIRE DE KOUASSI KOUASSIKRO","type":"iepp","district_region":"N ZI","departement_commune":null,"verifie":true,"name":"INSPECTION DE LENSEIGNEMENT PRESCOLAIRE ET PRIMAIRE DE KOUASSI KOUASSIKRO","nomreg":"N ZI","codreg":11,"source":"Géoportail ANSTAT"}},{"type":"Feature","geometry":{"type":"Point","coordinates":[-6.45498,6.882169]},"properties":{"id":131292,"nom":"INSPECTION DE LENSEIGNEMENT PRESCOLAIRE ET PRIMAIRE GBEULIVILLE","type":"iepp","district_region":"HAUT-SASSANDRA","departement_commune":null,"verifie":true,"name":"INSPECTION DE LENSEIGNEMENT PRESCOLAIRE ET PRIMAIRE GBEULIVILLE","nomreg":"HAUT-SASSANDRA","codreg":2,"source":"Géoportail ANSTAT"}},{"type":"Feature","geometry":{"type":"Point","coordinates":[-3.470267,8.452718]},"properties":{"id":131293,"nom":"MENUSERIE EN FACE SE LINSPECTION","type":"iepp","district_region":"BOUNKANI","departement_commune":null,"verifie":true,"name":"MENUSERIE EN FACE SE LINSPECTION","nomreg":"BOUNKANI","codreg":23,"source":"Géoportail ANSTAT"}},{"type":"Feature","geometry":{"type":"Point","coordinates":[-3.155058,5.611942]},"properties":{"id":131294,"nom":"INSPECTION DE LENSEIGNEMENT PRESCOLAIRE ET PRIMAIRE DAYAME","type":"iepp","district_region":"SUD-COMOE","departement_commune":null,"verifie":true,"name":"INSPECTION DE LENSEIGNEMENT PRESCOLAIRE ET PRIMAIRE DAYAME","nomreg":"SUD-COMOE","codreg":13,"source":"Géoportail ANSTAT"}},{"type":"Feature","geometry":{"type":"Point","coordinates":[-5.159662,9.067312]},"properties":{"id":131295,"nom":"INSPECTION DE L ENSEIGNEMENT PRESCOLAIRE ET PRIMAIRE DE TAFIRE","type":"iepp","district_region":"HAMBOL","departement_commune":null,"verifie":true,"name":"INSPECTION DE L ENSEIGNEMENT PRESCOLAIRE ET PRIMAIRE DE TAFIRE","nomreg":"HAMBOL","codreg":28,"source":"Géoportail ANSTAT"}},{"type":"Feature","geometry":{"type":"Point","coordinates":[-4.362621,7.9009]},"properties":{"id":131308,"nom":"INSPECTION DE L ENSEIGNEMENT PRESCOLAIRE ET PRIMAIRE DE SATAMA SOKOURA","type":"iepp","district_region":"HAMBOL","departement_commune":null,"verifie":true,"name":"INSPECTION DE L ENSEIGNEMENT PRESCOLAIRE ET PRIMAIRE DE SATAMA SOKOURA","nomreg":"HAMBOL","codreg":28,"source":"Géoportail ANSTAT"}},{"type":"Feature","geometry":{"type":"Point","coordinates":[-6.566243,5.016142]},"properties":{"id":131309,"nom":"INSPECTION DE L ENSEIGNEMENT PRESCOLAIRE ET PRIMAIRE DE GABIAGUI","type":"iepp","district_region":"SAN-PEDRO","departement_commune":null,"verifie":true,"name":"INSPECTION DE L ENSEIGNEMENT PRESCOLAIRE ET PRIMAIRE DE GABIAGUI","nomreg":"SAN-PEDRO","codreg":9,"source":"Géoportail ANSTAT"}},{"type":"Feature","geometry":{"type":"Point","coordinates":[-5.003445,5.261773]},"properties":{"id":131310,"nom":"INSPECTION DE L ENSEIGNEMENT PRESCOLAIRE ET PRIMAIRE DE GRAND LAHOU","type":"iepp","district_region":"GRAND-PONTS","departement_commune":null,"verifie":true,"name":"INSPECTION DE L ENSEIGNEMENT PRESCOLAIRE ET PRIMAIRE DE GRAND LAHOU","nomreg":"GRAND-PONTS","codreg":26,"source":"Géoportail ANSTAT"}},{"type":"Feature","geometry":{"type":"Point","coordinates":[-4.172446,5.340204]},"properties":{"id":131312,"nom":"INSPECTION DE L ENSEIGNEMENT PRESCOLAIRE ET PRIMAIRE","type":"iepp","district_region":"ABIDJAN","departement_commune":null,"verifie":true,"name":"INSPECTION DE L ENSEIGNEMENT PRESCOLAIRE ET PRIMAIRE","nomreg":"ABIDJAN","codreg":1,"source":"Géoportail ANSTAT"}},{"type":"Feature","geometry":{"type":"Point","coordinates":[-6.448133,9.827898]},"properties":{"id":131314,"nom":"INSPECTION DE LENSEIGNEMENT PRESCOLAIRE ET PRIMAIRE DE GBON","type":"iepp","district_region":"BAGOUE","departement_commune":null,"verifie":true,"name":"INSPECTION DE LENSEIGNEMENT PRESCOLAIRE ET PRIMAIRE DE GBON","nomreg":"BAGOUE","codreg":20,"source":"Géoportail ANSTAT"}},{"type":"Feature","geometry":{"type":"Point","coordinates":[-5.357628,5.827131]},"properties":{"id":131317,"nom":"INSPECTION DE L ENSEIGNEMENT PRESCOLAIRE ET PRIMAIRE DIVO MUNICIPALITE","type":"iepp","district_region":"LOH-DJIBOUA","departement_commune":null,"verifie":true,"name":"INSPECTION DE L ENSEIGNEMENT PRESCOLAIRE ET PRIMAIRE DIVO MUNICIPALITE","nomreg":"LOH-DJIBOUA","codreg":15,"source":"Géoportail ANSTAT"}},{"type":"Feature","geometry":{"type":"Point","coordinates":[-7.414595,7.533444]},"properties":{"id":131318,"nom":"INSPECTION DE L ENSEIGNEMENT PRESCOLAIRE ET PRIMAIRE DE GBONNE","type":"iepp","district_region":"TONKPI","departement_commune":null,"verifie":true,"name":"INSPECTION DE L ENSEIGNEMENT PRESCOLAIRE ET PRIMAIRE DE GBONNE","nomreg":"TONKPI","codreg":6,"source":"Géoportail ANSTAT"}},{"type":"Feature","geometry":{"type":"Point","coordinates":[-5.262422,6.539922]},"properties":{"id":131319,"nom":"INSPECTION DE LENSEIGNEMENT PRESCOLAIRE ET PRIMAIRE DE KOKUMBO","type":"iepp","district_region":"BELIER","departement_commune":null,"verifie":true,"name":"INSPECTION DE LENSEIGNEMENT PRESCOLAIRE ET PRIMAIRE DE KOKUMBO","nomreg":"BELIER","codreg":21,"source":"Géoportail ANSTAT"}},{"type":"Feature","geometry":{"type":"Point","coordinates":[-5.359565,5.828994]},"properties":{"id":131320,"nom":"INSPECTION D ENSEIGNEMENT PRESCOLAIRE ET PRIMAIRE DIVO 3","type":"iepp","district_region":"LOH-DJIBOUA","departement_commune":null,"verifie":true,"name":"INSPECTION D ENSEIGNEMENT PRESCOLAIRE ET PRIMAIRE DIVO 3","nomreg":"LOH-DJIBOUA","codreg":15,"source":"Géoportail ANSTAT"}},{"type":"Feature","geometry":{"type":"Point","coordinates":[-6.253325,8.945189]},"properties":{"id":131321,"nom":"INSPECTION DE ENSEIGNEMENT PRIMAIRE ET PRESCOLAIRE DE DIANRA","type":"iepp","district_region":"BERE","departement_commune":null,"verifie":true,"name":"INSPECTION DE ENSEIGNEMENT PRIMAIRE ET PRESCOLAIRE DE DIANRA","nomreg":"BERE","codreg":22,"source":"Géoportail ANSTAT"}},{"type":"Feature","geometry":{"type":"Point","coordinates":[-5.475742,10.109316]},"properties":{"id":131322,"nom":"INSPECTION DE L ENSEIGEMENT PRESCOLAIRE ET PRIMAIRE DE DIAWALA","type":"iepp","district_region":"TCHOLOGO","departement_commune":null,"verifie":true,"name":"INSPECTION DE L ENSEIGEMENT PRESCOLAIRE ET PRIMAIRE DE DIAWALA","nomreg":"TCHOLOGO","codreg":32,"source":"Géoportail ANSTAT"}},{"type":"Feature","geometry":{"type":"Point","coordinates":[-5.932119,6.305716]},"properties":{"id":131324,"nom":"INSPECTION DE L ENSEIGNEMENT PRESCOLAIRE ET PRIMAIRE DE OURAGAHIO","type":"iepp","district_region":"GOH","departement_commune":null,"verifie":true,"name":"INSPECTION DE L ENSEIGNEMENT PRESCOLAIRE ET PRIMAIRE DE OURAGAHIO","nomreg":"GOH","codreg":17,"source":"Géoportail ANSTAT"}},{"type":"Feature","geometry":{"type":"Point","coordinates":[-6.925304,7.981874]},"properties":{"id":131325,"nom":"INSPECTION DES ECOLES PRIMAIRE ET PRESCOLAIRE DE SIFIE","type":"iepp","district_region":"WORODOUGOU","departement_commune":null,"verifie":true,"name":"INSPECTION DES ECOLES PRIMAIRE ET PRESCOLAIRE DE SIFIE","nomreg":"WORODOUGOU","codreg":14,"source":"Géoportail ANSTAT"}},{"type":"Feature","geometry":{"type":"Point","coordinates":[-5.58386,6.285006]},"properties":{"id":131327,"nom":"INSPECTION DE L ENSEIGNEMENT PRESCOLAIRE ET PRIMAIRE","type":"iepp","district_region":"GOH","departement_commune":null,"verifie":true,"name":"INSPECTION DE L ENSEIGNEMENT PRESCOLAIRE ET PRIMAIRE","nomreg":"GOH","codreg":17,"source":"Géoportail ANSTAT"}},{"type":"Feature","geometry":{"type":"Point","coordinates":[-6.84375,7.148788]},"properties":{"id":131328,"nom":"INSPECTION DE ENSEIGNEMENT PRESCOLAIRE ET PRIMAIRE DE DANIA","type":"iepp","district_region":"HAUT-SASSANDRA","departement_commune":null,"verifie":true,"name":"INSPECTION DE ENSEIGNEMENT PRESCOLAIRE ET PRIMAIRE DE DANIA","nomreg":"HAUT-SASSANDRA","codreg":2,"source":"Géoportail ANSTAT"}},{"type":"Feature","geometry":{"type":"Point","coordinates":[-6.859895,6.767621]},"properties":{"id":131329,"nom":"INSPECTION DE LENSEIGNEMENT PRESCOLAIRE ET PRIMAIRE DE ZOUKOUGBEU","type":"iepp","district_region":"HAUT-SASSANDRA","departement_commune":null,"verifie":true,"name":"INSPECTION DE LENSEIGNEMENT PRESCOLAIRE ET PRIMAIRE DE ZOUKOUGBEU","nomreg":"HAUT-SASSANDRA","codreg":2,"source":"Géoportail ANSTAT"}},{"type":"Feature","geometry":{"type":"Point","coordinates":[-7.6145,7.739647]},"properties":{"id":131330,"nom":"INSPECTION DE L ENSEIGNEMENT PRESCOLAIRE ET PRIMAIRE DE BIANKOUMA","type":"iepp","district_region":"TONKPI","departement_commune":null,"verifie":true,"name":"INSPECTION DE L ENSEIGNEMENT PRESCOLAIRE ET PRIMAIRE DE BIANKOUMA","nomreg":"TONKPI","codreg":6,"source":"Géoportail ANSTAT"}},{"type":"Feature","geometry":{"type":"Point","coordinates":[-5.517688,9.393555]},"properties":{"id":131331,"nom":"INSPECTION DE L ENSEIGNEMENT PRESCOLAIRE ET PRIMAIRE DE KARAKORO","type":"iepp","district_region":"PORO","departement_commune":null,"verifie":true,"name":"INSPECTION DE L ENSEIGNEMENT PRESCOLAIRE ET PRIMAIRE DE KARAKORO","nomreg":"PORO","codreg":3,"source":"Géoportail ANSTAT"}},{"type":"Feature","geometry":{"type":"Point","coordinates":[-4.418175,5.205338]},"properties":{"id":131332,"nom":"INSPECTION DE L ENSEIGNEMENT PRESCOLAIRE ET PRIMAIRE DE JACQUEVILLE","type":"iepp","district_region":"GRAND-PONTS","departement_commune":null,"verifie":true,"name":"INSPECTION DE L ENSEIGNEMENT PRESCOLAIRE ET PRIMAIRE DE JACQUEVILLE","nomreg":"GRAND-PONTS","codreg":26,"source":"Géoportail ANSTAT"}},{"type":"Feature","geometry":{"type":"Point","coordinates":[-6.216412,9.821353]},"properties":{"id":131333,"nom":"INSPECTION DE L ENSEIGNEMENT PRESCOLAIRE ET PRIMAIRE DE KASSERE","type":"iepp","district_region":"BAGOUE","departement_commune":null,"verifie":true,"name":"INSPECTION DE L ENSEIGNEMENT PRESCOLAIRE ET PRIMAIRE DE KASSERE","nomreg":"BAGOUE","codreg":20,"source":"Géoportail ANSTAT"}},{"type":"Feature","geometry":{"type":"Point","coordinates":[-5.848633,6.212885]},"properties":{"id":131334,"nom":"SOUS PREFECTURE DE DAHIEPA KEHI","type":"iepp","district_region":"GOH","departement_commune":null,"verifie":true,"name":"SOUS PREFECTURE DE DAHIEPA KEHI","nomreg":"GOH","codreg":17,"source":"Géoportail ANSTAT"}},{"type":"Feature","geometry":{"type":"Point","coordinates":[-6.097779,9.274583]},"properties":{"id":131335,"nom":"INSPECTION DE ENSEIGNEMENT PRESCOLAIRE ET PRIMAIRE DE SIRASSO","type":"iepp","district_region":"PORO","departement_commune":null,"verifie":true,"name":"INSPECTION DE ENSEIGNEMENT PRESCOLAIRE ET PRIMAIRE DE SIRASSO","nomreg":"PORO","codreg":3,"source":"Géoportail ANSTAT"}},{"type":"Feature","geometry":{"type":"Point","coordinates":[-6.593754,5.578321]},"properties":{"id":131336,"nom":"INSPECTION DE L ENSEIGNEMENT PRESCOLAIRE ET PRIMAIRE D OUPOYO","type":"iepp","district_region":"NAWA","departement_commune":null,"verifie":true,"name":"INSPECTION DE L ENSEIGNEMENT PRESCOLAIRE ET PRIMAIRE D OUPOYO","nomreg":"NAWA","codreg":31,"source":"Géoportail ANSTAT"}},{"type":"Feature","geometry":{"type":"Point","coordinates":[-4.007467,5.337689]},"properties":{"id":131337,"nom":"INSPECTION DE LENSEIGNEMENT PRESCOLAIRE","type":"iepp","district_region":"ABIDJAN","departement_commune":null,"verifie":true,"name":"INSPECTION DE LENSEIGNEMENT PRESCOLAIRE","nomreg":"ABIDJAN","codreg":1,"source":"Géoportail ANSTAT"}},{"type":"Feature","geometry":{"type":"Point","coordinates":[-4.103196,5.365942]},"properties":{"id":131339,"nom":"INSPECTION DE L ENSEIGNEMENT PRESCOLAIRE ET PRIMAIRE DE YOPOUGON GESCO DIRECTION REGIONALE ABIDJAN 3","type":"iepp","district_region":"ABIDJAN","departement_commune":null,"verifie":true,"name":"INSPECTION DE L ENSEIGNEMENT PRESCOLAIRE ET PRIMAIRE DE YOPOUGON GESCO DIRECTION REGIONALE ABIDJAN 3","nomreg":"ABIDJAN","codreg":1,"source":"Géoportail ANSTAT"}},{"type":"Feature","geometry":{"type":"Point","coordinates":[-4.076868,5.324512]},"properties":{"id":131340,"nom":"INSPECTION DE L ENSEIGNEMENT PRESCOLAIRE ET PRIMAIRE","type":"iepp","district_region":"ABIDJAN","departement_commune":null,"verifie":true,"name":"INSPECTION DE L ENSEIGNEMENT PRESCOLAIRE ET PRIMAIRE","nomreg":"ABIDJAN","codreg":1,"source":"Géoportail ANSTAT"}},{"type":"Feature","geometry":{"type":"Point","coordinates":[-4.026141,5.357526]},"properties":{"id":131342,"nom":"DRENET FP ABIDJAN 1 IEP ADJAME 1 ET 2","type":"iepp","district_region":"ABIDJAN","departement_commune":null,"verifie":true,"name":"DRENET FP ABIDJAN 1 IEP ADJAME 1 ET 2","nomreg":"ABIDJAN","codreg":1,"source":"Géoportail ANSTAT"}},{"type":"Feature","geometry":{"type":"Point","coordinates":[-3.93715,5.36335]},"properties":{"id":131343,"nom":"INSPECTION PRIMAIRE COCODY AKOUEDO","type":"iepp","district_region":"ABIDJAN","departement_commune":null,"verifie":true,"name":"INSPECTION PRIMAIRE COCODY AKOUEDO","nomreg":"ABIDJAN","codreg":1,"source":"Géoportail ANSTAT"}},{"type":"Feature","geometry":{"type":"Point","coordinates":[-4.075269,5.352432]},"properties":{"id":131344,"nom":"INSPECTION DU TRAVAIL DE YOPOUGONRB","type":"iepp","district_region":"ABIDJAN","departement_commune":null,"verifie":true,"name":"INSPECTION DU TRAVAIL DE YOPOUGONRB","nomreg":"ABIDJAN","codreg":1,"source":"Géoportail ANSTAT"}},{"type":"Feature","geometry":{"type":"Point","coordinates":[-4.020647,5.327056]},"properties":{"id":131345,"nom":"INSPECTION GENERALE DES FINANCES","type":"iepp","district_region":"ABIDJAN","departement_commune":null,"verifie":true,"name":"INSPECTION GENERALE DES FINANCES","nomreg":"ABIDJAN","codreg":1,"source":"Géoportail ANSTAT"}},{"type":"Feature","geometry":{"type":"Point","coordinates":[-4.017118,5.324712]},"properties":{"id":131346,"nom":"INSPECTION GENERALE DU TRAVAIL ET DE LA PROTECTION SOCIALE","type":"iepp","district_region":"ABIDJAN","departement_commune":null,"verifie":true,"name":"INSPECTION GENERALE DU TRAVAIL ET DE LA PROTECTION SOCIALE","nomreg":"ABIDJAN","codreg":1,"source":"Géoportail ANSTAT"}},{"type":"Feature","geometry":{"type":"Point","coordinates":[-3.956433,5.253112]},"properties":{"id":131347,"nom":"INSPECTION DE LENSEIGNEMENT PRIMAIRE","type":"iepp","district_region":"ABIDJAN","departement_commune":null,"verifie":true,"name":"INSPECTION DE LENSEIGNEMENT PRIMAIRE","nomreg":"ABIDJAN","codreg":1,"source":"Géoportail ANSTAT"}},{"type":"Feature","geometry":{"type":"Point","coordinates":[-3.999868,5.379039]},"properties":{"id":131348,"nom":"INSPECTION  DE L ENSEIGNEMENT RESCOLAIRE ET PRIMAIRE DE COCODY DEUX PATEAU","type":"iepp","district_region":"ABIDJAN","departement_commune":null,"verifie":true,"name":"INSPECTION  DE L ENSEIGNEMENT RESCOLAIRE ET PRIMAIRE DE COCODY DEUX PATEAU","nomreg":"ABIDJAN","codreg":1,"source":"Géoportail ANSTAT"}},{"type":"Feature","geometry":{"type":"Point","coordinates":[-3.998371,5.272316]},"properties":{"id":131350,"nom":"MINISTERE DEL EMPLOI ET DE LA PROTECTION SOCIALE DIRECTION GENERALE DU TRAVAIL DIRECTION DE L INSPECTION DU TRAVAIL SOUS DIRECTION DE L INSPECTION DU TRAVAIL DE VRIDI PORT","type":"iepp","district_region":"ABIDJAN","departement_commune":null,"verifie":true,"name":"MINISTERE DEL EMPLOI ET DE LA PROTECTION SOCIALE DIRECTION GENERALE DU TRAVAIL DIRECTION DE L INSPECTION DU TRAVAIL SOUS DIRECTION DE L INSPECTION DU TRAVAIL DE VRIDI PORT","nomreg":"ABIDJAN","codreg":1,"source":"Géoportail ANSTAT"}},{"type":"Feature","geometry":{"type":"Point","coordinates":[-4.051534,5.493487]},"properties":{"id":131351,"nom":"INSPECTION DE L ENSEIGNEMENT PRESCOLAIRE ET PRIMAIRE ANYAMA2","type":"iepp","district_region":"ABIDJAN","departement_commune":null,"verifie":true,"name":"INSPECTION DE L ENSEIGNEMENT PRESCOLAIRE ET PRIMAIRE ANYAMA2","nomreg":"ABIDJAN","codreg":1,"source":"Géoportail ANSTAT"}},{"type":"Feature","geometry":{"type":"Point","coordinates":[-4.092844,5.324475]},"properties":{"id":131352,"nom":"INSPECTION DE ENSEIGNEMENT PRESCOLAIRE ET PRIMAIRE DE YOPOUGON ANDOKOI","type":"iepp","district_region":"ABIDJAN","departement_commune":null,"verifie":true,"name":"INSPECTION DE ENSEIGNEMENT PRESCOLAIRE ET PRIMAIRE DE YOPOUGON ANDOKOI","nomreg":"ABIDJAN","codreg":1,"source":"Géoportail ANSTAT"}},{"type":"Feature","geometry":{"type":"Point","coordinates":[-3.957233,5.293869]},"properties":{"id":131353,"nom":"INSPECTION DE LENSEIGNEMENT PRIMAIRE ET PRESCOLAIRE DE BIETRY DE PRODOMO ET SICOGI","type":"iepp","district_region":"ABIDJAN","departement_commune":null,"verifie":true,"name":"INSPECTION DE LENSEIGNEMENT PRIMAIRE ET PRESCOLAIRE DE BIETRY DE PRODOMO ET SICOGI","nomreg":"ABIDJAN","codreg":1,"source":"Géoportail ANSTAT"}}],"metadata":{"dataset":"Iepp — ANSTAT","source":"Géoportail ANSTAT","theme":"Éducation","verified":true,"apercu":"complet"}}