{"type":"FeatureCollection","features":[{"type":"Feature","geometry":{"type":"Point","coordinates":[-6.480693999999971,7.381516000000033]},"properties":{"id":36871,"nom":"DIRECTION DEPATEMENTAL DES EAUX ET DE VAVOUA","type":"admin securite departementale","district_region":null,"departement_commune":null,"verifie":true,"name":"DIRECTION DEPATEMENTAL DES EAUX ET DE VAVOUA","source":"Géoportail ANSTAT"}},{"type":"Feature","geometry":{"type":"Point","coordinates":[-6.485814999999945,9.531034000000034]},"properties":{"id":36875,"nom":"DIRECTION DEPARTEMENTAL DES EAUX ET FORETS DE BOUNDIALI","type":"admin securite departementale","district_region":null,"departement_commune":null,"verifie":true,"name":"DIRECTION DEPARTEMENTAL DES EAUX ET FORETS DE BOUNDIALI","source":"Géoportail ANSTAT"}},{"type":"Feature","geometry":{"type":"Point","coordinates":[-6.195308999999952,8.062508000000037]},"properties":{"id":36876,"nom":"DIRECTION DEPARTEMENTALE DES EAUX ET FORETS DE MANKONO","type":"admin securite departementale","district_region":null,"departement_commune":null,"verifie":true,"name":"DIRECTION DEPARTEMENTALE DES EAUX ET FORETS DE MANKONO","source":"Géoportail ANSTAT"}}],"metadata":{"dataset":"Admin securite departementale — ANSTAT","source":"Géoportail ANSTAT","theme":"Sécurité","verified":true,"apercu":"complet"}}