{"type":"FeatureCollection","features":[{"type":"Feature","geometry":{"type":"Point","coordinates":[-2.797619999999938,8.041548000000034]},"properties":{"id":29908,"nom":"MUSEE DE BONDOUKOU","type":"musee","district_region":null,"departement_commune":null,"verifie":true,"name":"MUSEE DE BONDOUKOU","source":"Géoportail ANSTAT"}},{"type":"Feature","geometry":{"type":"Point","coordinates":[-3.498948999999925,6.737978000000055]},"properties":{"id":29928,"nom":"MUSEE CHARLE ET MARGUERITE BIETH","type":"musee","district_region":null,"departement_commune":null,"verifie":true,"name":"MUSEE CHARLE ET MARGUERITE BIETH","source":"Géoportail ANSTAT"}},{"type":"Feature","geometry":{"type":"Point","coordinates":[-3.736969999999928,5.195959000000073]},"properties":{"id":29932,"nom":"MUSEE NATIONAL DU COSTUME DE GRAND BASSAM","type":"musee","district_region":null,"departement_commune":null,"verifie":true,"name":"MUSEE NATIONAL DU COSTUME DE GRAND BASSAM","source":"Géoportail ANSTAT"}},{"type":"Feature","geometry":{"type":"Point","coordinates":[-4.018480999999952,5.420199000000025]},"properties":{"id":34206,"nom":"MUSEE D ABOBO","type":"musee","district_region":null,"departement_commune":null,"verifie":true,"name":"MUSEE D ABOBO","source":"Géoportail ANSTAT"}}],"metadata":{"dataset":"Musee — ANSTAT","source":"Géoportail ANSTAT","theme":"Social & Culture","verified":true,"apercu":"complet"}}