{"type":"FeatureCollection","features":[{"type":"Feature","geometry":{"type":"Point","coordinates":[-5.636958999999933,9.450713000000064]},"properties":{"id":36397,"nom":"BUREAU ANNEXE  CONSEIL REGIONAL KORHOGO","type":"conseil regional","district_region":null,"departement_commune":null,"verifie":true,"name":"BUREAU ANNEXE  CONSEIL REGIONAL KORHOGO","source":"Géoportail ANSTAT"}},{"type":"Feature","geometry":{"type":"Point","coordinates":[-5.20610499999998,9.58277000000004]},"properties":{"id":36562,"nom":"CONSEIL REGIONAL TCHOLOGO","type":"conseil regional","district_region":null,"departement_commune":null,"verifie":true,"name":"CONSEIL REGIONAL TCHOLOGO","source":"Géoportail ANSTAT"}},{"type":"Feature","geometry":{"type":"Point","coordinates":[-4.200588999999979,6.645654000000036]},"properties":{"id":36575,"nom":"CONSEIL REGIONAL DE BONGOUANOU","type":"conseil regional","district_region":null,"departement_commune":null,"verifie":true,"name":"CONSEIL REGIONAL DE BONGOUANOU","source":"Géoportail ANSTAT"}},{"type":"Feature","geometry":{"type":"Point","coordinates":[-5.401617999999928,6.384666000000038]},"properties":{"id":36586,"nom":"CONSEIL REGIONAL","type":"conseil regional","district_region":null,"departement_commune":null,"verifie":true,"name":"CONSEIL REGIONAL","source":"Géoportail ANSTAT"}},{"type":"Feature","geometry":{"type":"Point","coordinates":[-5.016993999999954,6.54825500000004]},"properties":{"id":36588,"nom":"CONSEIL REGIONAL","type":"conseil regional","district_region":null,"departement_commune":null,"verifie":true,"name":"CONSEIL REGIONAL","source":"Géoportail ANSTAT"}},{"type":"Feature","geometry":{"type":"Point","coordinates":[-5.021807999999965,7.688224000000048]},"properties":{"id":36604,"nom":"CONSEIL REGIONAL DE GBEKE","type":"conseil regional","district_region":null,"departement_commune":null,"verifie":true,"name":"CONSEIL REGIONAL DE GBEKE","source":"Géoportail ANSTAT"}},{"type":"Feature","geometry":{"type":"Point","coordinates":[-3.004750999999942,9.258965000000046]},"properties":{"id":36613,"nom":"CONSEIL REGIONAL DU BOUNKANI","type":"conseil regional","district_region":null,"departement_commune":null,"verifie":true,"name":"CONSEIL REGIONAL DU BOUNKANI","source":"Géoportail ANSTAT"}},{"type":"Feature","geometry":{"type":"Point","coordinates":[-4.707520999999929,6.651400000000024]},"properties":{"id":36614,"nom":"CONSEIL REGIONAL DU NZI","type":"conseil regional","district_region":null,"departement_commune":null,"verifie":true,"name":"CONSEIL REGIONAL DU NZI","source":"Géoportail ANSTAT"}},{"type":"Feature","geometry":{"type":"Point","coordinates":[-3.506978999999944,6.724296000000038]},"properties":{"id":36642,"nom":"CONSEIL REGIONAL","type":"conseil regional","district_region":null,"departement_commune":null,"verifie":true,"name":"CONSEIL REGIONAL","source":"Géoportail ANSTAT"}},{"type":"Feature","geometry":{"type":"Point","coordinates":[-3.495591999999931,6.740224000000069]},"properties":{"id":36646,"nom":"CONSEIL REGIONAL DE L ORDRE DES PHARMACIENS DE L EST","type":"conseil regional","district_region":null,"departement_commune":null,"verifie":true,"name":"CONSEIL REGIONAL DE L ORDRE DES PHARMACIENS DE L EST","source":"Géoportail ANSTAT"}},{"type":"Feature","geometry":{"type":"Point","coordinates":[-3.205047999999977,5.468302000000051]},"properties":{"id":36663,"nom":"CONSEIL REGIONAL DU SUD COMOE","type":"conseil regional","district_region":null,"departement_commune":null,"verifie":true,"name":"CONSEIL REGIONAL DU SUD COMOE","source":"Géoportail ANSTAT"}},{"type":"Feature","geometry":{"type":"Point","coordinates":[-5.283859999999947,8.655899000000034]},"properties":{"id":36665,"nom":"CONSEIL REGIONAL","type":"conseil regional","district_region":null,"departement_commune":null,"verifie":true,"name":"CONSEIL REGIONAL","source":"Géoportail ANSTAT"}},{"type":"Feature","geometry":{"type":"Point","coordinates":[-5.084225999999944,8.121480000000076]},"properties":{"id":36667,"nom":"CONSEIL REGIONAL DE KATIOLA","type":"conseil regional","district_region":null,"departement_commune":null,"verifie":true,"name":"CONSEIL REGIONAL DE KATIOLA","source":"Géoportail ANSTAT"}},{"type":"Feature","geometry":{"type":"Point","coordinates":[-6.627332999999965,4.736007000000029]},"properties":{"id":36676,"nom":"CONSEIL REGIONAL DE SAN PEDRO","type":"conseil regional","district_region":null,"departement_commune":null,"verifie":true,"name":"CONSEIL REGIONAL DE SAN PEDRO","source":"Géoportail ANSTAT"}},{"type":"Feature","geometry":{"type":"Point","coordinates":[-6.629318999999953,4.749600000000044]},"properties":{"id":36677,"nom":"CONSEIL REGIONAL SAN PEDRO","type":"conseil regional","district_region":null,"departement_commune":null,"verifie":true,"name":"CONSEIL REGIONAL SAN PEDRO","source":"Géoportail ANSTAT"}},{"type":"Feature","geometry":{"type":"Point","coordinates":[-7.357451999999967,4.412624000000051]},"properties":{"id":36680,"nom":"CONSEIL REGIONAL DE TABOU","type":"conseil regional","district_region":null,"departement_commune":null,"verifie":true,"name":"CONSEIL REGIONAL DE TABOU","source":"Géoportail ANSTAT"}},{"type":"Feature","geometry":{"type":"Point","coordinates":[-6.596207999999933,5.804065000000037]},"properties":{"id":36683,"nom":"CONSEIL REGIONAL DE SOUBRE","type":"conseil regional","district_region":null,"departement_commune":null,"verifie":true,"name":"CONSEIL REGIONAL DE SOUBRE","source":"Géoportail ANSTAT"}},{"type":"Feature","geometry":{"type":"Point","coordinates":[-4.364432999999963,5.327987000000064]},"properties":{"id":36694,"nom":"CONSEIL REGIONAL DABOU","type":"conseil regional","district_region":null,"departement_commune":null,"verifie":true,"name":"CONSEIL REGIONAL DABOU","source":"Géoportail ANSTAT"}},{"type":"Feature","geometry":{"type":"Point","coordinates":[-5.949419999999975,6.117650000000026]},"properties":{"id":36696,"nom":"CONSEIL REGIONAL DE GAGNOA","type":"conseil regional","district_region":null,"departement_commune":null,"verifie":true,"name":"CONSEIL REGIONAL DE GAGNOA","source":"Géoportail ANSTAT"}},{"type":"Feature","geometry":{"type":"Point","coordinates":[-6.094953999999973,4.958767000000023]},"properties":{"id":36702,"nom":"CONSEIL REGIONAL DU GBOKLE","type":"conseil regional","district_region":null,"departement_commune":null,"verifie":true,"name":"CONSEIL REGIONAL DU GBOKLE","source":"Géoportail ANSTAT"}},{"type":"Feature","geometry":{"type":"Point","coordinates":[-5.589773999999977,5.099886000000026]},"properties":{"id":36704,"nom":"CONSEIL REGIONAL FRESCO","type":"conseil regional","district_region":null,"departement_commune":null,"verifie":true,"name":"CONSEIL REGIONAL FRESCO","source":"Géoportail ANSTAT"}},{"type":"Feature","geometry":{"type":"Point","coordinates":[-2.808036999999956,8.030662000000063]},"properties":{"id":36707,"nom":"CONSEIL REGIONAL DE GONTOUGO","type":"conseil regional","district_region":null,"departement_commune":null,"verifie":true,"name":"CONSEIL REGIONAL DE GONTOUGO","source":"Géoportail ANSTAT"}},{"type":"Feature","geometry":{"type":"Point","coordinates":[-3.161938999999961,7.798530000000028]},"properties":{"id":36708,"nom":"CONSEIL REGIONAL DE TANDA","type":"conseil regional","district_region":null,"departement_commune":null,"verifie":true,"name":"CONSEIL REGIONAL DE TANDA","source":"Géoportail ANSTAT"}},{"type":"Feature","geometry":{"type":"Point","coordinates":[-6.669019999999932,7.964077000000032]},"properties":{"id":36711,"nom":"CONSEIL REGIONAL DU WORODOUGOU","type":"conseil regional","district_region":null,"departement_commune":null,"verifie":true,"name":"CONSEIL REGIONAL DU WORODOUGOU","source":"Géoportail ANSTAT"}},{"type":"Feature","geometry":{"type":"Point","coordinates":[-5.797236999999939,6.566297000000077]},"properties":{"id":36716,"nom":"CONSEIL REGIONAL","type":"conseil regional","district_region":null,"departement_commune":null,"verifie":true,"name":"CONSEIL REGIONAL","source":"Géoportail ANSTAT"}},{"type":"Feature","geometry":{"type":"Point","coordinates":[-4.700001999999927,6.659817000000032]},"properties":{"id":36727,"nom":"CONSEIL REGIONAL DU NZI","type":"conseil regional","district_region":null,"departement_commune":null,"verifie":true,"name":"CONSEIL REGIONAL DU NZI","source":"Géoportail ANSTAT"}},{"type":"Feature","geometry":{"type":"Point","coordinates":[-7.498291999999935,6.543997000000047]},"properties":{"id":36729,"nom":"CONSEIL REGIONAL DU CAVALLY","type":"conseil regional","district_region":null,"departement_commune":null,"verifie":true,"name":"CONSEIL REGIONAL DU CAVALLY","source":"Géoportail ANSTAT"}},{"type":"Feature","geometry":{"type":"Point","coordinates":[-7.683206999999925,8.26974800000005]},"properties":{"id":36746,"nom":"CONSEIL REGIONAL DU BAFING","type":"conseil regional","district_region":null,"departement_commune":null,"verifie":true,"name":"CONSEIL REGIONAL DU BAFING","source":"Géoportail ANSTAT"}},{"type":"Feature","geometry":{"type":"Point","coordinates":[-5.366303999999957,5.833474000000024]},"properties":{"id":36751,"nom":"CONSEIL REGIONAL DU LOH DJIBOUA","type":"conseil regional","district_region":null,"departement_commune":null,"verifie":true,"name":"CONSEIL REGIONAL DU LOH DJIBOUA","source":"Géoportail ANSTAT"}},{"type":"Feature","geometry":{"type":"Point","coordinates":[-6.481031999999971,9.517520000000047]},"properties":{"id":36754,"nom":"CONSEIL REGIONAL DE LA BAGOUE","type":"conseil regional","district_region":null,"departement_commune":null,"verifie":true,"name":"CONSEIL REGIONAL DE LA BAGOUE","source":"Géoportail ANSTAT"}},{"type":"Feature","geometry":{"type":"Point","coordinates":[-6.192082999999968,8.065341000000046]},"properties":{"id":36758,"nom":"CONSEIL REGIONAL DU BERE","type":"conseil regional","district_region":null,"departement_commune":null,"verifie":true,"name":"CONSEIL REGIONAL DU BERE","source":"Géoportail ANSTAT"}},{"type":"Feature","geometry":{"type":"Point","coordinates":[-7.836283999999978,9.999104000000044]},"properties":{"id":36760,"nom":"CONSEIL REGIONAL DU FOLON","type":"conseil regional","district_region":null,"departement_commune":null,"verifie":true,"name":"CONSEIL REGIONAL DU FOLON","source":"Géoportail ANSTAT"}},{"type":"Feature","geometry":{"type":"Point","coordinates":[-7.563272999999981,9.499949000000072]},"properties":{"id":36767,"nom":"CONSEIL REGIONAL DU KABADOUGOU","type":"conseil regional","district_region":null,"departement_commune":null,"verifie":true,"name":"CONSEIL REGIONAL DU KABADOUGOU","source":"Géoportail ANSTAT"}},{"type":"Feature","geometry":{"type":"Point","coordinates":[-3.853617999999926,6.111798000000022]},"properties":{"id":36772,"nom":"CONSEIL REGIONAL DE LA ME","type":"conseil regional","district_region":null,"departement_commune":null,"verifie":true,"name":"CONSEIL REGIONAL DE LA ME","source":"Géoportail ANSTAT"}},{"type":"Feature","geometry":{"type":"Point","coordinates":[-3.998711999999955,7.649970000000053]},"properties":{"id":36789,"nom":"CONSEIL REGIONAL DE PRIKRO","type":"conseil regional","district_region":null,"departement_commune":null,"verifie":true,"name":"CONSEIL REGIONAL DE PRIKRO","source":"Géoportail ANSTAT"}},{"type":"Feature","geometry":{"type":"Point","coordinates":[-4.334835999999939,7.454932000000042]},"properties":{"id":36791,"nom":"CONSEIL REGIONALE","type":"conseil regional","district_region":null,"departement_commune":null,"verifie":true,"name":"CONSEIL REGIONALE","source":"Géoportail ANSTAT"}},{"type":"Feature","geometry":{"type":"Point","coordinates":[-3.964877999999942,7.054184000000021]},"properties":{"id":36794,"nom":"CONSEIL REGIONAL DU IFFOU","type":"conseil regional","district_region":null,"departement_commune":null,"verifie":true,"name":"CONSEIL REGIONAL DU IFFOU","source":"Géoportail ANSTAT"}},{"type":"Feature","geometry":{"type":"Point","coordinates":[-6.453288999999927,6.882514000000072]},"properties":{"id":38727,"nom":"SIEGE DU CONSEIL REGIONAL DU HAUT SASSANDRA","type":"conseil regional","district_region":null,"departement_commune":null,"verifie":true,"name":"SIEGE DU CONSEIL REGIONAL DU HAUT SASSANDRA","source":"Géoportail ANSTAT"}},{"type":"Feature","geometry":{"type":"Point","coordinates":[-3.205009999999959,5.468360000000075]},"properties":{"id":38744,"nom":"SIEGE CONSEIL REGIONAL DU SUD COMOE","type":"conseil regional","district_region":null,"departement_commune":null,"verifie":true,"name":"SIEGE CONSEIL REGIONAL DU SUD COMOE","source":"Géoportail ANSTAT"}},{"type":"Feature","geometry":{"type":"Point","coordinates":[-3.200079999999957,5.475095000000067]},"properties":{"id":39165,"nom":"SIEGE ANNEXE DU CONSEIL REGIONAL DU SUD COMOE","type":"conseil regional","district_region":null,"departement_commune":null,"verifie":true,"name":"SIEGE ANNEXE DU CONSEIL REGIONAL DU SUD COMOE","source":"Géoportail ANSTAT"}},{"type":"Feature","geometry":{"type":"Point","coordinates":[-4.428792999999928,8.363653000000056]},"properties":{"id":39166,"nom":"SIEGE DU CONSEIL REGIONAL DE DABAKALA","type":"conseil regional","district_region":null,"departement_commune":null,"verifie":true,"name":"SIEGE DU CONSEIL REGIONAL DE DABAKALA","source":"Géoportail ANSTAT"}},{"type":"Feature","geometry":{"type":"Point","coordinates":[-3.986033999999961,5.389083000000028]},"properties":{"id":39340,"nom":"AMBASSADE DE LA REPUBLIQUE DE LA GUINEE  EQUATORIALE","type":"conseil regional","district_region":null,"departement_commune":null,"verifie":true,"name":"AMBASSADE DE LA REPUBLIQUE DE LA GUINEE  EQUATORIALE","source":"Géoportail ANSTAT"}},{"type":"Feature","geometry":{"type":"Point","coordinates":[-4.015793999999971,5.321032000000059]},"properties":{"id":39776,"nom":"CONSEIL REGIONAL DE L EPAGNE PUBLIQUE ET DES MARCHES FINANCIERS  CREPMF","type":"conseil regional","district_region":null,"departement_commune":null,"verifie":true,"name":"CONSEIL REGIONAL DE L EPAGNE PUBLIQUE ET DES MARCHES FINANCIERS  CREPMF","source":"Géoportail ANSTAT"}},{"type":"Feature","geometry":{"type":"Point","coordinates":[-3.958572999999944,5.38268800000003]},"properties":{"id":40404,"nom":"RESIDENCE DE L AMBASSADE DE LA REPUBLIQUE DE LA GUINEE EQUATORIALE","type":"conseil regional","district_region":null,"departement_commune":null,"verifie":true,"name":"RESIDENCE DE L AMBASSADE DE LA REPUBLIQUE DE LA GUINEE EQUATORIALE","source":"Géoportail ANSTAT"}}],"metadata":{"dataset":"Conseil regional — ANSTAT","source":"Géoportail ANSTAT","theme":"Administration","verified":true,"apercu":"complet"}}