{"type":"FeatureCollection","features":[{"type":"Feature","geometry":{"type":"Point","coordinates":[-6.629183999999952,4.742513000000031]},"properties":{"id":91083,"nom":"MINISTERE DU COMMERCE","type":"ministère du commerce","district_region":null,"departement_commune":null,"verifie":true,"name":"MINISTERE DU COMMERCE","source":"Géoportail ANSTAT"}},{"type":"Feature","geometry":{"type":"Point","coordinates":[-5.637786999999946,9.45190800000006]},"properties":{"id":91085,"nom":"MINISTERE DU COMMERCEDEL ARTISANATET DE LA PROMOTION DES PME","type":"ministère du commerce","district_region":null,"departement_commune":null,"verifie":true,"name":"MINISTERE DU COMMERCEDEL ARTISANATET DE LA PROMOTION DES PME","source":"Géoportail ANSTAT"}},{"type":"Feature","geometry":{"type":"Point","coordinates":[-6.098650999999961,4.944549000000052]},"properties":{"id":91094,"nom":"MINISTERE DU COMMERCE DE LINDUSTRIE ET DE LA PROMOTION DES PME","type":"ministère du commerce","district_region":null,"departement_commune":null,"verifie":true,"name":"MINISTERE DU COMMERCE DE LINDUSTRIE ET DE LA PROMOTION DES PME","source":"Géoportail ANSTAT"}},{"type":"Feature","geometry":{"type":"Point","coordinates":[-5.758524999999963,6.988891000000024]},"properties":{"id":91101,"nom":"MINISTERE DU COMMERCE","type":"ministère du commerce","district_region":null,"departement_commune":null,"verifie":true,"name":"MINISTERE DU COMMERCE","source":"Géoportail ANSTAT"}},{"type":"Feature","geometry":{"type":"Point","coordinates":[-5.023908999999946,7.684134000000029]},"properties":{"id":91102,"nom":"MINISTERE DU COMMERCE","type":"ministère du commerce","district_region":null,"departement_commune":null,"verifie":true,"name":"MINISTERE DU COMMERCE","source":"Géoportail ANSTAT"}},{"type":"Feature","geometry":{"type":"Point","coordinates":[-7.493866999999966,6.548705000000041]},"properties":{"id":91107,"nom":"MINISTERE DU COMMERCE DE L ARTISANAT ET DE LA PROMOTION DES PME","type":"ministère du commerce","district_region":null,"departement_commune":null,"verifie":true,"name":"MINISTERE DU COMMERCE DE L ARTISANAT ET DE LA PROMOTION DES PME","source":"Géoportail ANSTAT"}},{"type":"Feature","geometry":{"type":"Point","coordinates":[-6.446071999999958,6.883289000000048]},"properties":{"id":91109,"nom":"MINISTERE DU COMMERCE DIRECTION REGIONALE DU HAUT SASSANDRA","type":"ministère du commerce","district_region":null,"departement_commune":null,"verifie":true,"name":"MINISTERE DU COMMERCE DIRECTION REGIONALE DU HAUT SASSANDRA","source":"Géoportail ANSTAT"}},{"type":"Feature","geometry":{"type":"Point","coordinates":[-4.217292999999927,5.931651000000045]},"properties":{"id":91110,"nom":"MINISTERE DU COMMERCE","type":"ministère du commerce","district_region":null,"departement_commune":null,"verifie":true,"name":"MINISTERE DU COMMERCE","source":"Géoportail ANSTAT"}},{"type":"Feature","geometry":{"type":"Point","coordinates":[-3.48791499999993,6.733680000000049]},"properties":{"id":91120,"nom":"MINISTERE DU COMMERCE","type":"ministère du commerce","district_region":null,"departement_commune":null,"verifie":true,"name":"MINISTERE DU COMMERCE","source":"Géoportail ANSTAT"}},{"type":"Feature","geometry":{"type":"Point","coordinates":[-5.090561999999977,8.130712000000074]},"properties":{"id":91135,"nom":"MINISTERE DU COMMERCE","type":"ministère du commerce","district_region":null,"departement_commune":null,"verifie":true,"name":"MINISTERE DU COMMERCE","source":"Géoportail ANSTAT"}},{"type":"Feature","geometry":{"type":"Point","coordinates":[-7.554393999999945,7.400713000000053]},"properties":{"id":91234,"nom":"MINISTERE DU COMMERCE DIRECTION REGIONAL DE MAN","type":"ministère du commerce","district_region":null,"departement_commune":null,"verifie":true,"name":"MINISTERE DU COMMERCE DIRECTION REGIONAL DE MAN","source":"Géoportail ANSTAT"}},{"type":"Feature","geometry":{"type":"Point","coordinates":[-3.952719746999946,5.288335038000071]},"properties":{"id":103214,"nom":"DIRECTION REGIONALE DU MINISTERE DU COMMERCE ET DE L ARTISANAT PROMOTIONS PME","type":"ministère du commerce","district_region":null,"departement_commune":null,"verifie":true,"name":"DIRECTION REGIONALE DU MINISTERE DU COMMERCE ET DE L ARTISANAT PROMOTIONS PME","source":"Géoportail ANSTAT"}}],"metadata":{"dataset":"Ministère du commerce — ANSTAT","source":"Géoportail ANSTAT","theme":"Commerce & Économie","verified":true,"apercu":"complet"}}