{"type":"FeatureCollection","features":[{"type":"Feature","geometry":{"type":"Point","coordinates":[-4.21843999999993,5.926675000000046]},"properties":{"id":37684,"nom":"MINITAIRE DE LA JUSTICE","type":"ministere justice","district_region":null,"departement_commune":null,"verifie":true,"name":"MINITAIRE DE LA JUSTICE","source":"Géoportail ANSTAT"}},{"type":"Feature","geometry":{"type":"Point","coordinates":[-5.419250999999974,6.379747000000066]},"properties":{"id":37732,"nom":"MINISTERE DE LA JUSTICE","type":"ministere justice","district_region":null,"departement_commune":null,"verifie":true,"name":"MINISTERE DE LA JUSTICE","source":"Géoportail ANSTAT"}},{"type":"Feature","geometry":{"type":"Point","coordinates":[-6.08800199999996,4.946427000000028]},"properties":{"id":37733,"nom":"MINISTERE DE LA JUSTICE","type":"ministere justice","district_region":null,"departement_commune":null,"verifie":true,"name":"MINISTERE DE LA JUSTICE","source":"Géoportail ANSTAT"}},{"type":"Feature","geometry":{"type":"Point","coordinates":[-5.05411399999997,7.685202000000061]},"properties":{"id":37734,"nom":"MINISTERE DE LA JUSTICE ET DES DROITS DE L HOMME","type":"ministere justice","district_region":null,"departement_commune":null,"verifie":true,"name":"MINISTERE DE LA JUSTICE ET DES DROITS DE L HOMME","source":"Géoportail ANSTAT"}},{"type":"Feature","geometry":{"type":"Point","coordinates":[-7.504175999999973,6.541281000000026]},"properties":{"id":37735,"nom":"MINISTERE DE LA JUSTICE ET DES DROIT DE L HOMME","type":"ministere justice","district_region":null,"departement_commune":null,"verifie":true,"name":"MINISTERE DE LA JUSTICE ET DES DROIT DE L HOMME","source":"Géoportail ANSTAT"}},{"type":"Feature","geometry":{"type":"Point","coordinates":[-3.996145999999953,5.402286000000061]},"properties":{"id":40088,"nom":"MINISTERE DE LA JUSTICE","type":"ministere justice","district_region":null,"departement_commune":null,"verifie":true,"name":"MINISTERE DE LA JUSTICE","source":"Géoportail ANSTAT"}},{"type":"Feature","geometry":{"type":"Point","coordinates":[-4.013388999999961,5.31859600000007]},"properties":{"id":40277,"nom":"MINISTERE DE LA JUSTICE","type":"ministere justice","district_region":null,"departement_commune":null,"verifie":true,"name":"MINISTERE DE LA JUSTICE","source":"Géoportail ANSTAT"}}],"metadata":{"dataset":"Ministere justice — ANSTAT","source":"Géoportail ANSTAT","theme":"Justice","verified":true,"apercu":"complet"}}