{"type":"FeatureCollection","features":[{"type":"Feature","geometry":{"type":"Point","coordinates":[-6.091752999999926,4.947397000000024]},"properties":{"id":36701,"nom":"COMMISSION NATIONALE DES DROITS DE LHOMME DE COTE DIVOIRE","type":"admin justice","district_region":null,"departement_commune":null,"verifie":true,"name":"COMMISSION NATIONALE DES DROITS DE LHOMME DE COTE DIVOIRE","source":"Géoportail ANSTAT"}},{"type":"Feature","geometry":{"type":"Point","coordinates":[-7.835083999999938,10.00114700000006]},"properties":{"id":36759,"nom":"CONSEIL NATIONAL DES DROITS DE LHOMMELHOMME","type":"admin justice","district_region":null,"departement_commune":null,"verifie":true,"name":"CONSEIL NATIONAL DES DROITS DE LHOMMELHOMME","source":"Géoportail ANSTAT"}},{"type":"Feature","geometry":{"type":"Point","coordinates":[-5.094845999999961,8.124300000000062]},"properties":{"id":36783,"nom":"COMMISSION NATIONALE DES DROIT DE L HOMME","type":"admin justice","district_region":null,"departement_commune":null,"verifie":true,"name":"COMMISSION NATIONALE DES DROIT DE L HOMME","source":"Géoportail ANSTAT"}},{"type":"Feature","geometry":{"type":"Point","coordinates":[-3.969475999999929,7.055640000000039]},"properties":{"id":36793,"nom":"COMMISSION NATIONALE DES DROITS DE LHOMME DE COTE DIVOIRE","type":"admin justice","district_region":null,"departement_commune":null,"verifie":true,"name":"COMMISSION NATIONALE DES DROITS DE LHOMME DE COTE DIVOIRE","source":"Géoportail ANSTAT"}},{"type":"Feature","geometry":{"type":"Point","coordinates":[-3.993407999999931,5.367490000000032]},"properties":{"id":39694,"nom":"DIRECTION DE LA PROTECTION JUDICIAIRE DE LENFANCE ET DE LA JEUNESSE","type":"admin justice","district_region":null,"departement_commune":null,"verifie":true,"name":"DIRECTION DE LA PROTECTION JUDICIAIRE DE LENFANCE ET DE LA JEUNESSE","source":"Géoportail ANSTAT"}},{"type":"Feature","geometry":{"type":"Point","coordinates":[-3.991505999999958,5.349235000000022]},"properties":{"id":39715,"nom":"CONSEIL NATIONNAL DES DROIT DE LHOMME","type":"admin justice","district_region":null,"departement_commune":null,"verifie":true,"name":"CONSEIL NATIONNAL DES DROIT DE LHOMME","source":"Géoportail ANSTAT"}},{"type":"Feature","geometry":{"type":"Point","coordinates":[-3.988002999999935,5.357253000000071]},"properties":{"id":39717,"nom":"CNDH CONSEIL NATIONAL DES DROITS DE L HOMME","type":"admin justice","district_region":null,"departement_commune":null,"verifie":true,"name":"CNDH CONSEIL NATIONAL DES DROITS DE L HOMME","source":"Géoportail ANSTAT"}},{"type":"Feature","geometry":{"type":"Point","coordinates":[-4.017660999999976,5.31702000000007]},"properties":{"id":39781,"nom":"DIRECTION DES AFFAIRES CIVILES ET PENALES","type":"admin justice","district_region":null,"departement_commune":null,"verifie":true,"name":"DIRECTION DES AFFAIRES CIVILES ET PENALES","source":"Géoportail ANSTAT"}},{"type":"Feature","geometry":{"type":"Point","coordinates":[-4.021453253999937,5.327046559000053]},"properties":{"id":103856,"nom":"TRIBUNAL DE COMMERCE D’ABIDJAN (TCA)","type":"admin justice","district_region":null,"departement_commune":null,"verifie":true,"name":"TRIBUNAL DE COMMERCE D’ABIDJAN (TCA)","source":"Géoportail ANSTAT"}},{"type":"Feature","geometry":{"type":"Point","coordinates":[-4.021453253999937,5.327046559000053]},"properties":{"id":103866,"nom":"POLE PENAL ECONOMIQUE ET FINANCIER","type":"admin justice","district_region":null,"departement_commune":null,"verifie":true,"name":"POLE PENAL ECONOMIQUE ET FINANCIER","source":"Géoportail ANSTAT"}}],"metadata":{"dataset":"Admin justice — ANSTAT","source":"Géoportail ANSTAT","theme":"Justice","verified":true,"apercu":"complet"}}