{"type":"FeatureCollection","features":[{"type":"Feature","geometry":{"type":"Point","coordinates":[-6.191372999999942,8.066235000000063]},"properties":{"id":131389,"nom":"ADMINISTRATION DE HOPITAL DE MANKONO","type":"centre hospitalier régional","district_region":null,"departement_commune":null,"verifie":true,"name":"ADMINISTRATION DE HOPITAL DE MANKONO","source":"Géoportail ANSTAT"}},{"type":"Feature","geometry":{"type":"Point","coordinates":[-6.533872999999971,5.263784000000044]},"properties":{"id":131394,"nom":"ASSEMBLEE DE DIEU QUARTIER HOPITAL","type":"centre hospitalier régional","district_region":null,"departement_commune":null,"verifie":true,"name":"ASSEMBLEE DE DIEU QUARTIER HOPITAL","source":"Géoportail ANSTAT"}},{"type":"Feature","geometry":{"type":"Point","coordinates":[-6.072355999999957,5.68225700000005]},"properties":{"id":131443,"nom":"BUREAU DE L HOPITAL","type":"centre hospitalier régional","district_region":null,"departement_commune":null,"verifie":true,"name":"BUREAU DE L HOPITAL","source":"Géoportail ANSTAT"}},{"type":"Feature","geometry":{"type":"Point","coordinates":[-6.636858999999959,4.746846000000062]},"properties":{"id":131946,"nom":"CHR DE SAN PEDRO","type":"centre hospitalier régional","district_region":null,"departement_commune":null,"verifie":true,"name":"CHR DE SAN PEDRO","source":"Géoportail ANSTAT"}},{"type":"Feature","geometry":{"type":"Point","coordinates":[-5.742990999999961,6.978697000000068]},"properties":{"id":132498,"nom":"CENTRE HOSPITALIER REGIONAL DE BOUAFLE","type":"centre hospitalier régional","district_region":null,"departement_commune":null,"verifie":true,"name":"CENTRE HOSPITALIER REGIONAL DE BOUAFLE","source":"Géoportail ANSTAT"}},{"type":"Feature","geometry":{"type":"Point","coordinates":[-7.685708999999974,8.284551000000022]},"properties":{"id":132586,"nom":"CENTRE HOSPITALIER REGIONAL DE TOUBA","type":"centre hospitalier régional","district_region":null,"departement_commune":null,"verifie":true,"name":"CENTRE HOSPITALIER REGIONAL DE TOUBA","source":"Géoportail ANSTAT"}},{"type":"Feature","geometry":{"type":"Point","coordinates":[-3.510297999999977,6.757269000000065]},"properties":{"id":132630,"nom":"CHR D ABENGOUROU","type":"centre hospitalier régional","district_region":null,"departement_commune":null,"verifie":true,"name":"CHR D ABENGOUROU","source":"Géoportail ANSTAT"}},{"type":"Feature","geometry":{"type":"Point","coordinates":[-3.483434999999929,6.731043000000057]},"properties":{"id":132631,"nom":"CENTRE HOSPITALIER REGIONAL","type":"centre hospitalier régional","district_region":null,"departement_commune":null,"verifie":true,"name":"CENTRE HOSPITALIER REGIONAL","source":"Géoportail ANSTAT"}},{"type":"Feature","geometry":{"type":"Point","coordinates":[-7.561088999999981,9.502512000000024]},"properties":{"id":132634,"nom":"CENTRE HOSPITALIER REGIONAL D ODIENNE","type":"centre hospitalier régional","district_region":null,"departement_commune":null,"verifie":true,"name":"CENTRE HOSPITALIER REGIONAL D ODIENNE","source":"Géoportail ANSTAT"}},{"type":"Feature","geometry":{"type":"Point","coordinates":[-5.197477999999933,8.787303000000065]},"properties":{"id":132714,"nom":"CHATEAU DE L HOPITAL","type":"centre hospitalier régional","district_region":null,"departement_commune":null,"verifie":true,"name":"CHATEAU DE L HOPITAL","source":"Géoportail ANSTAT"}},{"type":"Feature","geometry":{"type":"Point","coordinates":[-5.631192999999939,9.443279000000077]},"properties":{"id":132717,"nom":"CHR DE KORHOGO","type":"centre hospitalier régional","district_region":null,"departement_commune":null,"verifie":true,"name":"CHR DE KORHOGO","source":"Géoportail ANSTAT"}},{"type":"Feature","geometry":{"type":"Point","coordinates":[-5.944190999999933,6.126113000000032]},"properties":{"id":132720,"nom":"CHR GAGNOA","type":"centre hospitalier régional","district_region":null,"departement_commune":null,"verifie":true,"name":"CHR GAGNOA","source":"Géoportail ANSTAT"}},{"type":"Feature","geometry":{"type":"Point","coordinates":[-2.793892999999969,8.040729000000056]},"properties":{"id":132721,"nom":"CHR DE BONDOUKOU","type":"centre hospitalier régional","district_region":null,"departement_commune":null,"verifie":true,"name":"CHR DE BONDOUKOU","source":"Géoportail ANSTAT"}},{"type":"Feature","geometry":{"type":"Point","coordinates":[-2.793517999999949,8.040888000000052]},"properties":{"id":132722,"nom":"CHR DE BONDOUKOU","type":"centre hospitalier régional","district_region":null,"departement_commune":null,"verifie":true,"name":"CHR DE BONDOUKOU","source":"Géoportail ANSTAT"}},{"type":"Feature","geometry":{"type":"Point","coordinates":[-6.679941999999926,7.962101000000075]},"properties":{"id":132723,"nom":"CHR DE SEGUELA","type":"centre hospitalier régional","district_region":null,"departement_commune":null,"verifie":true,"name":"CHR DE SEGUELA","source":"Géoportail ANSTAT"}},{"type":"Feature","geometry":{"type":"Point","coordinates":[-4.695993999999928,6.652936000000068]},"properties":{"id":132724,"nom":"CHR DIMBOKRO","type":"centre hospitalier régional","district_region":null,"departement_commune":null,"verifie":true,"name":"CHR DIMBOKRO","source":"Géoportail ANSTAT"}},{"type":"Feature","geometry":{"type":"Point","coordinates":[-3.208167999999944,5.46993800000007]},"properties":{"id":132726,"nom":"CHR ABOISSO","type":"centre hospitalier régional","district_region":null,"departement_commune":null,"verifie":true,"name":"CHR ABOISSO","source":"Géoportail ANSTAT"}},{"type":"Feature","geometry":{"type":"Point","coordinates":[-5.105964999999969,8.14444700000007]},"properties":{"id":132727,"nom":"CHR DE KATIOLA","type":"centre hospitalier régional","district_region":null,"departement_commune":null,"verifie":true,"name":"CHR DE KATIOLA","source":"Géoportail ANSTAT"}},{"type":"Feature","geometry":{"type":"Point","coordinates":[-7.546965999999941,7.40693600000003]},"properties":{"id":132728,"nom":"CHR DE MAN","type":"centre hospitalier régional","district_region":null,"departement_commune":null,"verifie":true,"name":"CHR DE MAN","source":"Géoportail ANSTAT"}},{"type":"Feature","geometry":{"type":"Point","coordinates":[-4.437029999999936,8.363650000000064]},"properties":{"id":134931,"nom":"GROUPE SCOLAIRE HOPITAL DE DABAKALA","type":"centre hospitalier régional","district_region":null,"departement_commune":null,"verifie":true,"name":"GROUPE SCOLAIRE HOPITAL DE DABAKALA","source":"Géoportail ANSTAT"}},{"type":"Feature","geometry":{"type":"Point","coordinates":[-4.21008999999998,6.653589000000068]},"properties":{"id":134934,"nom":"EPP HOPITAL","type":"centre hospitalier régional","district_region":null,"departement_commune":null,"verifie":true,"name":"EPP HOPITAL","source":"Géoportail ANSTAT"}},{"type":"Feature","geometry":{"type":"Point","coordinates":[-4.698061999999936,6.661301000000037]},"properties":{"id":134935,"nom":"EPP HOPITAL","type":"centre hospitalier régional","district_region":null,"departement_commune":null,"verifie":true,"name":"EPP HOPITAL","source":"Géoportail ANSTAT"}},{"type":"Feature","geometry":{"type":"Point","coordinates":[-4.69738499999994,6.660444000000041]},"properties":{"id":134936,"nom":"EPP HOPITAL 2","type":"centre hospitalier régional","district_region":null,"departement_commune":null,"verifie":true,"name":"EPP HOPITAL 2","source":"Géoportail ANSTAT"}},{"type":"Feature","geometry":{"type":"Point","coordinates":[-4.16292999999996,7.090415000000064]},"properties":{"id":134937,"nom":"EPP HOPITAL","type":"centre hospitalier régional","district_region":null,"departement_commune":null,"verifie":true,"name":"EPP HOPITAL","source":"Géoportail ANSTAT"}},{"type":"Feature","geometry":{"type":"Point","coordinates":[-4.01076699999993,7.298280000000034]},"properties":{"id":134938,"nom":"EPP HOPITAL EXTENTION","type":"centre hospitalier régional","district_region":null,"departement_commune":null,"verifie":true,"name":"EPP HOPITAL EXTENTION","source":"Géoportail ANSTAT"}},{"type":"Feature","geometry":{"type":"Point","coordinates":[-3.158471999999961,5.603068000000064]},"properties":{"id":134945,"nom":"EXTENSION DE L HOPITAL GENERAL D AYAME","type":"centre hospitalier régional","district_region":null,"departement_commune":null,"verifie":true,"name":"EXTENSION DE L HOPITAL GENERAL D AYAME","source":"Géoportail ANSTAT"}},{"type":"Feature","geometry":{"type":"Point","coordinates":[-3.977228999999966,7.056939000000057]},"properties":{"id":134950,"nom":"GROUPE SCOLAIRE HOPITAL","type":"centre hospitalier régional","district_region":null,"departement_commune":null,"verifie":true,"name":"GROUPE SCOLAIRE HOPITAL","source":"Géoportail ANSTAT"}},{"type":"Feature","geometry":{"type":"Point","coordinates":[-4.599237999999957,9.150168000000065]},"properties":{"id":134962,"nom":"HOPITAL GENERAL DE KONG EN CONSTRUCTION","type":"centre hospitalier régional","district_region":null,"departement_commune":null,"verifie":true,"name":"HOPITAL GENERAL DE KONG EN CONSTRUCTION","source":"Géoportail ANSTAT"}},{"type":"Feature","geometry":{"type":"Point","coordinates":[-5.475109999999972,10.10826700000007]},"properties":{"id":134963,"nom":"HOPITAL GENERAL DE DIAWALA","type":"centre hospitalier régional","district_region":null,"departement_commune":null,"verifie":true,"name":"HOPITAL GENERAL DE DIAWALA","source":"Géoportail ANSTAT"}},{"type":"Feature","geometry":{"type":"Point","coordinates":[-5.189415999999937,9.610731000000044]},"properties":{"id":134964,"nom":"HOPITAL BATISTE","type":"centre hospitalier régional","district_region":null,"departement_commune":null,"verifie":true,"name":"HOPITAL BATISTE","source":"Géoportail ANSTAT"}},{"type":"Feature","geometry":{"type":"Point","coordinates":[-5.200381999999934,9.596160000000054]},"properties":{"id":134965,"nom":"HOPITAL GENERAL DE FERKESSEDOUGOU","type":"centre hospitalier régional","district_region":null,"departement_commune":null,"verifie":true,"name":"HOPITAL GENERAL DE FERKESSEDOUGOU","source":"Géoportail ANSTAT"}},{"type":"Feature","geometry":{"type":"Point","coordinates":[-6.569457999999941,5.127438000000041]},"properties":{"id":134966,"nom":"HOPITAL","type":"centre hospitalier régional","district_region":null,"departement_commune":null,"verifie":true,"name":"HOPITAL","source":"Géoportail ANSTAT"}},{"type":"Feature","geometry":{"type":"Point","coordinates":[-6.637004999999931,4.994492000000037]},"properties":{"id":134967,"nom":"HOPITAL DE FAHE","type":"centre hospitalier régional","district_region":null,"departement_commune":null,"verifie":true,"name":"HOPITAL DE FAHE","source":"Géoportail ANSTAT"}},{"type":"Feature","geometry":{"type":"Point","coordinates":[-7.054128999999932,4.945422000000065]},"properties":{"id":134968,"nom":"HOPITAL DOGBO","type":"centre hospitalier régional","district_region":null,"departement_commune":null,"verifie":true,"name":"HOPITAL DOGBO","source":"Géoportail ANSTAT"}},{"type":"Feature","geometry":{"type":"Point","coordinates":[-7.357139999999958,4.416827000000069]},"properties":{"id":134969,"nom":"HOPITAL GENERAL DE TABOU","type":"centre hospitalier régional","district_region":null,"departement_commune":null,"verifie":true,"name":"HOPITAL GENERAL DE TABOU","source":"Géoportail ANSTAT"}},{"type":"Feature","geometry":{"type":"Point","coordinates":[-7.494265999999925,4.928052000000037]},"properties":{"id":134970,"nom":"HOPITAL MILITAIRE DE GRABO","type":"centre hospitalier régional","district_region":null,"departement_commune":null,"verifie":true,"name":"HOPITAL MILITAIRE DE GRABO","source":"Géoportail ANSTAT"}},{"type":"Feature","geometry":{"type":"Point","coordinates":[-6.59491399999996,5.068471000000045]},"properties":{"id":134971,"nom":"HOPITAL DE KASSOUM KRO","type":"centre hospitalier régional","district_region":null,"departement_commune":null,"verifie":true,"name":"HOPITAL DE KASSOUM KRO","source":"Géoportail ANSTAT"}},{"type":"Feature","geometry":{"type":"Point","coordinates":[-5.543052999999929,9.266796000000056]},"properties":{"id":134972,"nom":"HOPITAL DE NAHOUOKAHA","type":"centre hospitalier régional","district_region":null,"departement_commune":null,"verifie":true,"name":"HOPITAL DE NAHOUOKAHA","source":"Géoportail ANSTAT"}},{"type":"Feature","geometry":{"type":"Point","coordinates":[-6.603175999999962,5.784871000000066]},"properties":{"id":134973,"nom":"HOPITAL GENERAL DE SOUBRE","type":"centre hospitalier régional","district_region":null,"departement_commune":null,"verifie":true,"name":"HOPITAL GENERAL DE SOUBRE","source":"Géoportail ANSTAT"}},{"type":"Feature","geometry":{"type":"Point","coordinates":[-7.012231999999926,6.24813800000004]},"properties":{"id":134974,"nom":"HOPITAL GENERALE DE BUYO","type":"centre hospitalier régional","district_region":null,"departement_commune":null,"verifie":true,"name":"HOPITAL GENERALE DE BUYO","source":"Géoportail ANSTAT"}},{"type":"Feature","geometry":{"type":"Point","coordinates":[-6.072809999999947,5.691920000000039]},"properties":{"id":134975,"nom":"HOPITAL GENERAL GUEYO","type":"centre hospitalier régional","district_region":null,"departement_commune":null,"verifie":true,"name":"HOPITAL GENERAL GUEYO","source":"Géoportail ANSTAT"}},{"type":"Feature","geometry":{"type":"Point","coordinates":[-4.357532999999933,6.478331000000026]},"properties":{"id":134976,"nom":"HOPITAL GENERAL DE M BATTO","type":"centre hospitalier régional","district_region":null,"departement_commune":null,"verifie":true,"name":"HOPITAL GENERAL DE M BATTO","source":"Géoportail ANSTAT"}},{"type":"Feature","geometry":{"type":"Point","coordinates":[-4.211563999999953,6.654828000000066]},"properties":{"id":134977,"nom":"HOPITAL GENERAL DE BONGOUANOU","type":"centre hospitalier régional","district_region":null,"departement_commune":null,"verifie":true,"name":"HOPITAL GENERAL DE BONGOUANOU","source":"Géoportail ANSTAT"}},{"type":"Feature","geometry":{"type":"Point","coordinates":[-7.237539999999967,7.256486000000052]},"properties":{"id":134978,"nom":"HOPITAL GENERALE DE KOUIBLY","type":"centre hospitalier régional","district_region":null,"departement_commune":null,"verifie":true,"name":"HOPITAL GENERALE DE KOUIBLY","source":"Géoportail ANSTAT"}},{"type":"Feature","geometry":{"type":"Point","coordinates":[-7.306213999999954,7.359072000000026]},"properties":{"id":134979,"nom":"HOPITAL SOAKPE DOUEDY","type":"centre hospitalier régional","district_region":null,"departement_commune":null,"verifie":true,"name":"HOPITAL SOAKPE DOUEDY","source":"Géoportail ANSTAT"}},{"type":"Feature","geometry":{"type":"Point","coordinates":[-7.355623999999978,7.110302000000047]},"properties":{"id":134980,"nom":"HOPITAL DE GLOPLOU","type":"centre hospitalier régional","district_region":null,"departement_commune":null,"verifie":true,"name":"HOPITAL DE GLOPLOU","source":"Géoportail ANSTAT"}},{"type":"Feature","geometry":{"type":"Point","coordinates":[-7.484985999999935,7.015093000000036]},"properties":{"id":134981,"nom":"HOPITAL GENERAL DE BANGOLO","type":"centre hospitalier régional","district_region":null,"departement_commune":null,"verifie":true,"name":"HOPITAL GENERAL DE BANGOLO","source":"Géoportail ANSTAT"}},{"type":"Feature","geometry":{"type":"Point","coordinates":[-5.005477999999925,5.258389000000022]},"properties":{"id":134982,"nom":"HOPITAL GENERAL DE GRAND LAHOU","type":"centre hospitalier régional","district_region":null,"departement_commune":null,"verifie":true,"name":"HOPITAL GENERAL DE GRAND LAHOU","source":"Géoportail ANSTAT"}},{"type":"Feature","geometry":{"type":"Point","coordinates":[-5.00544199999996,5.258453000000031]},"properties":{"id":134983,"nom":"HOPITAL GRAND LAHOU","type":"centre hospitalier régional","district_region":null,"departement_commune":null,"verifie":true,"name":"HOPITAL GRAND LAHOU","source":"Géoportail ANSTAT"}},{"type":"Feature","geometry":{"type":"Point","coordinates":[-4.407205999999974,5.206989000000021]},"properties":{"id":134984,"nom":"HOPITAL GENERAL DE JACQUEVILLE","type":"centre hospitalier régional","district_region":null,"departement_commune":null,"verifie":true,"name":"HOPITAL GENERAL DE JACQUEVILLE","source":"Géoportail ANSTAT"}},{"type":"Feature","geometry":{"type":"Point","coordinates":[-4.389746999999943,5.329584000000068]},"properties":{"id":134985,"nom":"HOPITAL METHODISTE DE DABOU","type":"centre hospitalier régional","district_region":null,"departement_commune":null,"verifie":true,"name":"HOPITAL METHODISTE DE DABOU","source":"Géoportail ANSTAT"}},{"type":"Feature","geometry":{"type":"Point","coordinates":[-5.941736999999932,6.146575000000041]},"properties":{"id":134986,"nom":"HOPITAL GENERAL DE GUIGLO","type":"centre hospitalier régional","district_region":null,"departement_commune":null,"verifie":true,"name":"HOPITAL GENERAL DE GUIGLO","source":"Géoportail ANSTAT"}},{"type":"Feature","geometry":{"type":"Point","coordinates":[-5.418369999999925,6.378238000000067]},"properties":{"id":134987,"nom":"HOPITAL GENERAL","type":"centre hospitalier régional","district_region":null,"departement_commune":null,"verifie":true,"name":"HOPITAL GENERAL","source":"Géoportail ANSTAT"}},{"type":"Feature","geometry":{"type":"Point","coordinates":[-6.076910999999939,5.068686000000071]},"properties":{"id":134988,"nom":"HOPITAL","type":"centre hospitalier régional","district_region":null,"departement_commune":null,"verifie":true,"name":"HOPITAL","source":"Géoportail ANSTAT"}},{"type":"Feature","geometry":{"type":"Point","coordinates":[-6.083653999999967,4.95479000000006]},"properties":{"id":134989,"nom":"HOPITAL GENERAL DE SASSANDRA","type":"centre hospitalier régional","district_region":null,"departement_commune":null,"verifie":true,"name":"HOPITAL GENERAL DE SASSANDRA","source":"Géoportail ANSTAT"}},{"type":"Feature","geometry":{"type":"Point","coordinates":[-5.587163999999973,5.103168000000039]},"properties":{"id":134990,"nom":"HOPITAL GENERAL DE FRESCO","type":"centre hospitalier régional","district_region":null,"departement_commune":null,"verifie":true,"name":"HOPITAL GENERAL DE FRESCO","source":"Géoportail ANSTAT"}},{"type":"Feature","geometry":{"type":"Point","coordinates":[-5.019168999999977,6.553214000000025]},"properties":{"id":134991,"nom":"HOPITAL GENERALE DE TOUMODI","type":"centre hospitalier régional","district_region":null,"departement_commune":null,"verifie":true,"name":"HOPITAL GENERALE DE TOUMODI","source":"Géoportail ANSTAT"}},{"type":"Feature","geometry":{"type":"Point","coordinates":[-5.01938599999994,6.55233800000002]},"properties":{"id":134992,"nom":"HOPITAL GENERALE DE TOUMODI","type":"centre hospitalier régional","district_region":null,"departement_commune":null,"verifie":true,"name":"HOPITAL GENERALE DE TOUMODI","source":"Géoportail ANSTAT"}},{"type":"Feature","geometry":{"type":"Point","coordinates":[-5.11374799999993,6.470597000000055]},"properties":{"id":134993,"nom":"HOPITAL AHOU CATHERINE DE DJEKANOU","type":"centre hospitalier régional","district_region":null,"departement_commune":null,"verifie":true,"name":"HOPITAL AHOU CATHERINE DE DJEKANOU","source":"Géoportail ANSTAT"}},{"type":"Feature","geometry":{"type":"Point","coordinates":[-5.223601999999971,7.159739000000059]},"properties":{"id":134994,"nom":"HOPITAL GENERAL DE TIEBISSOU","type":"centre hospitalier régional","district_region":null,"departement_commune":null,"verifie":true,"name":"HOPITAL GENERAL DE TIEBISSOU","source":"Géoportail ANSTAT"}},{"type":"Feature","geometry":{"type":"Point","coordinates":[-4.89731699999993,7.12633900000003]},"properties":{"id":134995,"nom":"HOPITAL GENERAL DE DIDIEVI","type":"centre hospitalier régional","district_region":null,"departement_commune":null,"verifie":true,"name":"HOPITAL GENERAL DE DIDIEVI","source":"Géoportail ANSTAT"}},{"type":"Feature","geometry":{"type":"Point","coordinates":[-3.172582999999975,7.797659000000067]},"properties":{"id":134996,"nom":"HOPITAL GENERAL DE TANDA","type":"centre hospitalier régional","district_region":null,"departement_commune":null,"verifie":true,"name":"HOPITAL GENERAL DE TANDA","source":"Géoportail ANSTAT"}},{"type":"Feature","geometry":{"type":"Point","coordinates":[-3.011046999999962,7.544118000000026]},"properties":{"id":134997,"nom":"HOPITAL","type":"centre hospitalier régional","district_region":null,"departement_commune":null,"verifie":true,"name":"HOPITAL","source":"Géoportail ANSTAT"}},{"type":"Feature","geometry":{"type":"Point","coordinates":[-6.711637999999937,7.980044000000021]},"properties":{"id":134998,"nom":"HOPITAL DE GBOLO","type":"centre hospitalier régional","district_region":null,"departement_commune":null,"verifie":true,"name":"HOPITAL DE GBOLO","source":"Géoportail ANSTAT"}},{"type":"Feature","geometry":{"type":"Point","coordinates":[-6.050634999999943,7.432023000000072]},"properties":{"id":134999,"nom":"HOPITAL GENERAL DE ZUENOULA","type":"centre hospitalier régional","district_region":null,"departement_commune":null,"verifie":true,"name":"HOPITAL GENERAL DE ZUENOULA","source":"Géoportail ANSTAT"}},{"type":"Feature","geometry":{"type":"Point","coordinates":[-5.914761999999939,6.622635000000059]},"properties":{"id":135000,"nom":"HOPITAL GENERAL DE SINFRA","type":"centre hospitalier régional","district_region":null,"departement_commune":null,"verifie":true,"name":"HOPITAL GENERAL DE SINFRA","source":"Géoportail ANSTAT"}},{"type":"Feature","geometry":{"type":"Point","coordinates":[-5.118159999999932,7.479107000000056]},"properties":{"id":135001,"nom":"HOPITAL DE NDOUAKRO","type":"centre hospitalier régional","district_region":null,"departement_commune":null,"verifie":true,"name":"HOPITAL DE NDOUAKRO","source":"Géoportail ANSTAT"}},{"type":"Feature","geometry":{"type":"Point","coordinates":[-4.804477999999961,7.947001000000057]},"properties":{"id":135002,"nom":"HOPITAL EN CONSTRUCTION","type":"centre hospitalier régional","district_region":null,"departement_commune":null,"verifie":true,"name":"HOPITAL EN CONSTRUCTION","source":"Géoportail ANSTAT"}},{"type":"Feature","geometry":{"type":"Point","coordinates":[-4.86870099999993,7.79278800000003]},"properties":{"id":135003,"nom":"HOPITAL DE LANGBASSOU","type":"centre hospitalier régional","district_region":null,"departement_commune":null,"verifie":true,"name":"HOPITAL DE LANGBASSOU","source":"Géoportail ANSTAT"}},{"type":"Feature","geometry":{"type":"Point","coordinates":[-4.954550999999981,7.740249000000063]},"properties":{"id":135004,"nom":"HOPITAL DE KAHANKRO","type":"centre hospitalier régional","district_region":null,"departement_commune":null,"verifie":true,"name":"HOPITAL DE KAHANKRO","source":"Géoportail ANSTAT"}},{"type":"Feature","geometry":{"type":"Point","coordinates":[-5.021703999999943,7.580573000000072]},"properties":{"id":135005,"nom":"HOPITAL MANIKRO","type":"centre hospitalier régional","district_region":null,"departement_commune":null,"verifie":true,"name":"HOPITAL MANIKRO","source":"Géoportail ANSTAT"}},{"type":"Feature","geometry":{"type":"Point","coordinates":[-5.008454999999969,7.735909000000049]},"properties":{"id":135006,"nom":"HOPITAL MATERNO INFANTILE AKWABA CATALUNYA","type":"centre hospitalier régional","district_region":null,"departement_commune":null,"verifie":true,"name":"HOPITAL MATERNO INFANTILE AKWABA CATALUNYA","source":"Géoportail ANSTAT"}},{"type":"Feature","geometry":{"type":"Point","coordinates":[-5.041253999999981,7.675747000000058]},"properties":{"id":135007,"nom":"HOPITAL PSYCHATRIQUE DE BOUAKE","type":"centre hospitalier régional","district_region":null,"departement_commune":null,"verifie":true,"name":"HOPITAL PSYCHATRIQUE DE BOUAKE","source":"Géoportail ANSTAT"}},{"type":"Feature","geometry":{"type":"Point","coordinates":[-5.290992999999958,7.446041000000037]},"properties":{"id":135008,"nom":"HOPITAL GENERAL DE SAKASSOU","type":"centre hospitalier régional","district_region":null,"departement_commune":null,"verifie":true,"name":"HOPITAL GENERAL DE SAKASSOU","source":"Géoportail ANSTAT"}},{"type":"Feature","geometry":{"type":"Point","coordinates":[-5.464596999999969,7.673944000000063]},"properties":{"id":135009,"nom":"HOPITAL GENERAL","type":"centre hospitalier régional","district_region":null,"departement_commune":null,"verifie":true,"name":"HOPITAL GENERAL","source":"Géoportail ANSTAT"}},{"type":"Feature","geometry":{"type":"Point","coordinates":[-5.572082999999964,7.676135000000045]},"properties":{"id":135010,"nom":"HOPITAL GENERAL DE BEOUMI","type":"centre hospitalier régional","district_region":null,"departement_commune":null,"verifie":true,"name":"HOPITAL GENERAL DE BEOUMI","source":"Géoportail ANSTAT"}},{"type":"Feature","geometry":{"type":"Point","coordinates":[-5.271643999999981,7.777153000000055]},"properties":{"id":135011,"nom":"HOPITAL DE SAOUNDI","type":"centre hospitalier régional","district_region":null,"departement_commune":null,"verifie":true,"name":"HOPITAL DE SAOUNDI","source":"Géoportail ANSTAT"}},{"type":"Feature","geometry":{"type":"Point","coordinates":[-3.481580999999949,8.450870000000066]},"properties":{"id":135012,"nom":"HOPITAL GENERAL DE NASSIAN","type":"centre hospitalier régional","district_region":null,"departement_commune":null,"verifie":true,"name":"HOPITAL GENERAL DE NASSIAN","source":"Géoportail ANSTAT"}},{"type":"Feature","geometry":{"type":"Point","coordinates":[-2.997847999999976,9.26716300000004]},"properties":{"id":135013,"nom":"HOPITAL GENERAL DE BOUNA","type":"centre hospitalier régional","district_region":null,"departement_commune":null,"verifie":true,"name":"HOPITAL GENERAL DE BOUNA","source":"Géoportail ANSTAT"}},{"type":"Feature","geometry":{"type":"Point","coordinates":[-4.502872999999965,7.06133600000004]},"properties":{"id":135014,"nom":"HOPITAL GENERAL DE BOCANDA","type":"centre hospitalier régional","district_region":null,"departement_commune":null,"verifie":true,"name":"HOPITAL GENERAL DE BOCANDA","source":"Géoportail ANSTAT"}},{"type":"Feature","geometry":{"type":"Point","coordinates":[-7.455544999999972,5.870802000000026]},"properties":{"id":135015,"nom":"HOPITAL GENERAL DE TAI","type":"centre hospitalier régional","district_region":null,"departement_commune":null,"verifie":true,"name":"HOPITAL GENERAL DE TAI","source":"Géoportail ANSTAT"}},{"type":"Feature","geometry":{"type":"Point","coordinates":[-8.004170999999928,6.56860400000005]},"properties":{"id":135016,"nom":"HOPITAL","type":"centre hospitalier régional","district_region":null,"departement_commune":null,"verifie":true,"name":"HOPITAL","source":"Géoportail ANSTAT"}},{"type":"Feature","geometry":{"type":"Point","coordinates":[-8.417639999999949,6.57714500000003]},"properties":{"id":135017,"nom":"HOPITAL GENERAL DE TOULEPLEU","type":"centre hospitalier régional","district_region":null,"departement_commune":null,"verifie":true,"name":"HOPITAL GENERAL DE TOULEPLEU","source":"Géoportail ANSTAT"}},{"type":"Feature","geometry":{"type":"Point","coordinates":[-8.412780999999939,6.588352000000043]},"properties":{"id":135018,"nom":"HOPITAL MILITAIRE DE TOULEPLEU","type":"centre hospitalier régional","district_region":null,"departement_commune":null,"verifie":true,"name":"HOPITAL MILITAIRE DE TOULEPLEU","source":"Géoportail ANSTAT"}},{"type":"Feature","geometry":{"type":"Point","coordinates":[-6.340064999999981,7.455439000000069]},"properties":{"id":135019,"nom":"HOPITAL VANIEBI","type":"centre hospitalier régional","district_region":null,"departement_commune":null,"verifie":true,"name":"HOPITAL VANIEBI","source":"Géoportail ANSTAT"}},{"type":"Feature","geometry":{"type":"Point","coordinates":[-6.479503999999963,7.388702000000023]},"properties":{"id":135020,"nom":"HOPITAL GENERAL DE VAVOUA","type":"centre hospitalier régional","district_region":null,"departement_commune":null,"verifie":true,"name":"HOPITAL GENERAL DE VAVOUA","source":"Géoportail ANSTAT"}},{"type":"Feature","geometry":{"type":"Point","coordinates":[-6.769056999999975,6.794447000000048]},"properties":{"id":135021,"nom":"HOPITAL","type":"centre hospitalier régional","district_region":null,"departement_commune":null,"verifie":true,"name":"HOPITAL","source":"Géoportail ANSTAT"}},{"type":"Feature","geometry":{"type":"Point","coordinates":[-6.487352999999928,6.689202000000023]},"properties":{"id":135022,"nom":"HOPITAL","type":"centre hospitalier régional","district_region":null,"departement_commune":null,"verifie":true,"name":"HOPITAL","source":"Géoportail ANSTAT"}},{"type":"Feature","geometry":{"type":"Point","coordinates":[-6.859718999999927,6.769078000000036]},"properties":{"id":135023,"nom":"HOPITAL GENERAL DE ZOUKOUGBEU","type":"centre hospitalier régional","district_region":null,"departement_commune":null,"verifie":true,"name":"HOPITAL GENERAL DE ZOUKOUGBEU","source":"Géoportail ANSTAT"}},{"type":"Feature","geometry":{"type":"Point","coordinates":[-4.693925999999976,5.898285000000044]},"properties":{"id":135024,"nom":"HOPITAL SAINT JEAN BAPTISTE DE BODO","type":"centre hospitalier régional","district_region":null,"departement_commune":null,"verifie":true,"name":"HOPITAL SAINT JEAN BAPTISTE DE BODO","source":"Géoportail ANSTAT"}},{"type":"Feature","geometry":{"type":"Point","coordinates":[-4.567183999999941,5.65216300000003]},"properties":{"id":135025,"nom":"HOPITAL DE BRAFOUEBY","type":"centre hospitalier régional","district_region":null,"departement_commune":null,"verifie":true,"name":"HOPITAL DE BRAFOUEBY","source":"Géoportail ANSTAT"}},{"type":"Feature","geometry":{"type":"Point","coordinates":[-5.071217999999931,6.269922000000065]},"properties":{"id":135026,"nom":"HOPITAL GENERAL DE TAABO","type":"centre hospitalier régional","district_region":null,"departement_commune":null,"verifie":true,"name":"HOPITAL GENERAL DE TAABO","source":"Géoportail ANSTAT"}},{"type":"Feature","geometry":{"type":"Point","coordinates":[-4.824644999999975,5.89080000000007]},"properties":{"id":135027,"nom":"HOPITAL GENERAL DE TIASSALE","type":"centre hospitalier régional","district_region":null,"departement_commune":null,"verifie":true,"name":"HOPITAL GENERAL DE TIASSALE","source":"Géoportail ANSTAT"}},{"type":"Feature","geometry":{"type":"Point","coordinates":[-4.579193999999973,5.661287000000073]},"properties":{"id":135028,"nom":"HOPITAL GENERAL DE SIKENSI","type":"centre hospitalier régional","district_region":null,"departement_commune":null,"verifie":true,"name":"HOPITAL GENERAL DE SIKENSI","source":"Géoportail ANSTAT"}},{"type":"Feature","geometry":{"type":"Point","coordinates":[-4.579192999999975,5.661287000000073]},"properties":{"id":135029,"nom":"HOPITAL GENERALDE SIKENSI","type":"centre hospitalier régional","district_region":null,"departement_commune":null,"verifie":true,"name":"HOPITAL GENERALDE SIKENSI","source":"Géoportail ANSTAT"}},{"type":"Feature","geometry":{"type":"Point","coordinates":[-4.290460999999937,5.839497000000051]},"properties":{"id":135030,"nom":"HOPITAL DE GBESSE","type":"centre hospitalier régional","district_region":null,"departement_commune":null,"verifie":true,"name":"HOPITAL DE GBESSE","source":"Géoportail ANSTAT"}},{"type":"Feature","geometry":{"type":"Point","coordinates":[-4.54633199999995,5.896863000000053]},"properties":{"id":135031,"nom":"HOPITALE DABOUDE MANDEKE","type":"centre hospitalier régional","district_region":null,"departement_commune":null,"verifie":true,"name":"HOPITALE DABOUDE MANDEKE","source":"Géoportail ANSTAT"}},{"type":"Feature","geometry":{"type":"Point","coordinates":[-5.681224999999927,5.856087000000059]},"properties":{"id":135032,"nom":"HOPITALE GENERALE DE LAKOTA","type":"centre hospitalier régional","district_region":null,"departement_commune":null,"verifie":true,"name":"HOPITALE GENERALE DE LAKOTA","source":"Géoportail ANSTAT"}},{"type":"Feature","geometry":{"type":"Point","coordinates":[-5.241602999999941,5.523473000000024]},"properties":{"id":135033,"nom":"HOPITAL GENERAL DE GUITRY","type":"centre hospitalier régional","district_region":null,"departement_commune":null,"verifie":true,"name":"HOPITAL GENERAL DE GUITRY","source":"Géoportail ANSTAT"}},{"type":"Feature","geometry":{"type":"Point","coordinates":[-5.356727999999976,5.842390000000023]},"properties":{"id":135034,"nom":"HOPITAL GENERAL CHR DE DIVO","type":"centre hospitalier régional","district_region":null,"departement_commune":null,"verifie":true,"name":"HOPITAL GENERAL CHR DE DIVO","source":"Géoportail ANSTAT"}},{"type":"Feature","geometry":{"type":"Point","coordinates":[-6.479031999999961,9.51607800000005]},"properties":{"id":135035,"nom":"HOPITAL BAPTISTE DE BOUNDIALI","type":"centre hospitalier régional","district_region":null,"departement_commune":null,"verifie":true,"name":"HOPITAL BAPTISTE DE BOUNDIALI","source":"Géoportail ANSTAT"}},{"type":"Feature","geometry":{"type":"Point","coordinates":[-6.483454999999935,9.519016000000022]},"properties":{"id":135036,"nom":"HOPITAL GENERAL DE BOUNDIALI","type":"centre hospitalier régional","district_region":null,"departement_commune":null,"verifie":true,"name":"HOPITAL GENERAL DE BOUNDIALI","source":"Géoportail ANSTAT"}},{"type":"Feature","geometry":{"type":"Point","coordinates":[-6.489042999999981,9.534928000000036]},"properties":{"id":135037,"nom":"HOPITAL REGIONAL DES ENSEIGANTS DE LA BAGOUE","type":"centre hospitalier régional","district_region":null,"departement_commune":null,"verifie":true,"name":"HOPITAL REGIONAL DES ENSEIGANTS DE LA BAGOUE","source":"Géoportail ANSTAT"}},{"type":"Feature","geometry":{"type":"Point","coordinates":[-6.408552999999927,10.49613100000005]},"properties":{"id":135038,"nom":"HOPITAL GENERAL DE TENGRELA","type":"centre hospitalier régional","district_region":null,"departement_commune":null,"verifie":true,"name":"HOPITAL GENERAL DE TENGRELA","source":"Géoportail ANSTAT"}},{"type":"Feature","geometry":{"type":"Point","coordinates":[-6.191284999999937,8.066560000000038]},"properties":{"id":135039,"nom":"HOPITAL GENERAL DE MANKONO","type":"centre hospitalier régional","district_region":null,"departement_commune":null,"verifie":true,"name":"HOPITAL GENERAL DE MANKONO","source":"Géoportail ANSTAT"}},{"type":"Feature","geometry":{"type":"Point","coordinates":[-7.511433999999952,9.81543300000004]},"properties":{"id":135040,"nom":"HOPITAL GENERAL DE KANIASSO","type":"centre hospitalier régional","district_region":null,"departement_commune":null,"verifie":true,"name":"HOPITAL GENERAL DE KANIASSO","source":"Géoportail ANSTAT"}},{"type":"Feature","geometry":{"type":"Point","coordinates":[-7.834339999999941,9.99556300000006]},"properties":{"id":135041,"nom":"HOPITAL GENERAL DE MINIGNAN","type":"centre hospitalier régional","district_region":null,"departement_commune":null,"verifie":true,"name":"HOPITAL GENERAL DE MINIGNAN","source":"Géoportail ANSTAT"}},{"type":"Feature","geometry":{"type":"Point","coordinates":[-3.412751999999955,6.953878000000032]},"properties":{"id":135042,"nom":"HOPITAL MARIA GRAZIA BALDUCC ROSSI DE YAKASSE FEYASSE","type":"centre hospitalier régional","district_region":null,"departement_commune":null,"verifie":true,"name":"HOPITAL MARIA GRAZIA BALDUCC ROSSI DE YAKASSE FEYASSE","source":"Géoportail ANSTAT"}},{"type":"Feature","geometry":{"type":"Point","coordinates":[-3.577886999999976,6.822511000000077]},"properties":{"id":135043,"nom":"HOPITAL","type":"centre hospitalier régional","district_region":null,"departement_commune":null,"verifie":true,"name":"HOPITAL","source":"Géoportail ANSTAT"}},{"type":"Feature","geometry":{"type":"Point","coordinates":[-3.612120999999945,6.899822000000029]},"properties":{"id":135044,"nom":"HOPITAL DE KOITIENKRO","type":"centre hospitalier régional","district_region":null,"departement_commune":null,"verifie":true,"name":"HOPITAL DE KOITIENKRO","source":"Géoportail ANSTAT"}},{"type":"Feature","geometry":{"type":"Point","coordinates":[-3.19937299999998,7.127523000000053]},"properties":{"id":135045,"nom":"HOPITAL GENERAL DE AGNIBILEKROU","type":"centre hospitalier régional","district_region":null,"departement_commune":null,"verifie":true,"name":"HOPITAL GENERAL DE AGNIBILEKROU","source":"Géoportail ANSTAT"}},{"type":"Feature","geometry":{"type":"Point","coordinates":[-3.410641999999939,6.075822000000073]},"properties":{"id":135046,"nom":"HOPITAL GENERAL DE BETTIE","type":"centre hospitalier régional","district_region":null,"departement_commune":null,"verifie":true,"name":"HOPITAL GENERAL DE BETTIE","source":"Géoportail ANSTAT"}},{"type":"Feature","geometry":{"type":"Point","coordinates":[-6.945784999999944,9.610673000000077]},"properties":{"id":135047,"nom":"HOPITAL GENERAL","type":"centre hospitalier régional","district_region":null,"departement_commune":null,"verifie":true,"name":"HOPITAL GENERAL","source":"Géoportail ANSTAT"}},{"type":"Feature","geometry":{"type":"Point","coordinates":[-6.940969999999936,9.049765000000036]},"properties":{"id":135048,"nom":"HOPITAL","type":"centre hospitalier régional","district_region":null,"departement_commune":null,"verifie":true,"name":"HOPITAL","source":"Géoportail ANSTAT"}},{"type":"Feature","geometry":{"type":"Point","coordinates":[-3.661596999999972,5.499636000000066]},"properties":{"id":135049,"nom":"HOPITAL DES SOEURS D ALEPE","type":"centre hospitalier régional","district_region":null,"departement_commune":null,"verifie":true,"name":"HOPITAL DES SOEURS D ALEPE","source":"Géoportail ANSTAT"}},{"type":"Feature","geometry":{"type":"Point","coordinates":[-3.662458999999956,5.502259000000038]},"properties":{"id":135050,"nom":"HOPITAL GENERAL D ALEPE","type":"centre hospitalier régional","district_region":null,"departement_commune":null,"verifie":true,"name":"HOPITAL GENERAL D ALEPE","source":"Géoportail ANSTAT"}},{"type":"Feature","geometry":{"type":"Point","coordinates":[-3.415375999999981,5.646535000000029]},"properties":{"id":135051,"nom":"HOPITAL","type":"centre hospitalier régional","district_region":null,"departement_commune":null,"verifie":true,"name":"HOPITAL","source":"Géoportail ANSTAT"}},{"type":"Feature","geometry":{"type":"Point","coordinates":[-3.95429299999995,6.045976000000053]},"properties":{"id":135052,"nom":"HOPITAL D ANDE","type":"centre hospitalier régional","district_region":null,"departement_commune":null,"verifie":true,"name":"HOPITAL D ANDE","source":"Géoportail ANSTAT"}},{"type":"Feature","geometry":{"type":"Point","coordinates":[-3.970057999999938,6.02228400000007]},"properties":{"id":135053,"nom":"HOPITAL DE GRAND AKOUDZIN","type":"centre hospitalier régional","district_region":null,"departement_commune":null,"verifie":true,"name":"HOPITAL DE GRAND AKOUDZIN","source":"Géoportail ANSTAT"}},{"type":"Feature","geometry":{"type":"Point","coordinates":[-3.811019999999928,5.996397000000059]},"properties":{"id":135054,"nom":"HOPITAL GENERAL DE ASSIKOI","type":"centre hospitalier régional","district_region":null,"departement_commune":null,"verifie":true,"name":"HOPITAL GENERAL DE ASSIKOI","source":"Géoportail ANSTAT"}},{"type":"Feature","geometry":{"type":"Point","coordinates":[-3.860469999999964,6.103837000000055]},"properties":{"id":135055,"nom":"HOPITAL GENERALE D ADZOPE","type":"centre hospitalier régional","district_region":null,"departement_commune":null,"verifie":true,"name":"HOPITAL GENERALE D ADZOPE","source":"Géoportail ANSTAT"}},{"type":"Feature","geometry":{"type":"Point","coordinates":[-3.948583999999926,6.320430000000044]},"properties":{"id":135056,"nom":"HOPITAL D AFFERY","type":"centre hospitalier régional","district_region":null,"departement_commune":null,"verifie":true,"name":"HOPITAL D AFFERY","source":"Géoportail ANSTAT"}},{"type":"Feature","geometry":{"type":"Point","coordinates":[-3.885098999999968,6.381163000000072]},"properties":{"id":135057,"nom":"HOPITAL GENERAL D AKOUPE","type":"centre hospitalier régional","district_region":null,"departement_commune":null,"verifie":true,"name":"HOPITAL GENERAL D AKOUPE","source":"Géoportail ANSTAT"}},{"type":"Feature","geometry":{"type":"Point","coordinates":[-3.590301999999951,5.273671000000036]},"properties":{"id":135058,"nom":"HOPITAL GENERAL DE BONOUA","type":"centre hospitalier régional","district_region":null,"departement_commune":null,"verifie":true,"name":"HOPITAL GENERAL DE BONOUA","source":"Géoportail ANSTAT"}},{"type":"Feature","geometry":{"type":"Point","coordinates":[-3.735683999999935,5.20714700000002]},"properties":{"id":135059,"nom":"HOPITALE GENERAL DE GRAND BASSAM","type":"centre hospitalier régional","district_region":null,"departement_commune":null,"verifie":true,"name":"HOPITALE GENERAL DE GRAND BASSAM","source":"Géoportail ANSTAT"}},{"type":"Feature","geometry":{"type":"Point","coordinates":[-3.298987999999952,5.285654000000022]},"properties":{"id":135060,"nom":"HOPITAL GENERAL D ADIAKE","type":"centre hospitalier régional","district_region":null,"departement_commune":null,"verifie":true,"name":"HOPITAL GENERAL D ADIAKE","source":"Géoportail ANSTAT"}},{"type":"Feature","geometry":{"type":"Point","coordinates":[-3.023988999999972,5.13505600000002]},"properties":{"id":135061,"nom":"HOPITAL GENERAL DE TIAPOUM","type":"centre hospitalier régional","district_region":null,"departement_commune":null,"verifie":true,"name":"HOPITAL GENERAL DE TIAPOUM","source":"Géoportail ANSTAT"}},{"type":"Feature","geometry":{"type":"Point","coordinates":[-3.158368999999936,5.603662000000043]},"properties":{"id":135062,"nom":"HOPITAL GENERAL D AYAME","type":"centre hospitalier régional","district_region":null,"departement_commune":null,"verifie":true,"name":"HOPITAL GENERAL D AYAME","source":"Géoportail ANSTAT"}},{"type":"Feature","geometry":{"type":"Point","coordinates":[-3.158314999999959,5.603779000000031]},"properties":{"id":135063,"nom":"HOPITAL GENERALE D AYAME","type":"centre hospitalier régional","district_region":null,"departement_commune":null,"verifie":true,"name":"HOPITAL GENERALE D AYAME","source":"Géoportail ANSTAT"}},{"type":"Feature","geometry":{"type":"Point","coordinates":[-3.033374999999978,5.416070000000047]},"properties":{"id":135064,"nom":"HOPITAL GENERAL DE MAFERE","type":"centre hospitalier régional","district_region":null,"departement_commune":null,"verifie":true,"name":"HOPITAL GENERAL DE MAFERE","source":"Géoportail ANSTAT"}},{"type":"Feature","geometry":{"type":"Point","coordinates":[-5.282350999999949,8.664240000000063]},"properties":{"id":135065,"nom":"HOPITAL GENERAL DE NIKARAMADOUGOU","type":"centre hospitalier régional","district_region":null,"departement_commune":null,"verifie":true,"name":"HOPITAL GENERAL DE NIKARAMADOUGOU","source":"Géoportail ANSTAT"}},{"type":"Feature","geometry":{"type":"Point","coordinates":[-5.681752999999958,8.769274000000053]},"properties":{"id":135066,"nom":"HOPITAL DE TORTIYA","type":"centre hospitalier régional","district_region":null,"departement_commune":null,"verifie":true,"name":"HOPITAL DE TORTIYA","source":"Géoportail ANSTAT"}},{"type":"Feature","geometry":{"type":"Point","coordinates":[-4.327665999999965,8.537005000000022]},"properties":{"id":135067,"nom":"HOPITAL DE KAFINE NOUMOUSSO","type":"centre hospitalier régional","district_region":null,"departement_commune":null,"verifie":true,"name":"HOPITAL DE KAFINE NOUMOUSSO","source":"Géoportail ANSTAT"}},{"type":"Feature","geometry":{"type":"Point","coordinates":[-4.433678999999927,8.369650000000036]},"properties":{"id":135068,"nom":"HOPITAL GENERAL DE DABAKALA","type":"centre hospitalier régional","district_region":null,"departement_commune":null,"verifie":true,"name":"HOPITAL GENERAL DE DABAKALA","source":"Géoportail ANSTAT"}},{"type":"Feature","geometry":{"type":"Point","coordinates":[-7.515063999999938,7.31750500000004]},"properties":{"id":135069,"nom":"HOPITAL DE BLOLE","type":"centre hospitalier régional","district_region":null,"departement_commune":null,"verifie":true,"name":"HOPITAL DE BLOLE","source":"Géoportail ANSTAT"}},{"type":"Feature","geometry":{"type":"Point","coordinates":[-7.522699999999929,7.14899500000007]},"properties":{"id":135070,"nom":"HOPITAL DE KOULINLE","type":"centre hospitalier régional","district_region":null,"departement_commune":null,"verifie":true,"name":"HOPITAL DE KOULINLE","source":"Géoportail ANSTAT"}},{"type":"Feature","geometry":{"type":"Point","coordinates":[-8.099178999999936,6.943411000000026]},"properties":{"id":135071,"nom":"HOPITAL DE NATTA","type":"centre hospitalier régional","district_region":null,"departement_commune":null,"verifie":true,"name":"HOPITAL DE NATTA","source":"Géoportail ANSTAT"}},{"type":"Feature","geometry":{"type":"Point","coordinates":[-8.241827999999941,7.245365000000049]},"properties":{"id":135072,"nom":"HOPITAL","type":"centre hospitalier régional","district_region":null,"departement_commune":null,"verifie":true,"name":"HOPITAL","source":"Géoportail ANSTAT"}},{"type":"Feature","geometry":{"type":"Point","coordinates":[-8.154154999999946,7.263573000000065]},"properties":{"id":135073,"nom":"HOPITAL GENERAL DE DANANE","type":"centre hospitalier régional","district_region":null,"departement_commune":null,"verifie":true,"name":"HOPITAL GENERAL DE DANANE","source":"Géoportail ANSTAT"}},{"type":"Feature","geometry":{"type":"Point","coordinates":[-8.154152999999951,7.263694000000044]},"properties":{"id":135074,"nom":"HOPITAL GENERAL DE DANANE","type":"centre hospitalier régional","district_region":null,"departement_commune":null,"verifie":true,"name":"HOPITAL GENERAL DE DANANE","source":"Géoportail ANSTAT"}},{"type":"Feature","geometry":{"type":"Point","coordinates":[-8.067184999999938,7.943132000000048]},"properties":{"id":135075,"nom":"HOPITAL DE KOULALE","type":"centre hospitalier régional","district_region":null,"departement_commune":null,"verifie":true,"name":"HOPITAL DE KOULALE","source":"Géoportail ANSTAT"}},{"type":"Feature","geometry":{"type":"Point","coordinates":[-7.415225999999961,7.533912000000043]},"properties":{"id":135076,"nom":"HOPITAL GENERAL DE GBONNE","type":"centre hospitalier régional","district_region":null,"departement_commune":null,"verifie":true,"name":"HOPITAL GENERAL DE GBONNE","source":"Géoportail ANSTAT"}},{"type":"Feature","geometry":{"type":"Point","coordinates":[-7.620909999999981,7.749360000000024]},"properties":{"id":135077,"nom":"HOPITAL GENERAL DE BIANKOUMA","type":"centre hospitalier régional","district_region":null,"departement_commune":null,"verifie":true,"name":"HOPITAL GENERAL DE BIANKOUMA","source":"Géoportail ANSTAT"}},{"type":"Feature","geometry":{"type":"Point","coordinates":[-7.645767999999975,7.587308000000064]},"properties":{"id":135078,"nom":"HOPITALE","type":"centre hospitalier régional","district_region":null,"departement_commune":null,"verifie":true,"name":"HOPITALE","source":"Géoportail ANSTAT"}},{"type":"Feature","geometry":{"type":"Point","coordinates":[-8.207605999999942,6.926659000000029]},"properties":{"id":135079,"nom":"HOPITAL GENERAL DE ZOUAN HOUNIEN","type":"centre hospitalier régional","district_region":null,"departement_commune":null,"verifie":true,"name":"HOPITAL GENERAL DE ZOUAN HOUNIEN","source":"Géoportail ANSTAT"}},{"type":"Feature","geometry":{"type":"Point","coordinates":[-3.995967999999948,7.651291000000072]},"properties":{"id":135080,"nom":"HOPITAL GENERAL DE PRIKRO","type":"centre hospitalier régional","district_region":null,"departement_commune":null,"verifie":true,"name":"HOPITAL GENERAL DE PRIKRO","source":"Géoportail ANSTAT"}},{"type":"Feature","geometry":{"type":"Point","coordinates":[-4.335513999999932,7.458111000000031]},"properties":{"id":135081,"nom":"HOPITAL GENERAL M BAHIAKRO","type":"centre hospitalier régional","district_region":null,"departement_commune":null,"verifie":true,"name":"HOPITAL GENERAL M BAHIAKRO","source":"Géoportail ANSTAT"}},{"type":"Feature","geometry":{"type":"Point","coordinates":[-3.971461999999974,7.057185000000061]},"properties":{"id":135082,"nom":"HOPITAL GENERAL DE DAOUKRO","type":"centre hospitalier régional","district_region":null,"departement_commune":null,"verifie":true,"name":"HOPITAL GENERAL DE DAOUKRO","source":"Géoportail ANSTAT"}},{"type":"Feature","geometry":{"type":"Point","coordinates":[-5.039956999999958,7.701037000000042]},"properties":{"id":135084,"nom":"GROUPE SCOLAIRE HOPITAL ODIENNEKOURANI","type":"centre hospitalier régional","district_region":null,"departement_commune":null,"verifie":true,"name":"GROUPE SCOLAIRE HOPITAL ODIENNEKOURANI","source":"Géoportail ANSTAT"}},{"type":"Feature","geometry":{"type":"Point","coordinates":[-5.138073999999961,8.212349000000074]},"properties":{"id":135085,"nom":"HOPITAL TRADI PRATICIEN OBEKAN TOURE ANGLINAYE FRONAN","type":"centre hospitalier régional","district_region":null,"departement_commune":null,"verifie":true,"name":"HOPITAL TRADI PRATICIEN OBEKAN TOURE ANGLINAYE FRONAN","source":"Géoportail ANSTAT"}},{"type":"Feature","geometry":{"type":"Point","coordinates":[-6.602171999999939,5.78504300000003]},"properties":{"id":135123,"nom":"GROUPE SCOLAIRE EPP HOPITAL","type":"centre hospitalier régional","district_region":null,"departement_commune":null,"verifie":true,"name":"GROUPE SCOLAIRE EPP HOPITAL","source":"Géoportail ANSTAT"}},{"type":"Feature","geometry":{"type":"Point","coordinates":[-2.902098999999964,5.496924000000035]},"properties":{"id":135125,"nom":"MAQUIS EN FACE DE L HOPITAL","type":"centre hospitalier régional","district_region":null,"departement_commune":null,"verifie":true,"name":"MAQUIS EN FACE DE L HOPITAL","source":"Géoportail ANSTAT"}},{"type":"Feature","geometry":{"type":"Point","coordinates":[-6.534566999999981,5.264559000000077]},"properties":{"id":135161,"nom":"MOSQUE HOPITAL","type":"centre hospitalier régional","district_region":null,"departement_commune":null,"verifie":true,"name":"MOSQUE HOPITAL","source":"Géoportail ANSTAT"}},{"type":"Feature","geometry":{"type":"Point","coordinates":[-7.833712999999932,9.995928000000047]},"properties":{"id":135166,"nom":"MOSQUEE DE L HOPITAL","type":"centre hospitalier régional","district_region":null,"departement_commune":null,"verifie":true,"name":"MOSQUEE DE L HOPITAL","source":"Géoportail ANSTAT"}},{"type":"Feature","geometry":{"type":"Point","coordinates":[-5.277293999999927,6.818429000000037]},"properties":{"id":135714,"nom":"CHR DE YAMOUSSOUKRO","type":"centre hospitalier régional","district_region":null,"departement_commune":null,"verifie":true,"name":"CHR DE YAMOUSSOUKRO","source":"Géoportail ANSTAT"}},{"type":"Feature","geometry":{"type":"Point","coordinates":[-5.289813999999978,6.813550000000021]},"properties":{"id":135718,"nom":"HOPITAL MOSCATI","type":"centre hospitalier régional","district_region":null,"departement_commune":null,"verifie":true,"name":"HOPITAL MOSCATI","source":"Géoportail ANSTAT"}},{"type":"Feature","geometry":{"type":"Point","coordinates":[-4.407411999999965,5.208129000000042]},"properties":{"id":135750,"nom":"SUPERETTE CARREFOUR HOPITAL","type":"centre hospitalier régional","district_region":null,"departement_commune":null,"verifie":true,"name":"SUPERETTE CARREFOUR HOPITAL","source":"Géoportail ANSTAT"}},{"type":"Feature","geometry":{"type":"Point","coordinates":[-3.962771999999973,5.260016000000064]},"properties":{"id":135787,"nom":"GROUPE SCOLAIRE SELMER HOPITAL","type":"centre hospitalier régional","district_region":null,"departement_commune":null,"verifie":true,"name":"GROUPE SCOLAIRE SELMER HOPITAL","source":"Géoportail ANSTAT"}},{"type":"Feature","geometry":{"type":"Point","coordinates":[-3.874751999999944,5.351310000000069]},"properties":{"id":136207,"nom":"HOPITAL GENERALE  D ADJAME BINGERVILLE","type":"centre hospitalier régional","district_region":null,"departement_commune":null,"verifie":true,"name":"HOPITAL GENERALE  D ADJAME BINGERVILLE","source":"Géoportail ANSTAT"}},{"type":"Feature","geometry":{"type":"Point","coordinates":[-4.046211999999969,5.500019000000066]},"properties":{"id":136208,"nom":"HOPITAL GENERAL ANYAMA","type":"centre hospitalier régional","district_region":null,"departement_commune":null,"verifie":true,"name":"HOPITAL GENERAL ANYAMA","source":"Géoportail ANSTAT"}},{"type":"Feature","geometry":{"type":"Point","coordinates":[-4.047159999999963,5.450576000000069]},"properties":{"id":136209,"nom":"HOPITAL ISLAMIQUE","type":"centre hospitalier régional","district_region":null,"departement_commune":null,"verifie":true,"name":"HOPITAL ISLAMIQUE","source":"Géoportail ANSTAT"}},{"type":"Feature","geometry":{"type":"Point","coordinates":[-4.023912999999936,5.438731000000075]},"properties":{"id":136211,"nom":"HOPITALE HENRIETTE KONAN BEDIE DABOBO","type":"centre hospitalier régional","district_region":null,"departement_commune":null,"verifie":true,"name":"HOPITALE HENRIETTE KONAN BEDIE DABOBO","source":"Géoportail ANSTAT"}},{"type":"Feature","geometry":{"type":"Point","coordinates":[-4.008542999999975,5.44282800000002]},"properties":{"id":136212,"nom":"HOPITAL FELIX HOUPHOUET BOIGNY","type":"centre hospitalier régional","district_region":null,"departement_commune":null,"verifie":true,"name":"HOPITAL FELIX HOUPHOUET BOIGNY","source":"Géoportail ANSTAT"}},{"type":"Feature","geometry":{"type":"Point","coordinates":[-4.015652999999929,5.423967000000061]},"properties":{"id":136213,"nom":"HOPITALE GENERAL D ABOBO","type":"centre hospitalier régional","district_region":null,"departement_commune":null,"verifie":true,"name":"HOPITALE GENERAL D ABOBO","source":"Géoportail ANSTAT"}},{"type":"Feature","geometry":{"type":"Point","coordinates":[-4.009352999999976,5.331043000000022]},"properties":{"id":136219,"nom":"HOPITAL DE DOUANES","type":"centre hospitalier régional","district_region":null,"departement_commune":null,"verifie":true,"name":"HOPITAL DE DOUANES","source":"Géoportail ANSTAT"}},{"type":"Feature","geometry":{"type":"Point","coordinates":[-3.885820999999964,5.359719000000041]},"properties":{"id":136221,"nom":"HOPITAL GENERAL DE BINGERVILLE","type":"centre hospitalier régional","district_region":null,"departement_commune":null,"verifie":true,"name":"HOPITAL GENERAL DE BINGERVILLE","source":"Géoportail ANSTAT"}},{"type":"Feature","geometry":{"type":"Point","coordinates":[-3.883815999999968,5.361032000000023]},"properties":{"id":136222,"nom":"HOPITAL MERE ENFANT DE BINGERVILLE","type":"centre hospitalier régional","district_region":null,"departement_commune":null,"verifie":true,"name":"HOPITAL MERE ENFANT DE BINGERVILLE","source":"Géoportail ANSTAT"}},{"type":"Feature","geometry":{"type":"Point","coordinates":[-3.884011999999927,5.359650000000045]},"properties":{"id":136223,"nom":"HOPITAL PSYCHIATRIQUE DE BINGERVILLE","type":"centre hospitalier régional","district_region":null,"departement_commune":null,"verifie":true,"name":"HOPITAL PSYCHIATRIQUE DE BINGERVILLE","source":"Géoportail ANSTAT"}},{"type":"Feature","geometry":{"type":"Point","coordinates":[-4.108905999999934,5.36826300000007]},"properties":{"id":136225,"nom":"HOPITAL MISSIONNAIRE POLIVALENT DIEU ASSISTANCE MEDICO SOCIALE","type":"centre hospitalier régional","district_region":null,"departement_commune":null,"verifie":true,"name":"HOPITAL MISSIONNAIRE POLIVALENT DIEU ASSISTANCE MEDICO SOCIALE","source":"Géoportail ANSTAT"}},{"type":"Feature","geometry":{"type":"Point","coordinates":[-4.08068499999996,5.342212000000075]},"properties":{"id":136226,"nom":"HOPITAL GENERAL YOPOUGON ATTIE","type":"centre hospitalier régional","district_region":null,"departement_commune":null,"verifie":true,"name":"HOPITAL GENERAL YOPOUGON ATTIE","source":"Géoportail ANSTAT"}},{"type":"Feature","geometry":{"type":"Point","coordinates":[-4.056220999999937,5.331502000000057]},"properties":{"id":136228,"nom":"HOPITAL DE TOIT ROUGE","type":"centre hospitalier régional","district_region":null,"departement_commune":null,"verifie":true,"name":"HOPITAL DE TOIT ROUGE","source":"Géoportail ANSTAT"}},{"type":"Feature","geometry":{"type":"Point","coordinates":[-4.007702999999935,5.38031600000005]},"properties":{"id":136231,"nom":"HOPITAL MILITAIRE ABIDJAN","type":"centre hospitalier régional","district_region":null,"departement_commune":null,"verifie":true,"name":"HOPITAL MILITAIRE ABIDJAN","source":"Géoportail ANSTAT"}},{"type":"Feature","geometry":{"type":"Point","coordinates":[-4.024968999999942,5.348964000000024]},"properties":{"id":136232,"nom":"HOPITAL GENERALE D ADJAME","type":"centre hospitalier régional","district_region":null,"departement_commune":null,"verifie":true,"name":"HOPITAL GENERALE D ADJAME","source":"Géoportail ANSTAT"}},{"type":"Feature","geometry":{"type":"Point","coordinates":[-3.983291999999949,5.300808000000075]},"properties":{"id":136235,"nom":"HOPITAL GENERAL DE MARCORY","type":"centre hospitalier régional","district_region":null,"departement_commune":null,"verifie":true,"name":"HOPITAL GENERAL DE MARCORY","source":"Géoportail ANSTAT"}},{"type":"Feature","geometry":{"type":"Point","coordinates":[-4.007760999999959,5.310719000000063]},"properties":{"id":136238,"nom":"HOPITAL GENERAL DE TREICHVILLE","type":"centre hospitalier régional","district_region":null,"departement_commune":null,"verifie":true,"name":"HOPITAL GENERAL DE TREICHVILLE","source":"Géoportail ANSTAT"}},{"type":"Feature","geometry":{"type":"Point","coordinates":[-4.016830999999968,5.308609000000047]},"properties":{"id":136239,"nom":"HOPITAL GENERAL","type":"centre hospitalier régional","district_region":null,"departement_commune":null,"verifie":true,"name":"HOPITAL GENERAL","source":"Géoportail ANSTAT"}},{"type":"Feature","geometry":{"type":"Point","coordinates":[-4.035786999999971,5.315794000000039]},"properties":{"id":136240,"nom":"HOPITAL GENERAL ABOBODOUME","type":"centre hospitalier régional","district_region":null,"departement_commune":null,"verifie":true,"name":"HOPITAL GENERAL ABOBODOUME","source":"Géoportail ANSTAT"}},{"type":"Feature","geometry":{"type":"Point","coordinates":[-4.036089999999945,5.315690000000075]},"properties":{"id":136241,"nom":"HOPITAL GENRRAL ABOBODOUME","type":"centre hospitalier régional","district_region":null,"departement_commune":null,"verifie":true,"name":"HOPITAL GENRRAL ABOBODOUME","source":"Géoportail ANSTAT"}},{"type":"Feature","geometry":{"type":"Point","coordinates":[-4.040558999999973,5.356083000000069]},"properties":{"id":136243,"nom":"HOPITAL DROGBA","type":"centre hospitalier régional","district_region":null,"departement_commune":null,"verifie":true,"name":"HOPITAL DROGBA","source":"Géoportail ANSTAT"}},{"type":"Feature","geometry":{"type":"Point","coordinates":[-3.969377999999949,5.287288000000046]},"properties":{"id":136244,"nom":"HOPITAL GENERAL  DE  KOUMASSI","type":"centre hospitalier régional","district_region":null,"departement_commune":null,"verifie":true,"name":"HOPITAL GENERAL  DE  KOUMASSI","source":"Géoportail ANSTAT"}},{"type":"Feature","geometry":{"type":"Point","coordinates":[-3.985018999999966,5.264339000000064]},"properties":{"id":136246,"nom":"HOPITAL MUNICIPAL DE VRIDI","type":"centre hospitalier régional","district_region":null,"departement_commune":null,"verifie":true,"name":"HOPITAL MUNICIPAL DE VRIDI","source":"Géoportail ANSTAT"}},{"type":"Feature","geometry":{"type":"Point","coordinates":[-3.962809999999934,5.262608000000057]},"properties":{"id":136247,"nom":"HOPITAL GENERAL DE PORT BOUET","type":"centre hospitalier régional","district_region":null,"departement_commune":null,"verifie":true,"name":"HOPITAL GENERAL DE PORT BOUET","source":"Géoportail ANSTAT"}}],"metadata":{"dataset":"Centre hospitalier régional — ANSTAT","source":"Géoportail ANSTAT","theme":"Santé","verified":true,"apercu":"complet"}}