{"type":"FeatureCollection","features":[{"type":"Feature","geometry":{"type":"Point","coordinates":[-4.002772999999934,5.329958000000033]},"properties":{"id":39706,"nom":"CABINET DU PRESIDENT","type":"cour suprême","district_region":null,"departement_commune":null,"verifie":true,"name":"CABINET DU PRESIDENT","source":"Géoportail ANSTAT"}},{"type":"Feature","geometry":{"type":"Point","coordinates":[-4.00642199999993,5.329549000000043]},"properties":{"id":39708,"nom":"COUR DE CASSATION","type":"cour suprême","district_region":null,"departement_commune":null,"verifie":true,"name":"COUR DE CASSATION","source":"Géoportail ANSTAT"}},{"type":"Feature","geometry":{"type":"Point","coordinates":[-4.021453253999937,5.327046559000053]},"properties":{"id":103853,"nom":"COUR D’APPEL (CA)","type":"cour suprême","district_region":null,"departement_commune":null,"verifie":true,"name":"COUR D’APPEL (CA)","source":"Géoportail ANSTAT"}},{"type":"Feature","geometry":{"type":"Point","coordinates":[-5.636976518999973,9.465727353000034]},"properties":{"id":103861,"nom":"COUR D’APPEL (CA)","type":"cour suprême","district_region":null,"departement_commune":null,"verifie":true,"name":"COUR D’APPEL (CA)","source":"Géoportail ANSTAT"}}],"metadata":{"dataset":"Cour suprême — ANSTAT","source":"Géoportail ANSTAT","theme":"Administration","verified":true,"apercu":"complet"}}