{"type":"FeatureCollection","features":[{"type":"Feature","geometry":{"type":"Point","coordinates":[-5.630660999999975,9.447678000000051]},"properties":{"id":36861,"nom":"DIERCTION REGIONALE DES DOUANES DU NORD","type":"dir regional securité","district_region":null,"departement_commune":null,"verifie":true,"name":"DIERCTION REGIONALE DES DOUANES DU NORD","source":"Géoportail ANSTAT"}},{"type":"Feature","geometry":{"type":"Point","coordinates":[-5.897139999999979,9.996240000000055]},"properties":{"id":36862,"nom":"DIRECTION REGIONALE DES  EAUX ET FORETS DE M BENGUE","type":"dir regional securité","district_region":null,"departement_commune":null,"verifie":true,"name":"DIRECTION REGIONALE DES  EAUX ET FORETS DE M BENGUE","source":"Géoportail ANSTAT"}},{"type":"Feature","geometry":{"type":"Point","coordinates":[-3.489284999999938,6.735027000000059]},"properties":{"id":36877,"nom":"DIRECTION REGIONALE DES DOUANES","type":"dir regional securité","district_region":null,"departement_commune":null,"verifie":true,"name":"DIRECTION REGIONALE DES DOUANES","source":"Géoportail ANSTAT"}},{"type":"Feature","geometry":{"type":"Point","coordinates":[-3.212875999999937,5.46986400000003]},"properties":{"id":36883,"nom":"DIRECTION REGIONALE DES EAUX ET FORET ABOISSO","type":"dir regional securité","district_region":null,"departement_commune":null,"verifie":true,"name":"DIRECTION REGIONALE DES EAUX ET FORET ABOISSO","source":"Géoportail ANSTAT"}},{"type":"Feature","geometry":{"type":"Point","coordinates":[-3.212881999999979,5.469845000000021]},"properties":{"id":36884,"nom":"DIRECTION REGIONALE DES EAUX ET FORETS","type":"dir regional securité","district_region":null,"departement_commune":null,"verifie":true,"name":"DIRECTION REGIONALE DES EAUX ET FORETS","source":"Géoportail ANSTAT"}}],"metadata":{"dataset":"Dir regional securité — ANSTAT","source":"Géoportail ANSTAT","theme":"Sécurité","verified":true,"apercu":"complet"}}