{"type":"FeatureCollection","features":[{"type":"Feature","geometry":{"type":"Point","coordinates":[-7.68152,8.290222]},"properties":{"id":131194,"nom":"DIRECTION DEPARTEMENTALE DU MINISTERE DE L ENSEIGNEMENT TECHNIQUE ET DE LA FORMATION PROFESSIONNELLE","type":"direction régionale éducation","district_region":"BAFING","departement_commune":null,"verifie":true,"name":"DIRECTION DEPARTEMENTALE DU MINISTERE DE L ENSEIGNEMENT TECHNIQUE ET DE LA FORMATION PROFESSIONNELLE","nomreg":"BAFING","codreg":19,"source":"Géoportail ANSTAT"}},{"type":"Feature","geometry":{"type":"Point","coordinates":[-3.727522,5.220696]},"properties":{"id":131198,"nom":"DIRECTION DEPARTEMENTALE DE L EDUCATION NATIONALE ET DE L ENSEIGNEMENT TECHNIQUE","type":"direction régionale éducation","district_region":"SUD-COMOE","departement_commune":null,"verifie":true,"name":"DIRECTION DEPARTEMENTALE DE L EDUCATION NATIONALE ET DE L ENSEIGNEMENT TECHNIQUE","nomreg":"SUD-COMOE","codreg":13,"source":"Géoportail ANSTAT"}},{"type":"Feature","geometry":{"type":"Point","coordinates":[-5.199085,9.59242]},"properties":{"id":131200,"nom":"DIRECTION DEPARTEMENTALE DE LENSEIGNEMENT TECHNIQUE ET DE LA FORMATION PROFESSIONNELLE  DE FERKESSEDOUGOU","type":"direction régionale éducation","district_region":"TCHOLOGO","departement_commune":null,"verifie":true,"name":"DIRECTION DEPARTEMENTALE DE LENSEIGNEMENT TECHNIQUE ET DE LA FORMATION PROFESSIONNELLE  DE FERKESSEDOUGOU","nomreg":"TCHOLOGO","codreg":32,"source":"Géoportail ANSTAT"}},{"type":"Feature","geometry":{"type":"Point","coordinates":[-6.589471,6.477444]},"properties":{"id":131208,"nom":"EDUCATION NATIONALE","type":"direction régionale éducation","district_region":"HAUT-SASSANDRA","departement_commune":null,"verifie":true,"name":"EDUCATION NATIONALE","nomreg":"HAUT-SASSANDRA","codreg":2,"source":"Géoportail ANSTAT"}},{"type":"Feature","geometry":{"type":"Point","coordinates":[-8.13959,7.262155]},"properties":{"id":131209,"nom":"EDUCATION NATIONALE","type":"direction régionale éducation","district_region":"TONKPI","departement_commune":null,"verifie":true,"name":"EDUCATION NATIONALE","nomreg":"TONKPI","codreg":6,"source":"Géoportail ANSTAT"}},{"type":"Feature","geometry":{"type":"Point","coordinates":[-7.122678,9.353729]},"properties":{"id":131259,"nom":"INSPECTION DE L ENSEIGNEMENT PRIMAIRE DE SEGUELON","type":"direction régionale éducation","district_region":"KABADOUGOU","departement_commune":null,"verifie":true,"name":"INSPECTION DE L ENSEIGNEMENT PRIMAIRE DE SEGUELON","nomreg":"KABADOUGOU","codreg":10,"source":"Géoportail ANSTAT"}},{"type":"Feature","geometry":{"type":"Point","coordinates":[-4.206471,6.651571]},"properties":{"id":131298,"nom":"MINISTERE DE LEDUCATION NATIONALE ET DE LENSEIGNEMRNT TECHNIQUE DRENET DE BONGOUANOU","type":"direction régionale éducation","district_region":"MORONOU","departement_commune":null,"verifie":true,"name":"MINISTERE DE LEDUCATION NATIONALE ET DE LENSEIGNEMRNT TECHNIQUE DRENET DE BONGOUANOU","nomreg":"MORONOU","codreg":33,"source":"Géoportail ANSTAT"}},{"type":"Feature","geometry":{"type":"Point","coordinates":[-3.206278,5.4682]},"properties":{"id":131305,"nom":"MINISTERE DE L EDUCATION NATIONALE ET DE L ENSEIGNEMENT TECHNIQUE","type":"direction régionale éducation","district_region":"SUD-COMOE","departement_commune":null,"verifie":true,"name":"MINISTERE DE L EDUCATION NATIONALE ET DE L ENSEIGNEMENT TECHNIQUE","nomreg":"SUD-COMOE","codreg":13,"source":"Géoportail ANSTAT"}},{"type":"Feature","geometry":{"type":"Point","coordinates":[-5.094798,8.118921]},"properties":{"id":131306,"nom":"MINISTERE DE L ENSEIGNEMENT TECHNIQUE ET DE LA FORMATION PROFESSIONNELLE","type":"direction régionale éducation","district_region":"HAMBOL","departement_commune":null,"verifie":true,"name":"MINISTERE DE L ENSEIGNEMENT TECHNIQUE ET DE LA FORMATION PROFESSIONNELLE","nomreg":"HAMBOL","codreg":28,"source":"Géoportail ANSTAT"}},{"type":"Feature","geometry":{"type":"Point","coordinates":[-3.965867,7.053089]},"properties":{"id":131307,"nom":"MINISTERE DE L ENSEIGNEMENT TECHNIQUE ET DE LA FORMATION PROFESSIONNELLE","type":"direction régionale éducation","district_region":"IFFOU","departement_commune":null,"verifie":true,"name":"MINISTERE DE L ENSEIGNEMENT TECHNIQUE ET DE LA FORMATION PROFESSIONNELLE","nomreg":"IFFOU","codreg":29,"source":"Géoportail ANSTAT"}},{"type":"Feature","geometry":{"type":"Point","coordinates":[-5.267087,6.813309]},"properties":{"id":131184,"nom":"DIRECTION REGIONALE DE L EDUCACTION NATIONAL","type":"direction régionale éducation","district_region":"YAMOUSSOUKRO","departement_commune":null,"verifie":true,"name":"DIRECTION REGIONALE DE L EDUCACTION NATIONAL","nomreg":"YAMOUSSOUKRO","codreg":7,"source":"Géoportail ANSTAT"}},{"type":"Feature","geometry":{"type":"Point","coordinates":[-3.470749,8.452553]},"properties":{"id":131187,"nom":"INSPECTION DE LENSEIGNEMENT PRESCOLAIRE ET PRIMAIRE DE NASSIAN","type":"direction régionale éducation","district_region":"BOUNKANI","departement_commune":null,"verifie":true,"name":"INSPECTION DE LENSEIGNEMENT PRESCOLAIRE ET PRIMAIRE DE NASSIAN","nomreg":"BOUNKANI","codreg":23,"source":"Géoportail ANSTAT"}},{"type":"Feature","geometry":{"type":"Point","coordinates":[-4.193233,6.642897]},"properties":{"id":131189,"nom":"DIRECTION REGIONALE DE L EDUCATION","type":"direction régionale éducation","district_region":"MORONOU","departement_commune":null,"verifie":true,"name":"DIRECTION REGIONALE DE L EDUCATION","nomreg":"MORONOU","codreg":33,"source":"Géoportail ANSTAT"}},{"type":"Feature","geometry":{"type":"Point","coordinates":[-5.939875,6.130584]},"properties":{"id":131190,"nom":"DIRECTION REGIONALE DE LEDUCATION NATIONAL","type":"direction régionale éducation","district_region":"GOH","departement_commune":null,"verifie":true,"name":"DIRECTION REGIONALE DE LEDUCATION NATIONAL","nomreg":"GOH","codreg":17,"source":"Géoportail ANSTAT"}},{"type":"Feature","geometry":{"type":"Point","coordinates":[-5.026908,7.720527]},"properties":{"id":131191,"nom":"DIRECTION REGIONALE DE EDUCATION BOUAKE 1","type":"direction régionale éducation","district_region":"GBEKE","departement_commune":null,"verifie":true,"name":"DIRECTION REGIONALE DE EDUCATION BOUAKE 1","nomreg":"GBEKE","codreg":4,"source":"Géoportail ANSTAT"}},{"type":"Feature","geometry":{"type":"Point","coordinates":[-5.046674,7.685137]},"properties":{"id":131192,"nom":"DIRECTION REGIONALE DE LENSEIGNEMENT TECHNIQUE ET DE LA FORMATION PROFESSIONNELLE","type":"direction régionale éducation","district_region":"GBEKE","departement_commune":null,"verifie":true,"name":"DIRECTION REGIONALE DE LENSEIGNEMENT TECHNIQUE ET DE LA FORMATION PROFESSIONNELLE","nomreg":"GBEKE","codreg":4,"source":"Géoportail ANSTAT"}},{"type":"Feature","geometry":{"type":"Point","coordinates":[-6.44441,6.885235]},"properties":{"id":131193,"nom":"DIRECTION REGIONALE DE L ENSEIGNEMENT TECHNIQUE ET DE LA FORMATION PROFESSIONNELLE DU HAUT SASSANDRA","type":"direction régionale éducation","district_region":"HAUT-SASSANDRA","departement_commune":null,"verifie":true,"name":"DIRECTION REGIONALE DE L ENSEIGNEMENT TECHNIQUE ET DE LA FORMATION PROFESSIONNELLE DU HAUT SASSANDRA","nomreg":"HAUT-SASSANDRA","codreg":2,"source":"Géoportail ANSTAT"}},{"type":"Feature","geometry":{"type":"Point","coordinates":[-7.840725,9.997103]},"properties":{"id":131195,"nom":"DIRECTION REGIONALE DU MINISTERE DE L EDUCATION NATIONAL DE L ENSEIGNEMENT TECHNIQUE ET DE LA FORMATION PROFESSIONNELLE","type":"direction régionale éducation","district_region":"FOLON","departement_commune":null,"verifie":true,"name":"DIRECTION REGIONALE DU MINISTERE DE L EDUCATION NATIONAL DE L ENSEIGNEMENT TECHNIQUE ET DE LA FORMATION PROFESSIONNELLE","nomreg":"FOLON","codreg":24,"source":"Géoportail ANSTAT"}},{"type":"Feature","geometry":{"type":"Point","coordinates":[-3.498612,6.741327]},"properties":{"id":131196,"nom":"DIRECTION REGIONALE DU MINISTERE DE L ENSEIGNEMENT TECHNIQUE ET DE LA FORMATION PROFESSIONNELLE","type":"direction régionale éducation","district_region":"INDENIE-DJUABLIN","departement_commune":null,"verifie":true,"name":"DIRECTION REGIONALE DU MINISTERE DE L ENSEIGNEMENT TECHNIQUE ET DE LA FORMATION PROFESSIONNELLE","nomreg":"INDENIE-DJUABLIN","codreg":5,"source":"Géoportail ANSTAT"}},{"type":"Feature","geometry":{"type":"Point","coordinates":[-7.561991,9.497356]},"properties":{"id":131197,"nom":"DIRECTION REGIONALE DE LEDUCATION NATIONALE","type":"direction régionale éducation","district_region":"KABADOUGOU","departement_commune":null,"verifie":true,"name":"DIRECTION REGIONALE DE LEDUCATION NATIONALE","nomreg":"KABADOUGOU","codreg":10,"source":"Géoportail ANSTAT"}},{"type":"Feature","geometry":{"type":"Point","coordinates":[-6.668464,7.966114]},"properties":{"id":131202,"nom":"DIRECTION REGIONAL DE L ENSEIGNEMENT NATIONAL","type":"direction régionale éducation","district_region":"WORODOUGOU","departement_commune":null,"verifie":true,"name":"DIRECTION REGIONAL DE L ENSEIGNEMENT NATIONAL","nomreg":"WORODOUGOU","codreg":14,"source":"Géoportail ANSTAT"}},{"type":"Feature","geometry":{"type":"Point","coordinates":[-5.745333,6.979733]},"properties":{"id":131203,"nom":"DIRECTION NATIONALE DES ENSEIGNEMENTS AEECI BOUAFLE","type":"direction régionale éducation","district_region":"MARAHOUE","departement_commune":null,"verifie":true,"name":"DIRECTION NATIONALE DES ENSEIGNEMENTS AEECI BOUAFLE","nomreg":"MARAHOUE","codreg":12,"source":"Géoportail ANSTAT"}},{"type":"Feature","geometry":{"type":"Point","coordinates":[-4.823171,7.643495]},"properties":{"id":131204,"nom":"DIRECTION REGIONALE OE LEDUCATION NATIONALE","type":"direction régionale éducation","district_region":"GBEKE","departement_commune":null,"verifie":true,"name":"DIRECTION REGIONALE OE LEDUCATION NATIONALE","nomreg":"GBEKE","codreg":4,"source":"Géoportail ANSTAT"}},{"type":"Feature","geometry":{"type":"Point","coordinates":[-6.303414,7.164134]},"properties":{"id":131205,"nom":"DIRECTION REGIONALE DE L ENSEIGNEMENT PRIMAIRE DE BEDIALA","type":"direction régionale éducation","district_region":"HAUT-SASSANDRA","departement_commune":null,"verifie":true,"name":"DIRECTION REGIONALE DE L ENSEIGNEMENT PRIMAIRE DE BEDIALA","nomreg":"HAUT-SASSANDRA","codreg":2,"source":"Géoportail ANSTAT"}},{"type":"Feature","geometry":{"type":"Point","coordinates":[-6.44453,6.885471]},"properties":{"id":131206,"nom":"DIRECTION REGIONALE DE L ENSEIGNEMENT TECHNIQUE ETDE LA FORMATION FROCTIONNELLE","type":"direction régionale éducation","district_region":"HAUT-SASSANDRA","departement_commune":null,"verifie":true,"name":"DIRECTION REGIONALE DE L ENSEIGNEMENT TECHNIQUE ETDE LA FORMATION FROCTIONNELLE","nomreg":"HAUT-SASSANDRA","codreg":2,"source":"Géoportail ANSTAT"}},{"type":"Feature","geometry":{"type":"Point","coordinates":[-3.002288,9.264443]},"properties":{"id":131214,"nom":"ENSEIGNEMENT TECHNIQUE ET PROFESSIONEL","type":"direction régionale éducation","district_region":"BOUNKANI","departement_commune":null,"verifie":true,"name":"ENSEIGNEMENT TECHNIQUE ET PROFESSIONEL","nomreg":"BOUNKANI","codreg":23,"source":"Géoportail ANSTAT"}},{"type":"Feature","geometry":{"type":"Point","coordinates":[-6.46218,9.766693]},"properties":{"id":131215,"nom":"INSPECTION DE L ENSEIGNEMENT PRESCOLAIRE ET PRIMAIRE DE KOLIA","type":"direction régionale éducation","district_region":"BAGOUE","departement_commune":null,"verifie":true,"name":"INSPECTION DE L ENSEIGNEMENT PRESCOLAIRE ET PRIMAIRE DE KOLIA","nomreg":"BAGOUE","codreg":20,"source":"Géoportail ANSTAT"}},{"type":"Feature","geometry":{"type":"Point","coordinates":[-4.429319,8.358116]},"properties":{"id":131220,"nom":"INSPECTION DE L ENSEIGNEMENT PRESCOLAIRE ET PRIMAIRE DE DABAKALA","type":"direction régionale éducation","district_region":"HAMBOL","departement_commune":null,"verifie":true,"name":"INSPECTION DE L ENSEIGNEMENT PRESCOLAIRE ET PRIMAIRE DE DABAKALA","nomreg":"HAMBOL","codreg":28,"source":"Géoportail ANSTAT"}},{"type":"Feature","geometry":{"type":"Point","coordinates":[-6.414596,9.888228]},"properties":{"id":131222,"nom":"DIRECTION REGIONALE DE BOUNDIALI  INSPECTION DE LENSEIGNEMENT PRESCOLAIRE ET PRIMAIRE  DE KOUTO","type":"direction régionale éducation","district_region":"BAGOUE","departement_commune":null,"verifie":true,"name":"DIRECTION REGIONALE DE BOUNDIALI  INSPECTION DE LENSEIGNEMENT PRESCOLAIRE ET PRIMAIRE  DE KOUTO","nomreg":"BAGOUE","codreg":20,"source":"Géoportail ANSTAT"}},{"type":"Feature","geometry":{"type":"Point","coordinates":[-3.213292,5.47218]},"properties":{"id":131284,"nom":"INSPECTION DE LENSEIGNEMENT PRESCOLAIRE ET PRIMAIRE DE ABOISSO","type":"direction régionale éducation","district_region":"SUD-COMOE","departement_commune":null,"verifie":true,"name":"INSPECTION DE LENSEIGNEMENT PRESCOLAIRE ET PRIMAIRE DE ABOISSO","nomreg":"SUD-COMOE","codreg":13,"source":"Géoportail ANSTAT"}},{"type":"Feature","geometry":{"type":"Point","coordinates":[-6.631517,4.744231]},"properties":{"id":131296,"nom":"MINISTERE DE LENSEIGNEMENT TECHNIQUE ET DE LA FORMATION PROFESSIONNELLE","type":"direction régionale éducation","district_region":"SAN-PEDRO","departement_commune":null,"verifie":true,"name":"MINISTERE DE LENSEIGNEMENT TECHNIQUE ET DE LA FORMATION PROFESSIONNELLE","nomreg":"SAN-PEDRO","codreg":9,"source":"Géoportail ANSTAT"}},{"type":"Feature","geometry":{"type":"Point","coordinates":[-5.393271,9.579767]},"properties":{"id":131297,"nom":"MINISTERE DE L EDUCATION NATIONAE","type":"direction régionale éducation","district_region":"PORO","departement_commune":null,"verifie":true,"name":"MINISTERE DE L EDUCATION NATIONAE","nomreg":"PORO","codreg":3,"source":"Géoportail ANSTAT"}},{"type":"Feature","geometry":{"type":"Point","coordinates":[-7.346196,6.735727]},"properties":{"id":131299,"nom":"MINISTERE DE LEDUCATION NATIONAL","type":"direction régionale éducation","district_region":"GUEMON","departement_commune":null,"verifie":true,"name":"MINISTERE DE LEDUCATION NATIONAL","nomreg":"GUEMON","codreg":27,"source":"Géoportail ANSTAT"}},{"type":"Feature","geometry":{"type":"Point","coordinates":[-4.360693,5.324809]},"properties":{"id":131300,"nom":"MINISTERE DE L ENSEIGNEMENT TECHNIQUE ET DE LA FORMATION PROFESSIONNELLE","type":"direction régionale éducation","district_region":"GRAND-PONTS","departement_commune":null,"verifie":true,"name":"MINISTERE DE L ENSEIGNEMENT TECHNIQUE ET DE LA FORMATION PROFESSIONNELLE","nomreg":"GRAND-PONTS","codreg":26,"source":"Géoportail ANSTAT"}},{"type":"Feature","geometry":{"type":"Point","coordinates":[-3.006734,9.261101]},"properties":{"id":131301,"nom":"MINISTERE DE L EDUCATION NATIONALE DE L ENSEIGNEMENT TECHNIQUE ET DE LA FORMATION PROFESSIONNELLE","type":"direction régionale éducation","district_region":"BOUNKANI","departement_commune":null,"verifie":true,"name":"MINISTERE DE L EDUCATION NATIONALE DE L ENSEIGNEMENT TECHNIQUE ET DE LA FORMATION PROFESSIONNELLE","nomreg":"BOUNKANI","codreg":23,"source":"Géoportail ANSTAT"}},{"type":"Feature","geometry":{"type":"Point","coordinates":[-4.708919,6.65469]},"properties":{"id":131302,"nom":"MINISTERE DE L ENSEIGNEMENT TECHNIQUE ET DE LA FORMATION PROFESSIONNELLE","type":"direction régionale éducation","district_region":"N ZI","departement_commune":null,"verifie":true,"name":"MINISTERE DE L ENSEIGNEMENT TECHNIQUE ET DE LA FORMATION PROFESSIONNELLE","nomreg":"N ZI","codreg":11,"source":"Géoportail ANSTAT"}},{"type":"Feature","geometry":{"type":"Point","coordinates":[-4.217884,5.925972]},"properties":{"id":131303,"nom":"MINISTERE DE L EDUCATION NATIONALE DE L ENSEIGNEMENT TECHNIQUE ET DE LA FORMATION PROFESSIONNELLE","type":"direction régionale éducation","district_region":"AGNEBY-TIASSA","departement_commune":null,"verifie":true,"name":"MINISTERE DE L EDUCATION NATIONALE DE L ENSEIGNEMENT TECHNIQUE ET DE LA FORMATION PROFESSIONNELLE","nomreg":"AGNEBY-TIASSA","codreg":16,"source":"Géoportail ANSTAT"}},{"type":"Feature","geometry":{"type":"Point","coordinates":[-4.217962,5.925873]},"properties":{"id":131304,"nom":"MINISTERE DE LEDUCATION REGIONALE DAGBOVILLE","type":"direction régionale éducation","district_region":"AGNEBY-TIASSA","departement_commune":null,"verifie":true,"name":"MINISTERE DE LEDUCATION REGIONALE DAGBOVILLE","nomreg":"AGNEBY-TIASSA","codreg":16,"source":"Géoportail ANSTAT"}},{"type":"Feature","geometry":{"type":"Point","coordinates":[-5.930845,6.110655]},"properties":{"id":131311,"nom":"MINISTERE DE L ENSEIGNEMENT TECHNIQUE ET DE LA FORMATION PROFESSIONNELLE DIRECTION REGIONALE DE GAGNOA","type":"direction régionale éducation","district_region":"GOH","departement_commune":null,"verifie":true,"name":"MINISTERE DE L ENSEIGNEMENT TECHNIQUE ET DE LA FORMATION PROFESSIONNELLE DIRECTION REGIONALE DE GAGNOA","nomreg":"GOH","codreg":17,"source":"Géoportail ANSTAT"}},{"type":"Feature","geometry":{"type":"Point","coordinates":[-4.703245,6.649465]},"properties":{"id":131313,"nom":"MINISTERE DE LEDUCATION NATIONALE ET DE LENSEIGNEMENT TECHNIQUE","type":"direction régionale éducation","district_region":"N ZI","departement_commune":null,"verifie":true,"name":"MINISTERE DE LEDUCATION NATIONALE ET DE LENSEIGNEMENT TECHNIQUE","nomreg":"N ZI","codreg":11,"source":"Géoportail ANSTAT"}},{"type":"Feature","geometry":{"type":"Point","coordinates":[-3.306156,7.168075]},"properties":{"id":131315,"nom":"MINISTERE DE L EDUCATION NATIONALE DE L ENSEIGNEMENT TECHNIQUE ET DE LA FORMATION PROFESSIONNELLE","type":"direction régionale éducation","district_region":"INDENIE-DJUABLIN","departement_commune":null,"verifie":true,"name":"MINISTERE DE L EDUCATION NATIONALE DE L ENSEIGNEMENT TECHNIQUE ET DE LA FORMATION PROFESSIONNELLE","nomreg":"INDENIE-DJUABLIN","codreg":5,"source":"Géoportail ANSTAT"}},{"type":"Feature","geometry":{"type":"Point","coordinates":[-3.967344,7.056553]},"properties":{"id":131316,"nom":"MINISTERE DE L EDUCATION NATIONALE DE L ENSEIGNEMENT TECHNIQUE ET DE LA FORMATION PROFESSIONNEL","type":"direction régionale éducation","district_region":"IFFOU","departement_commune":null,"verifie":true,"name":"MINISTERE DE L EDUCATION NATIONALE DE L ENSEIGNEMENT TECHNIQUE ET DE LA FORMATION PROFESSIONNEL","nomreg":"IFFOU","codreg":29,"source":"Géoportail ANSTAT"}},{"type":"Feature","geometry":{"type":"Point","coordinates":[-3.494862,6.740709]},"properties":{"id":131323,"nom":"INSPECTION DE L ENSEIGNEMENT PRESCOLAIRE ET PRIMAIRE","type":"direction régionale éducation","district_region":"INDENIE-DJUABLIN","departement_commune":null,"verifie":true,"name":"INSPECTION DE L ENSEIGNEMENT PRESCOLAIRE ET PRIMAIRE","nomreg":"INDENIE-DJUABLIN","codreg":5,"source":"Géoportail ANSTAT"}},{"type":"Feature","geometry":{"type":"Point","coordinates":[-7.344927,6.740527]},"properties":{"id":131326,"nom":"DIRECTION DE L INSPECTION DE L ENSEIGNEMENT PRESCOLAIRE","type":"direction régionale éducation","district_region":"GUEMON","departement_commune":null,"verifie":true,"name":"DIRECTION DE L INSPECTION DE L ENSEIGNEMENT PRESCOLAIRE","nomreg":"GUEMON","codreg":27,"source":"Géoportail ANSTAT"}},{"type":"Feature","geometry":{"type":"Point","coordinates":[-4.058724,5.341532]},"properties":{"id":131341,"nom":"DIRECTION REGIONAL DE L ENSEIGNEMENT TECHNIQUE ET PROFESSIONNEL ABIDJAN NORD","type":"direction régionale éducation","district_region":"ABIDJAN","departement_commune":null,"verifie":true,"name":"DIRECTION REGIONAL DE L ENSEIGNEMENT TECHNIQUE ET PROFESSIONNEL ABIDJAN NORD","nomreg":"ABIDJAN","codreg":1,"source":"Géoportail ANSTAT"}}],"metadata":{"dataset":"Direction régionale éducation — ANSTAT","source":"Géoportail ANSTAT","theme":"Éducation","verified":true,"apercu":"complet"}}