{"type":"FeatureCollection","features":[{"type":"Feature","geometry":{"type":"Point","coordinates":[-3.137588999999934,7.172231000000068]},"properties":{"id":38356,"nom":"POLICE","type":"poste police","district_region":null,"departement_commune":null,"verifie":true,"name":"POLICE","source":"Géoportail ANSTAT"}},{"type":"Feature","geometry":{"type":"Point","coordinates":[-3.085320999999965,7.215268000000037]},"properties":{"id":38357,"nom":"POLICE","type":"poste police","district_region":null,"departement_commune":null,"verifie":true,"name":"POLICE","source":"Géoportail ANSTAT"}},{"type":"Feature","geometry":{"type":"Point","coordinates":[-5.996523999999965,9.539850000000058]},"properties":{"id":38402,"nom":"POSTE DE POLICE DE TARATO","type":"poste police","district_region":null,"departement_commune":null,"verifie":true,"name":"POSTE DE POLICE DE TARATO","source":"Géoportail ANSTAT"}},{"type":"Feature","geometry":{"type":"Point","coordinates":[-7.508437999999956,6.891169000000048]},"properties":{"id":38431,"nom":"POSTE DE POLICE","type":"poste police","district_region":null,"departement_commune":null,"verifie":true,"name":"POSTE DE POLICE","source":"Géoportail ANSTAT"}},{"type":"Feature","geometry":{"type":"Point","coordinates":[-4.796090999999933,5.328827000000047]},"properties":{"id":38435,"nom":"POSTE DE POLICE","type":"poste police","district_region":null,"departement_commune":null,"verifie":true,"name":"POSTE DE POLICE","source":"Géoportail ANSTAT"}},{"type":"Feature","geometry":{"type":"Point","coordinates":[-5.913351999999975,6.103723000000059]},"properties":{"id":38442,"nom":"POSTE DE POLICE SUD","type":"poste police","district_region":null,"departement_commune":null,"verifie":true,"name":"POSTE DE POLICE SUD","source":"Géoportail ANSTAT"}},{"type":"Feature","geometry":{"type":"Point","coordinates":[-4.049180999999976,5.519022000000064]},"properties":{"id":38454,"nom":"POSTE DE POLICE","type":"poste police","district_region":null,"departement_commune":null,"verifie":true,"name":"POSTE DE POLICE","source":"Géoportail ANSTAT"}},{"type":"Feature","geometry":{"type":"Point","coordinates":[-2.962861999999973,7.235873000000026]},"properties":{"id":38462,"nom":"POSTE DE POLICE FRONTIERE DE TAKIKRO","type":"poste police","district_region":null,"departement_commune":null,"verifie":true,"name":"POSTE DE POLICE FRONTIERE DE TAKIKRO","source":"Géoportail ANSTAT"}},{"type":"Feature","geometry":{"type":"Point","coordinates":[-2.983398999999963,7.280839000000071]},"properties":{"id":38464,"nom":"POSTE DE POLICE","type":"poste police","district_region":null,"departement_commune":null,"verifie":true,"name":"POSTE DE POLICE","source":"Géoportail ANSTAT"}},{"type":"Feature","geometry":{"type":"Point","coordinates":[-6.657068999999979,8.009232000000054]},"properties":{"id":38473,"nom":"POSTE DE POLICE DE NIANGORO","type":"poste police","district_region":null,"departement_commune":null,"verifie":true,"name":"POSTE DE POLICE DE NIANGORO","source":"Géoportail ANSTAT"}},{"type":"Feature","geometry":{"type":"Point","coordinates":[-5.012279999999976,7.716710000000035]},"properties":{"id":38483,"nom":"POSTE DE POLICE DU CAMP","type":"poste police","district_region":null,"departement_commune":null,"verifie":true,"name":"POSTE DE POLICE DU CAMP","source":"Géoportail ANSTAT"}},{"type":"Feature","geometry":{"type":"Point","coordinates":[-3.119111999999973,9.732647000000044]},"properties":{"id":38498,"nom":"POSTE DE POLICE MIXTE FACI","type":"poste police","district_region":null,"departement_commune":null,"verifie":true,"name":"POSTE DE POLICE MIXTE FACI","source":"Géoportail ANSTAT"}},{"type":"Feature","geometry":{"type":"Point","coordinates":[-3.335566999999969,9.799870000000055]},"properties":{"id":38501,"nom":"POSTE DE POLICE","type":"poste police","district_region":null,"departement_commune":null,"verifie":true,"name":"POSTE DE POLICE","source":"Géoportail ANSTAT"}},{"type":"Feature","geometry":{"type":"Point","coordinates":[-7.486730999999963,6.216222000000073]},"properties":{"id":38505,"nom":"POSTE DE POLICE DE ZAGNE","type":"poste police","district_region":null,"departement_commune":null,"verifie":true,"name":"POSTE DE POLICE DE ZAGNE","source":"Géoportail ANSTAT"}},{"type":"Feature","geometry":{"type":"Point","coordinates":[-7.276183999999944,8.544220000000053]},"properties":{"id":38535,"nom":"POSTE DE POLICE","type":"poste police","district_region":null,"departement_commune":null,"verifie":true,"name":"POSTE DE POLICE","source":"Géoportail ANSTAT"}},{"type":"Feature","geometry":{"type":"Point","coordinates":[-3.265886999999964,6.655179000000032]},"properties":{"id":38563,"nom":"POSTE DE POLICE FRONTIERE DE NIABLE","type":"poste police","district_region":null,"departement_commune":null,"verifie":true,"name":"POSTE DE POLICE FRONTIERE DE NIABLE","source":"Géoportail ANSTAT"}},{"type":"Feature","geometry":{"type":"Point","coordinates":[-3.287305999999944,5.135020000000054]},"properties":{"id":38583,"nom":"POSTE DE POLICE","type":"poste police","district_region":null,"departement_commune":null,"verifie":true,"name":"POSTE DE POLICE","source":"Géoportail ANSTAT"}},{"type":"Feature","geometry":{"type":"Point","coordinates":[-3.475680999999952,5.172244000000035]},"properties":{"id":38585,"nom":"POSTE DE POLICE","type":"poste police","district_region":null,"departement_commune":null,"verifie":true,"name":"POSTE DE POLICE","source":"Géoportail ANSTAT"}},{"type":"Feature","geometry":{"type":"Point","coordinates":[-3.145345999999961,5.127597000000037]},"properties":{"id":38589,"nom":"POSTE DE POLICE","type":"poste police","district_region":null,"departement_commune":null,"verifie":true,"name":"POSTE DE POLICE","source":"Géoportail ANSTAT"}},{"type":"Feature","geometry":{"type":"Point","coordinates":[-2.960259999999948,5.12336300000004]},"properties":{"id":38590,"nom":"POSTE DE POLICE DE FRAMBO","type":"poste police","district_region":null,"departement_commune":null,"verifie":true,"name":"POSTE DE POLICE DE FRAMBO","source":"Géoportail ANSTAT"}},{"type":"Feature","geometry":{"type":"Point","coordinates":[-8.166613999999981,7.234308000000055]},"properties":{"id":38609,"nom":"POSTE DE POLICE DE DANANE CORRIDORE","type":"poste police","district_region":null,"departement_commune":null,"verifie":true,"name":"POSTE DE POLICE DE DANANE CORRIDORE","source":"Géoportail ANSTAT"}},{"type":"Feature","geometry":{"type":"Point","coordinates":[-4.022163999999975,5.335930000000076]},"properties":{"id":39568,"nom":"ANCIENNE POLICE JUDICIAIRE","type":"poste police","district_region":null,"departement_commune":null,"verifie":true,"name":"ANCIENNE POLICE JUDICIAIRE","source":"Géoportail ANSTAT"}},{"type":"Feature","geometry":{"type":"Point","coordinates":[-3.993074999999976,5.338237000000049]},"properties":{"id":40442,"nom":"POLICE","type":"poste police","district_region":null,"departement_commune":null,"verifie":true,"name":"POLICE","source":"Géoportail ANSTAT"}},{"type":"Feature","geometry":{"type":"Point","coordinates":[-4.018770999999958,5.317856000000063]},"properties":{"id":40531,"nom":"POLICE NATIONAL","type":"poste police","district_region":null,"departement_commune":null,"verifie":true,"name":"POLICE NATIONAL","source":"Géoportail ANSTAT"}}],"metadata":{"dataset":"Poste police — ANSTAT","source":"Géoportail ANSTAT","theme":"Sécurité","verified":true,"apercu":"complet"}}