{"type":"FeatureCollection","features":[{"type":"Feature","geometry":{"type":"Point","coordinates":[-5.260832999999934,6.82348200000007]},"properties":{"id":6,"nom":"SOS VILLAGE ENFANTS","type":"sos village","district_region":null,"departement_commune":null,"verifie":true,"name":"SOS VILLAGE ENFANTS","source":"Géoportail ANSTAT"}},{"type":"Feature","geometry":{"type":"Point","coordinates":[-5.281733999999972,6.849030000000027]},"properties":{"id":1654,"nom":"VILLAGE SOS YAMOUSSOUKRO","type":"sos village","district_region":null,"departement_commune":null,"verifie":true,"name":"VILLAGE SOS YAMOUSSOUKRO","source":"Géoportail ANSTAT"}},{"type":"Feature","geometry":{"type":"Point","coordinates":[-3.217188999999962,5.472161000000028]},"properties":{"id":31187,"nom":"SOS VILLAGE D ENFANTS ABOISSO","type":"sos village","district_region":null,"departement_commune":null,"verifie":true,"name":"SOS VILLAGE D ENFANTS ABOISSO","source":"Géoportail ANSTAT"}},{"type":"Feature","geometry":{"type":"Point","coordinates":[-4.003739999999937,5.333738000000039]},"properties":{"id":35674,"nom":"SOS VILLAGES D ENFANTS","type":"sos village","district_region":null,"departement_commune":null,"verifie":true,"name":"SOS VILLAGES D ENFANTS","source":"Géoportail ANSTAT"}}],"metadata":{"dataset":"Sos village — ANSTAT","source":"Géoportail ANSTAT","theme":"Social & Culture","verified":true,"apercu":"complet"}}