{"type":"FeatureCollection","features":[{"type":"Feature","geometry":{"type":"Point","coordinates":[-6.643318999999963,4.756773000000067]},"properties":{"id":1337,"nom":"BIBLIOTHEQUE ALLIANCE FRANCAISE","type":"bibliothèque","district_region":null,"departement_commune":null,"verifie":true,"name":"BIBLIOTHEQUE ALLIANCE FRANCAISE","source":"Géoportail ANSTAT"}},{"type":"Feature","geometry":{"type":"Point","coordinates":[-5.641225999999961,9.443840000000025]},"properties":{"id":1359,"nom":"BIBLIOTHEQUE  BETHELEM","type":"bibliothèque","district_region":null,"departement_commune":null,"verifie":true,"name":"BIBLIOTHEQUE  BETHELEM","source":"Géoportail ANSTAT"}},{"type":"Feature","geometry":{"type":"Point","coordinates":[-6.596653999999944,5.782806000000051]},"properties":{"id":1369,"nom":"BIBLIOTHEQUE REGIONALE CHRISTOPHE WONDJI","type":"bibliothèque","district_region":null,"departement_commune":null,"verifie":true,"name":"BIBLIOTHEQUE REGIONALE CHRISTOPHE WONDJI","source":"Géoportail ANSTAT"}},{"type":"Feature","geometry":{"type":"Point","coordinates":[-6.596433999999931,5.782535000000053]},"properties":{"id":1370,"nom":"BIBLIOTHEQUE REGIONALE CHRISTOPHE WONDJI","type":"bibliothèque","district_region":null,"departement_commune":null,"verifie":true,"name":"BIBLIOTHEQUE REGIONALE CHRISTOPHE WONDJI","source":"Géoportail ANSTAT"}},{"type":"Feature","geometry":{"type":"Point","coordinates":[-4.793665999999973,5.29821400000003]},"properties":{"id":1393,"nom":"BIBLIOTHEQUE DE LA CITE","type":"bibliothèque","district_region":null,"departement_commune":null,"verifie":true,"name":"BIBLIOTHEQUE DE LA CITE","source":"Géoportail ANSTAT"}},{"type":"Feature","geometry":{"type":"Point","coordinates":[-5.007953999999927,5.251513000000045]},"properties":{"id":1398,"nom":"BIBLIOTHEQUE NUMERIQUE  CENTRE POLYVALENT DE JEUNESSE GRAND LAHOU","type":"bibliothèque","district_region":null,"departement_commune":null,"verifie":true,"name":"BIBLIOTHEQUE NUMERIQUE  CENTRE POLYVALENT DE JEUNESSE GRAND LAHOU","source":"Géoportail ANSTAT"}},{"type":"Feature","geometry":{"type":"Point","coordinates":[-5.842850999999939,6.227571000000069]},"properties":{"id":1412,"nom":"BIBLIOTHEQUE","type":"bibliothèque","district_region":null,"departement_commune":null,"verifie":true,"name":"BIBLIOTHEQUE","source":"Géoportail ANSTAT"}},{"type":"Feature","geometry":{"type":"Point","coordinates":[-5.938923999999929,6.346475000000055]},"properties":{"id":1414,"nom":"BIBLIOTHEQUE EPP ZEBIZEKOU 1","type":"bibliothèque","district_region":null,"departement_commune":null,"verifie":true,"name":"BIBLIOTHEQUE EPP ZEBIZEKOU 1","source":"Géoportail ANSTAT"}},{"type":"Feature","geometry":{"type":"Point","coordinates":[-4.493043999999941,7.064504000000056]},"properties":{"id":1458,"nom":"BIBLIOTHEQUE JEAN BONAL","type":"bibliothèque","district_region":null,"departement_commune":null,"verifie":true,"name":"BIBLIOTHEQUE JEAN BONAL","source":"Géoportail ANSTAT"}},{"type":"Feature","geometry":{"type":"Point","coordinates":[-6.449923999999953,6.863271000000054]},"properties":{"id":1473,"nom":"BIBLIOTHEQUE DE CELLULES MILITAIRES","type":"bibliothèque","district_region":null,"departement_commune":null,"verifie":true,"name":"BIBLIOTHEQUE DE CELLULES MILITAIRES","source":"Géoportail ANSTAT"}},{"type":"Feature","geometry":{"type":"Point","coordinates":[-4.201498999999956,5.93226100000004]},"properties":{"id":1482,"nom":"BIBLIOTHEQUE","type":"bibliothèque","district_region":null,"departement_commune":null,"verifie":true,"name":"BIBLIOTHEQUE","source":"Géoportail ANSTAT"}},{"type":"Feature","geometry":{"type":"Point","coordinates":[-3.210463999999945,5.470704000000069]},"properties":{"id":1525,"nom":"BIBLIOTHEQUE CENTRE DE DOCUMENTATION","type":"bibliothèque","district_region":null,"departement_commune":null,"verifie":true,"name":"BIBLIOTHEQUE CENTRE DE DOCUMENTATION","source":"Géoportail ANSTAT"}},{"type":"Feature","geometry":{"type":"Point","coordinates":[-4.411794999999927,8.325224000000048]},"properties":{"id":1529,"nom":"BIBLIOTHEQUE DE KOTOLO","type":"bibliothèque","district_region":null,"departement_commune":null,"verifie":true,"name":"BIBLIOTHEQUE DE KOTOLO","source":"Géoportail ANSTAT"}},{"type":"Feature","geometry":{"type":"Point","coordinates":[-3.718747999999948,7.898158000000024]},"properties":{"id":17471,"nom":"BIBLIOTHEQUE SCOLAIRE","type":"bibliothèque","district_region":null,"departement_commune":null,"verifie":true,"name":"BIBLIOTHEQUE SCOLAIRE","source":"Géoportail ANSTAT"}},{"type":"Feature","geometry":{"type":"Point","coordinates":[-5.429102999999941,9.32748300000003]},"properties":{"id":18679,"nom":"FOYER ET BIBLIOTHEQUE DES JEUNE","type":"bibliothèque","district_region":null,"departement_commune":null,"verifie":true,"name":"FOYER ET BIBLIOTHEQUE DES JEUNE","source":"Géoportail ANSTAT"}},{"type":"Feature","geometry":{"type":"Point","coordinates":[-5.774467999999956,9.06782400000003]},"properties":{"id":18783,"nom":"GLAC BIBLIOTHEQUE","type":"bibliothèque","district_region":null,"departement_commune":null,"verifie":true,"name":"GLAC BIBLIOTHEQUE","source":"Géoportail ANSTAT"}},{"type":"Feature","geometry":{"type":"Point","coordinates":[-4.092614999999967,5.325871000000063]},"properties":{"id":31666,"nom":"BIBLIOTHEQUE","type":"bibliothèque","district_region":null,"departement_commune":null,"verifie":true,"name":"BIBLIOTHEQUE","source":"Géoportail ANSTAT"}},{"type":"Feature","geometry":{"type":"Point","coordinates":[-4.017740999999944,5.31864500000006]},"properties":{"id":31688,"nom":"BIBLIOTHEQUE DU DISTRICT D ABIDJAN","type":"bibliothèque","district_region":null,"departement_commune":null,"verifie":true,"name":"BIBLIOTHEQUE DU DISTRICT D ABIDJAN","source":"Géoportail ANSTAT"}},{"type":"Feature","geometry":{"type":"Point","coordinates":[-4.024517999999944,5.335125000000062]},"properties":{"id":31727,"nom":"BIBLIOTHEQUE NATIONALE","type":"bibliothèque","district_region":null,"departement_commune":null,"verifie":true,"name":"BIBLIOTHEQUE NATIONALE","source":"Géoportail ANSTAT"}},{"type":"Feature","geometry":{"type":"Point","coordinates":[-4.02449299999995,5.335761000000048]},"properties":{"id":35639,"nom":"PARKING BIBLIOTHEQUE","type":"bibliothèque","district_region":null,"departement_commune":null,"verifie":true,"name":"PARKING BIBLIOTHEQUE","source":"Géoportail ANSTAT"}}],"metadata":{"dataset":"Bibliothèque — ANSTAT","source":"Géoportail ANSTAT","theme":"Social & Culture","verified":true,"apercu":"complet"}}