{"type":"FeatureCollection","features":[{"type":"Feature","geometry":{"type":"Point","coordinates":[-5.636768999999958,9.452711000000022]},"properties":{"id":38619,"nom":"PRISON DE KOROGHO","type":"maison d'arret","district_region":null,"departement_commune":null,"verifie":true,"name":"PRISON DE KOROGHO","source":"Géoportail ANSTAT"}},{"type":"Feature","geometry":{"type":"Point","coordinates":[-6.605734999999981,5.786019000000067]},"properties":{"id":38620,"nom":"PRISON CIVIL","type":"maison d'arret","district_region":null,"departement_commune":null,"verifie":true,"name":"PRISON CIVIL","source":"Géoportail ANSTAT"}},{"type":"Feature","geometry":{"type":"Point","coordinates":[-5.945316999999932,6.134923000000072]},"properties":{"id":38623,"nom":"PRISON CIVILE GAGNOA","type":"maison d'arret","district_region":null,"departement_commune":null,"verifie":true,"name":"PRISON CIVILE GAGNOA","source":"Géoportail ANSTAT"}},{"type":"Feature","geometry":{"type":"Point","coordinates":[-6.668937999999969,7.970229000000074]},"properties":{"id":38625,"nom":"PRISON CIVILE DE SEGUELA","type":"maison d'arret","district_region":null,"departement_commune":null,"verifie":true,"name":"PRISON CIVILE DE SEGUELA","source":"Géoportail ANSTAT"}},{"type":"Feature","geometry":{"type":"Point","coordinates":[-5.904350999999963,6.638788000000034]},"properties":{"id":38626,"nom":"PRISON CIVILE DE SINFRA","type":"maison d'arret","district_region":null,"departement_commune":null,"verifie":true,"name":"PRISON CIVILE DE SINFRA","source":"Géoportail ANSTAT"}},{"type":"Feature","geometry":{"type":"Point","coordinates":[-5.032739999999933,7.679274000000021]},"properties":{"id":38628,"nom":"PRISON CIVILE","type":"maison d'arret","district_region":null,"departement_commune":null,"verifie":true,"name":"PRISON CIVILE","source":"Géoportail ANSTAT"}},{"type":"Feature","geometry":{"type":"Point","coordinates":[-5.032770999999968,7.679267000000038]},"properties":{"id":38629,"nom":"PRISON CIVILE DE BOUAKE","type":"maison d'arret","district_region":null,"departement_commune":null,"verifie":true,"name":"PRISON CIVILE DE BOUAKE","source":"Géoportail ANSTAT"}},{"type":"Feature","geometry":{"type":"Point","coordinates":[-2.999386999999956,9.267108000000064]},"properties":{"id":38632,"nom":"PRISON CIVIL","type":"maison d'arret","district_region":null,"departement_commune":null,"verifie":true,"name":"PRISON CIVIL","source":"Géoportail ANSTAT"}},{"type":"Feature","geometry":{"type":"Point","coordinates":[-4.708001999999965,6.653609000000074]},"properties":{"id":38633,"nom":"PRISON DE DIMBOKRO","type":"maison d'arret","district_region":null,"departement_commune":null,"verifie":true,"name":"PRISON DE DIMBOKRO","source":"Géoportail ANSTAT"}},{"type":"Feature","geometry":{"type":"Point","coordinates":[-7.533112999999958,6.54125700000003]},"properties":{"id":38634,"nom":"PRISON CIVIL DE GUIGLO","type":"maison d'arret","district_region":null,"departement_commune":null,"verifie":true,"name":"PRISON CIVIL DE GUIGLO","source":"Géoportail ANSTAT"}},{"type":"Feature","geometry":{"type":"Point","coordinates":[-4.827162999999928,5.885150000000067]},"properties":{"id":38635,"nom":"PRISON CIVILE","type":"maison d'arret","district_region":null,"departement_commune":null,"verifie":true,"name":"PRISON CIVILE","source":"Géoportail ANSTAT"}},{"type":"Feature","geometry":{"type":"Point","coordinates":[-7.686766999999975,8.287202000000036]},"properties":{"id":38636,"nom":"PRISON CIVIL DE TOUBA","type":"maison d'arret","district_region":null,"departement_commune":null,"verifie":true,"name":"PRISON CIVIL DE TOUBA","source":"Géoportail ANSTAT"}},{"type":"Feature","geometry":{"type":"Point","coordinates":[-7.686560999999926,8.28740700000003]},"properties":{"id":38637,"nom":"PRISON CIVIL DE TOUBA","type":"maison d'arret","district_region":null,"departement_commune":null,"verifie":true,"name":"PRISON CIVIL DE TOUBA","source":"Géoportail ANSTAT"}},{"type":"Feature","geometry":{"type":"Point","coordinates":[-6.479301999999961,9.516790000000071]},"properties":{"id":38639,"nom":"PRISON CIVILE DE BOUNDIALI","type":"maison d'arret","district_region":null,"departement_commune":null,"verifie":true,"name":"PRISON CIVILE DE BOUNDIALI","source":"Géoportail ANSTAT"}},{"type":"Feature","geometry":{"type":"Point","coordinates":[-3.484894999999938,6.732123000000058]},"properties":{"id":38640,"nom":"PRISON CIVILE","type":"maison d'arret","district_region":null,"departement_commune":null,"verifie":true,"name":"PRISON CIVILE","source":"Géoportail ANSTAT"}},{"type":"Feature","geometry":{"type":"Point","coordinates":[-7.559698999999966,9.494899000000032]},"properties":{"id":38641,"nom":"PRISON CIVIL D ODIENNE","type":"maison d'arret","district_region":null,"departement_commune":null,"verifie":true,"name":"PRISON CIVIL D ODIENNE","source":"Géoportail ANSTAT"}},{"type":"Feature","geometry":{"type":"Point","coordinates":[-3.742399999999975,5.197626000000071]},"properties":{"id":38642,"nom":"PRISON CIVILE","type":"maison d'arret","district_region":null,"departement_commune":null,"verifie":true,"name":"PRISON CIVILE","source":"Géoportail ANSTAT"}},{"type":"Feature","geometry":{"type":"Point","coordinates":[-3.201593134999939,5.470314603000077]},"properties":{"id":103867,"nom":"MAISON D’ARRET ET DE CORRECTION","type":"maison d'arret","district_region":null,"departement_commune":null,"verifie":true,"name":"MAISON D’ARRET ET DE CORRECTION","source":"Géoportail ANSTAT"}},{"type":"Feature","geometry":{"type":"Point","coordinates":[-3.862015459999952,6.109380578000071]},"properties":{"id":103868,"nom":"MAISON D’ARRET ET DE CORRECTION","type":"maison d'arret","district_region":null,"departement_commune":null,"verifie":true,"name":"MAISON D’ARRET ET DE CORRECTION","source":"Géoportail ANSTAT"}},{"type":"Feature","geometry":{"type":"Point","coordinates":[-4.206596322999928,5.929144235000024]},"properties":{"id":103869,"nom":"MAISON D’ARRET ET DE CORRECTION","type":"maison d'arret","district_region":null,"departement_commune":null,"verifie":true,"name":"MAISON D’ARRET ET DE CORRECTION","source":"Géoportail ANSTAT"}},{"type":"Feature","geometry":{"type":"Point","coordinates":[-3.39307867399998,5.225882726000066]},"properties":{"id":103870,"nom":"MAISON D’ARRET ET DE CORRECTION","type":"maison d'arret","district_region":null,"departement_commune":null,"verifie":true,"name":"MAISON D’ARRET ET DE CORRECTION","source":"Géoportail ANSTAT"}},{"type":"Feature","geometry":{"type":"Point","coordinates":[-4.200165925999954,6.651930080000056]},"properties":{"id":103871,"nom":"MAISON D’ARRET ET DE CORRECTION","type":"maison d'arret","district_region":null,"departement_commune":null,"verifie":true,"name":"MAISON D’ARRET ET DE CORRECTION","source":"Géoportail ANSTAT"}},{"type":"Feature","geometry":{"type":"Point","coordinates":[-5.739235735999955,6.986261996000053]},"properties":{"id":103872,"nom":"MAISON D’ARRET ET DE CORRECTION","type":"maison d'arret","district_region":null,"departement_commune":null,"verifie":true,"name":"MAISON D’ARRET ET DE CORRECTION","source":"Géoportail ANSTAT"}},{"type":"Feature","geometry":{"type":"Point","coordinates":[-4.376841497999976,5.325114548000045]},"properties":{"id":103873,"nom":"MAISON D’ARRET ET DE CORRECTION","type":"maison d'arret","district_region":null,"departement_commune":null,"verifie":true,"name":"MAISON D’ARRET ET DE CORRECTION","source":"Géoportail ANSTAT"}},{"type":"Feature","geometry":{"type":"Point","coordinates":[-6.431492490999972,6.88221390800004]},"properties":{"id":103874,"nom":"MAISON D’ARRET ET DE CORRECTION","type":"maison d'arret","district_region":null,"departement_commune":null,"verifie":true,"name":"MAISON D’ARRET ET DE CORRECTION","source":"Géoportail ANSTAT"}},{"type":"Feature","geometry":{"type":"Point","coordinates":[-8.15185286999997,7.259686424000051]},"properties":{"id":103875,"nom":"MAISON D’ARRET ET DE CORRECTION","type":"maison d'arret","district_region":null,"departement_commune":null,"verifie":true,"name":"MAISON D’ARRET ET DE CORRECTION","source":"Géoportail ANSTAT"}},{"type":"Feature","geometry":{"type":"Point","coordinates":[-5.363579344999948,5.843755998000063]},"properties":{"id":103876,"nom":"MAISON D’ARRET ET DE CORRECTION","type":"maison d'arret","district_region":null,"departement_commune":null,"verifie":true,"name":"MAISON D’ARRET ET DE CORRECTION","source":"Géoportail ANSTAT"}},{"type":"Feature","geometry":{"type":"Point","coordinates":[-5.095643093999968,8.136577793000072]},"properties":{"id":103877,"nom":"MAISON D’ARRET ET DE CORRECTION","type":"maison d'arret","district_region":null,"departement_commune":null,"verifie":true,"name":"MAISON D’ARRET ET DE CORRECTION","source":"Géoportail ANSTAT"}},{"type":"Feature","geometry":{"type":"Point","coordinates":[-5.67830933099998,5.852908280000065]},"properties":{"id":103878,"nom":"MAISON D’ARRET ET DE CORRECTION","type":"maison d'arret","district_region":null,"departement_commune":null,"verifie":true,"name":"MAISON D’ARRET ET DE CORRECTION","source":"Géoportail ANSTAT"}},{"type":"Feature","geometry":{"type":"Point","coordinates":[-7.551354989999936,7.402892209000072]},"properties":{"id":103879,"nom":"MAISON D’ARRET ET DE CORRECTION","type":"maison d'arret","district_region":null,"departement_commune":null,"verifie":true,"name":"MAISON D’ARRET ET DE CORRECTION","source":"Géoportail ANSTAT"}},{"type":"Feature","geometry":{"type":"Point","coordinates":[-4.349654432999955,7.458122539000044]},"properties":{"id":103880,"nom":"MAISON D’ARRET ET DE CORRECTION","type":"maison d'arret","district_region":null,"departement_commune":null,"verifie":true,"name":"MAISON D’ARRET ET DE CORRECTION","source":"Géoportail ANSTAT"}},{"type":"Feature","geometry":{"type":"Point","coordinates":[-5.405968215999962,6.384049406000031]},"properties":{"id":103881,"nom":"MAISON D’ARRET ET DE CORRECTION","type":"maison d'arret","district_region":null,"departement_commune":null,"verifie":true,"name":"MAISON D’ARRET ET DE CORRECTION","source":"Géoportail ANSTAT"}},{"type":"Feature","geometry":{"type":"Point","coordinates":[-6.661628033999932,4.764026633000071]},"properties":{"id":103882,"nom":"MAISON D’ARRET ET DE CORRECTION","type":"maison d'arret","district_region":null,"departement_commune":null,"verifie":true,"name":"MAISON D’ARRET ET DE CORRECTION","source":"Géoportail ANSTAT"}},{"type":"Feature","geometry":{"type":"Point","coordinates":[-6.094728007999947,4.950495444000069]},"properties":{"id":103883,"nom":"MAISON D’ARRET ET DE CORRECTION","type":"maison d'arret","district_region":null,"departement_commune":null,"verifie":true,"name":"MAISON D’ARRET ET DE CORRECTION","source":"Géoportail ANSTAT"}},{"type":"Feature","geometry":{"type":"Point","coordinates":[-7.358406299999956,4.428732172000025]},"properties":{"id":103884,"nom":"MAISON D’ARRET ET DE CORRECTION","type":"maison d'arret","district_region":null,"departement_commune":null,"verifie":true,"name":"MAISON D’ARRET ET DE CORRECTION","source":"Géoportail ANSTAT"}},{"type":"Feature","geometry":{"type":"Point","coordinates":[-5.020403525999939,6.548147239000059]},"properties":{"id":103885,"nom":"MAISON D’ARRET ET DE CORRECTION","type":"maison d'arret","district_region":null,"departement_commune":null,"verifie":true,"name":"MAISON D’ARRET ET DE CORRECTION","source":"Géoportail ANSTAT"}},{"type":"Feature","geometry":{"type":"Point","coordinates":[-4.092661488999966,5.317668369000046]},"properties":{"id":103886,"nom":"MAISON D’ARRET ET DE CORRECTION","type":"maison d'arret","district_region":null,"departement_commune":null,"verifie":true,"name":"MAISON D’ARRET ET DE CORRECTION","source":"Géoportail ANSTAT"}}],"metadata":{"dataset":"Maison d'arret — ANSTAT","source":"Géoportail ANSTAT","theme":"Justice","verified":true,"apercu":"complet"}}