{"type":"FeatureCollection","features":[{"type":"Feature","geometry":{"type":"Point","coordinates":[-4.683048999999926,6.661886000000038]},"properties":{"id":36961,"nom":"ESCADRON GENDARMERIE MOBILE DIMBOKRO","type":"escadron","district_region":null,"departement_commune":null,"verifie":true,"name":"ESCADRON GENDARMERIE MOBILE DIMBOKRO","source":"Géoportail ANSTAT"}},{"type":"Feature","geometry":{"type":"Point","coordinates":[-8.416161999999929,6.580390000000023]},"properties":{"id":36963,"nom":"ESCADRON DE GENDARMERIE DE TOULEUPLEU","type":"escadron","district_region":null,"departement_commune":null,"verifie":true,"name":"ESCADRON DE GENDARMERIE DE TOULEUPLEU","source":"Géoportail ANSTAT"}},{"type":"Feature","geometry":{"type":"Point","coordinates":[-7.675976999999932,8.292154000000039]},"properties":{"id":36965,"nom":"ESCADRON DE  GENDARMERIE","type":"escadron","district_region":null,"departement_commune":null,"verifie":true,"name":"ESCADRON DE  GENDARMERIE","source":"Géoportail ANSTAT"}},{"type":"Feature","geometry":{"type":"Point","coordinates":[-7.557857999999953,9.499557000000038]},"properties":{"id":36973,"nom":"ESCADRON DE GENDARMERIE","type":"escadron","district_region":null,"departement_commune":null,"verifie":true,"name":"ESCADRON DE GENDARMERIE","source":"Géoportail ANSTAT"}},{"type":"Feature","geometry":{"type":"Point","coordinates":[-2.787150999999938,8.028470000000027]},"properties":{"id":37115,"nom":"GENDAMERIE NATIONALE ESCADRON DE BONDOUKOU","type":"escadron","district_region":null,"departement_commune":null,"verifie":true,"name":"GENDAMERIE NATIONALE ESCADRON DE BONDOUKOU","source":"Géoportail ANSTAT"}},{"type":"Feature","geometry":{"type":"Point","coordinates":[-6.60879499999993,5.785044000000028]},"properties":{"id":37306,"nom":"GENDARMERIE NATIONALE ESCADRON DE SOUBRE","type":"escadron","district_region":null,"departement_commune":null,"verifie":true,"name":"GENDARMERIE NATIONALE ESCADRON DE SOUBRE","source":"Géoportail ANSTAT"}},{"type":"Feature","geometry":{"type":"Point","coordinates":[-8.152424999999937,7.265535000000057]},"properties":{"id":37357,"nom":"GENDARMERIE ESCADRON DE DANANE","type":"escadron","district_region":null,"departement_commune":null,"verifie":true,"name":"GENDARMERIE ESCADRON DE DANANE","source":"Géoportail ANSTAT"}}],"metadata":{"dataset":"Escadron — ANSTAT","source":"Géoportail ANSTAT","theme":"Défense & Militaire","verified":true,"apercu":"complet"}}