{"type":"FeatureCollection","features":[{"type":"Feature","geometry":{"type":"Point","coordinates":[-5.221228999999937,7.162931000000071]},"properties":{"id":70828,"nom":"ALIMENT DE BETAIL  FACI","type":"marché à bétail","district_region":null,"departement_commune":null,"verifie":true,"name":"ALIMENT DE BETAIL  FACI","source":"Géoportail ANSTAT"}},{"type":"Feature","geometry":{"type":"Point","coordinates":[-5.027361999999926,7.720258000000058]},"properties":{"id":70829,"nom":"ALIMENTATION DE BETAIL","type":"marché à bétail","district_region":null,"departement_commune":null,"verifie":true,"name":"ALIMENTATION DE BETAIL","source":"Géoportail ANSTAT"}},{"type":"Feature","geometry":{"type":"Point","coordinates":[-5.536426999999946,5.286007000000041]},"properties":{"id":70830,"nom":"BETAIL","type":"marché à bétail","district_region":null,"departement_commune":null,"verifie":true,"name":"BETAIL","source":"Géoportail ANSTAT"}},{"type":"Feature","geometry":{"type":"Point","coordinates":[-2.863884999999925,7.801995000000034]},"properties":{"id":70831,"nom":"BETAIL DE KREBIO ADOUMKROM","type":"marché à bétail","district_region":null,"departement_commune":null,"verifie":true,"name":"BETAIL DE KREBIO ADOUMKROM","source":"Géoportail ANSTAT"}},{"type":"Feature","geometry":{"type":"Point","coordinates":[-2.864244999999926,7.782053000000076]},"properties":{"id":70832,"nom":"BETAIL DE KREBIO DOMIANBRA","type":"marché à bétail","district_region":null,"departement_commune":null,"verifie":true,"name":"BETAIL DE KREBIO DOMIANBRA","source":"Géoportail ANSTAT"}},{"type":"Feature","geometry":{"type":"Point","coordinates":[-2.900967999999978,8.295931000000053]},"properties":{"id":70833,"nom":"BETAIL DE GBAGBAO","type":"marché à bétail","district_region":null,"departement_commune":null,"verifie":true,"name":"BETAIL DE GBAGBAO","source":"Géoportail ANSTAT"}},{"type":"Feature","geometry":{"type":"Point","coordinates":[-2.953093999999965,7.848562000000072]},"properties":{"id":70834,"nom":"BETAIL DE KOROKO2","type":"marché à bétail","district_region":null,"departement_commune":null,"verifie":true,"name":"BETAIL DE KOROKO2","source":"Géoportail ANSTAT"}},{"type":"Feature","geometry":{"type":"Point","coordinates":[-2.953337999999974,7.849485000000072]},"properties":{"id":70835,"nom":"BETAIL DE KOROKO2","type":"marché à bétail","district_region":null,"departement_commune":null,"verifie":true,"name":"BETAIL DE KOROKO2","source":"Géoportail ANSTAT"}},{"type":"Feature","geometry":{"type":"Point","coordinates":[-2.953375999999935,7.849032000000022]},"properties":{"id":70836,"nom":"BETAIL DE KOROKO2","type":"marché à bétail","district_region":null,"departement_commune":null,"verifie":true,"name":"BETAIL DE KOROKO2","source":"Géoportail ANSTAT"}},{"type":"Feature","geometry":{"type":"Point","coordinates":[-5.63172899999995,9.463125000000048]},"properties":{"id":70839,"nom":"ELEVAGE BETAILS","type":"marché à bétail","district_region":null,"departement_commune":null,"verifie":true,"name":"ELEVAGE BETAILS","source":"Géoportail ANSTAT"}},{"type":"Feature","geometry":{"type":"Point","coordinates":[-6.792397999999935,7.478950000000054]},"properties":{"id":70840,"nom":"ENCLOS BETAIL","type":"marché à bétail","district_region":null,"departement_commune":null,"verifie":true,"name":"ENCLOS BETAIL","source":"Géoportail ANSTAT"}},{"type":"Feature","geometry":{"type":"Point","coordinates":[-6.466005999999936,6.865317000000061]},"properties":{"id":70841,"nom":"ENCLO POUR BETAIL","type":"marché à bétail","district_region":null,"departement_commune":null,"verifie":true,"name":"ENCLO POUR BETAIL","source":"Géoportail ANSTAT"}},{"type":"Feature","geometry":{"type":"Point","coordinates":[-6.470453999999961,6.852870000000053]},"properties":{"id":70842,"nom":"FERME BETAIL","type":"marché à bétail","district_region":null,"departement_commune":null,"verifie":true,"name":"FERME BETAIL","source":"Géoportail ANSTAT"}},{"type":"Feature","geometry":{"type":"Point","coordinates":[-5.531657999999936,9.472555000000057]},"properties":{"id":70843,"nom":"LE PARC","type":"marché à bétail","district_region":null,"departement_commune":null,"verifie":true,"name":"LE PARC","source":"Géoportail ANSTAT"}},{"type":"Feature","geometry":{"type":"Point","coordinates":[-5.162283999999943,9.07196700000003]},"properties":{"id":70844,"nom":"MAGAZIN DE VENTE DE PRODUITS BETAILS","type":"marché à bétail","district_region":null,"departement_commune":null,"verifie":true,"name":"MAGAZIN DE VENTE DE PRODUITS BETAILS","source":"Géoportail ANSTAT"}},{"type":"Feature","geometry":{"type":"Point","coordinates":[-6.579657999999938,5.783675000000073]},"properties":{"id":70845,"nom":"MARCHE BETAIL","type":"marché à bétail","district_region":null,"departement_commune":null,"verifie":true,"name":"MARCHE BETAIL","source":"Géoportail ANSTAT"}},{"type":"Feature","geometry":{"type":"Point","coordinates":[-5.614824999999939,9.475752000000057]},"properties":{"id":70846,"nom":"MARCHE DE BETAIL","type":"marché à bétail","district_region":null,"departement_commune":null,"verifie":true,"name":"MARCHE DE BETAIL","source":"Géoportail ANSTAT"}},{"type":"Feature","geometry":{"type":"Point","coordinates":[-7.33954099999994,6.745205000000055]},"properties":{"id":70847,"nom":"MARCHE DE BETAIL DE DUEKOUE CARREFOUR","type":"marché à bétail","district_region":null,"departement_commune":null,"verifie":true,"name":"MARCHE DE BETAIL DE DUEKOUE CARREFOUR","source":"Géoportail ANSTAT"}},{"type":"Feature","geometry":{"type":"Point","coordinates":[-6.44322399999993,6.871991000000037]},"properties":{"id":70848,"nom":"MARCHE DE BETAIL","type":"marché à bétail","district_region":null,"departement_commune":null,"verifie":true,"name":"MARCHE DE BETAIL","source":"Géoportail ANSTAT"}},{"type":"Feature","geometry":{"type":"Point","coordinates":[-6.584567999999933,6.500744000000054]},"properties":{"id":70849,"nom":"MARCHE DE BETAIL DE KIPREGOGOUA 1","type":"marché à bétail","district_region":null,"departement_commune":null,"verifie":true,"name":"MARCHE DE BETAIL DE KIPREGOGOUA 1","source":"Géoportail ANSTAT"}},{"type":"Feature","geometry":{"type":"Point","coordinates":[-5.921424999999942,8.547475000000077]},"properties":{"id":70850,"nom":"MARCHE DE BETAIL","type":"marché à bétail","district_region":null,"departement_commune":null,"verifie":true,"name":"MARCHE DE BETAIL","source":"Géoportail ANSTAT"}},{"type":"Feature","geometry":{"type":"Point","coordinates":[-6.622799999999927,6.095614000000069]},"properties":{"id":70851,"nom":"MARCHE DE PARC SOU","type":"marché à bétail","district_region":null,"departement_commune":null,"verifie":true,"name":"MARCHE DE PARC SOU","source":"Géoportail ANSTAT"}},{"type":"Feature","geometry":{"type":"Point","coordinates":[-5.282752999999957,9.604057000000068]},"properties":{"id":70852,"nom":"PARC A BOEUF","type":"marché à bétail","district_region":null,"departement_commune":null,"verifie":true,"name":"PARC A BOEUF","source":"Géoportail ANSTAT"}},{"type":"Feature","geometry":{"type":"Point","coordinates":[-5.269488999999965,9.68216700000005]},"properties":{"id":70853,"nom":"PARC BOVINE","type":"marché à bétail","district_region":null,"departement_commune":null,"verifie":true,"name":"PARC BOVINE","source":"Géoportail ANSTAT"}},{"type":"Feature","geometry":{"type":"Point","coordinates":[-5.140080999999952,9.966531000000032]},"properties":{"id":70854,"nom":"PARC BRETAIL GARBALE","type":"marché à bétail","district_region":null,"departement_commune":null,"verifie":true,"name":"PARC BRETAIL GARBALE","source":"Géoportail ANSTAT"}},{"type":"Feature","geometry":{"type":"Point","coordinates":[-5.472977999999955,10.11362700000006]},"properties":{"id":70855,"nom":"PARC BOVINE","type":"marché à bétail","district_region":null,"departement_commune":null,"verifie":true,"name":"PARC BOVINE","source":"Géoportail ANSTAT"}},{"type":"Feature","geometry":{"type":"Point","coordinates":[-5.483199999999954,10.10764300000005]},"properties":{"id":70856,"nom":"PARC BOVINE","type":"marché à bétail","district_region":null,"departement_commune":null,"verifie":true,"name":"PARC BOVINE","source":"Géoportail ANSTAT"}},{"type":"Feature","geometry":{"type":"Point","coordinates":[-5.439303999999936,10.16270400000008]},"properties":{"id":70857,"nom":"PARC BETAIL","type":"marché à bétail","district_region":null,"departement_commune":null,"verifie":true,"name":"PARC BETAIL","source":"Géoportail ANSTAT"}},{"type":"Feature","geometry":{"type":"Point","coordinates":[-5.41798799999998,10.18156000000005]},"properties":{"id":70858,"nom":"PARC BOVINE","type":"marché à bétail","district_region":null,"departement_commune":null,"verifie":true,"name":"PARC BOVINE","source":"Géoportail ANSTAT"}},{"type":"Feature","geometry":{"type":"Point","coordinates":[-5.418374999999969,10.18278700000008]},"properties":{"id":70859,"nom":"PARC BOVINE","type":"marché à bétail","district_region":null,"departement_commune":null,"verifie":true,"name":"PARC BOVINE","source":"Géoportail ANSTAT"}},{"type":"Feature","geometry":{"type":"Point","coordinates":[-5.333435999999949,10.27145700000005]},"properties":{"id":70860,"nom":"PARC BOVINE","type":"marché à bétail","district_region":null,"departement_commune":null,"verifie":true,"name":"PARC BOVINE","source":"Géoportail ANSTAT"}},{"type":"Feature","geometry":{"type":"Point","coordinates":[-5.334202999999945,10.27233500000006]},"properties":{"id":70861,"nom":"PARC DE BOEUF","type":"marché à bétail","district_region":null,"departement_commune":null,"verifie":true,"name":"PARC DE BOEUF","source":"Géoportail ANSTAT"}},{"type":"Feature","geometry":{"type":"Point","coordinates":[-5.392593999999974,9.718990000000076]},"properties":{"id":70862,"nom":"PARC","type":"marché à bétail","district_region":null,"departement_commune":null,"verifie":true,"name":"PARC","source":"Géoportail ANSTAT"}},{"type":"Feature","geometry":{"type":"Point","coordinates":[-5.297511999999927,9.718870000000038]},"properties":{"id":70863,"nom":"PARC","type":"marché à bétail","district_region":null,"departement_commune":null,"verifie":true,"name":"PARC","source":"Géoportail ANSTAT"}},{"type":"Feature","geometry":{"type":"Point","coordinates":[-5.39690399999995,9.745956000000035]},"properties":{"id":70864,"nom":"PARC A BETAIL","type":"marché à bétail","district_region":null,"departement_commune":null,"verifie":true,"name":"PARC A BETAIL","source":"Géoportail ANSTAT"}},{"type":"Feature","geometry":{"type":"Point","coordinates":[-5.39601099999993,9.74602900000002]},"properties":{"id":70865,"nom":"PARC DE BOEUF","type":"marché à bétail","district_region":null,"departement_commune":null,"verifie":true,"name":"PARC DE BOEUF","source":"Géoportail ANSTAT"}},{"type":"Feature","geometry":{"type":"Point","coordinates":[-6.623424999999941,4.741901000000041]},"properties":{"id":70866,"nom":"PARC A BOIS BOLLORE","type":"marché à bétail","district_region":null,"departement_commune":null,"verifie":true,"name":"PARC A BOIS BOLLORE","source":"Géoportail ANSTAT"}},{"type":"Feature","geometry":{"type":"Point","coordinates":[-7.047252999999955,4.946826000000044]},"properties":{"id":70867,"nom":"PARC A BETAIL","type":"marché à bétail","district_region":null,"departement_commune":null,"verifie":true,"name":"PARC A BETAIL","source":"Géoportail ANSTAT"}},{"type":"Feature","geometry":{"type":"Point","coordinates":[-5.466051999999934,9.690832000000055]},"properties":{"id":70868,"nom":"PARC","type":"marché à bétail","district_region":null,"departement_commune":null,"verifie":true,"name":"PARC","source":"Géoportail ANSTAT"}},{"type":"Feature","geometry":{"type":"Point","coordinates":[-5.487310999999977,9.57529500000004]},"properties":{"id":70869,"nom":"PARC BETAIL","type":"marché à bétail","district_region":null,"departement_commune":null,"verifie":true,"name":"PARC BETAIL","source":"Géoportail ANSTAT"}},{"type":"Feature","geometry":{"type":"Point","coordinates":[-5.446755999999937,9.574330000000032]},"properties":{"id":70870,"nom":"PARC BOVINE","type":"marché à bétail","district_region":null,"departement_commune":null,"verifie":true,"name":"PARC BOVINE","source":"Géoportail ANSTAT"}},{"type":"Feature","geometry":{"type":"Point","coordinates":[-5.447589999999934,9.59064600000005]},"properties":{"id":70871,"nom":"PARC","type":"marché à bétail","district_region":null,"departement_commune":null,"verifie":true,"name":"PARC","source":"Géoportail ANSTAT"}},{"type":"Feature","geometry":{"type":"Point","coordinates":[-5.448961999999938,9.592809000000043]},"properties":{"id":70872,"nom":"PARC","type":"marché à bétail","district_region":null,"departement_commune":null,"verifie":true,"name":"PARC","source":"Géoportail ANSTAT"}},{"type":"Feature","geometry":{"type":"Point","coordinates":[-5.410357999999974,9.657145000000073]},"properties":{"id":70873,"nom":"PARC A BETAIL","type":"marché à bétail","district_region":null,"departement_commune":null,"verifie":true,"name":"PARC A BETAIL","source":"Géoportail ANSTAT"}},{"type":"Feature","geometry":{"type":"Point","coordinates":[-5.426081999999951,9.644379000000072]},"properties":{"id":70874,"nom":"PARC A BETAIL","type":"marché à bétail","district_region":null,"departement_commune":null,"verifie":true,"name":"PARC A BETAIL","source":"Géoportail ANSTAT"}},{"type":"Feature","geometry":{"type":"Point","coordinates":[-5.426110999999935,9.64354000000003]},"properties":{"id":70875,"nom":"PARC A BETAIL","type":"marché à bétail","district_region":null,"departement_commune":null,"verifie":true,"name":"PARC A BETAIL","source":"Géoportail ANSTAT"}},{"type":"Feature","geometry":{"type":"Point","coordinates":[-5.420020999999963,9.656970000000058]},"properties":{"id":70876,"nom":"PARC A BETAIL","type":"marché à bétail","district_region":null,"departement_commune":null,"verifie":true,"name":"PARC A BETAIL","source":"Géoportail ANSTAT"}},{"type":"Feature","geometry":{"type":"Point","coordinates":[-5.428362999999933,9.628715000000057]},"properties":{"id":70877,"nom":"PARC A BOEUF","type":"marché à bétail","district_region":null,"departement_commune":null,"verifie":true,"name":"PARC A BOEUF","source":"Géoportail ANSTAT"}},{"type":"Feature","geometry":{"type":"Point","coordinates":[-5.41755999999998,9.655441000000051]},"properties":{"id":70878,"nom":"PARC BETAIL","type":"marché à bétail","district_region":null,"departement_commune":null,"verifie":true,"name":"PARC BETAIL","source":"Géoportail ANSTAT"}},{"type":"Feature","geometry":{"type":"Point","coordinates":[-5.446454999999958,9.61298000000005]},"properties":{"id":70879,"nom":"PARC","type":"marché à bétail","district_region":null,"departement_commune":null,"verifie":true,"name":"PARC","source":"Géoportail ANSTAT"}},{"type":"Feature","geometry":{"type":"Point","coordinates":[-5.441520999999966,9.611157000000048]},"properties":{"id":70880,"nom":"PARC BOVINE","type":"marché à bétail","district_region":null,"departement_commune":null,"verifie":true,"name":"PARC BOVINE","source":"Géoportail ANSTAT"}},{"type":"Feature","geometry":{"type":"Point","coordinates":[-5.405367999999953,9.61474000000004]},"properties":{"id":70881,"nom":"PARC","type":"marché à bétail","district_region":null,"departement_commune":null,"verifie":true,"name":"PARC","source":"Géoportail ANSTAT"}},{"type":"Feature","geometry":{"type":"Point","coordinates":[-5.40088099999997,9.615987000000075]},"properties":{"id":70882,"nom":"PARC","type":"marché à bétail","district_region":null,"departement_commune":null,"verifie":true,"name":"PARC","source":"Géoportail ANSTAT"}},{"type":"Feature","geometry":{"type":"Point","coordinates":[-5.400306999999941,9.59121200000004]},"properties":{"id":70883,"nom":"PARC A BOEUF","type":"marché à bétail","district_region":null,"departement_commune":null,"verifie":true,"name":"PARC A BOEUF","source":"Géoportail ANSTAT"}},{"type":"Feature","geometry":{"type":"Point","coordinates":[-5.454619999999977,9.60395600000004]},"properties":{"id":70884,"nom":"PARC","type":"marché à bétail","district_region":null,"departement_commune":null,"verifie":true,"name":"PARC","source":"Géoportail ANSTAT"}},{"type":"Feature","geometry":{"type":"Point","coordinates":[-5.460096999999962,9.611684000000023]},"properties":{"id":70885,"nom":"PARC BETAIL","type":"marché à bétail","district_region":null,"departement_commune":null,"verifie":true,"name":"PARC BETAIL","source":"Géoportail ANSTAT"}},{"type":"Feature","geometry":{"type":"Point","coordinates":[-5.459904999999935,9.608465000000024]},"properties":{"id":70887,"nom":"PARC BETAIL","type":"marché à bétail","district_region":null,"departement_commune":null,"verifie":true,"name":"PARC BETAIL","source":"Géoportail ANSTAT"}},{"type":"Feature","geometry":{"type":"Point","coordinates":[-5.370104999999967,9.561214000000064]},"properties":{"id":70888,"nom":"PARC A BOEUF","type":"marché à bétail","district_region":null,"departement_commune":null,"verifie":true,"name":"PARC A BOEUF","source":"Géoportail ANSTAT"}},{"type":"Feature","geometry":{"type":"Point","coordinates":[-5.337624999999946,9.535848000000044]},"properties":{"id":70889,"nom":"PARC A BOEUF","type":"marché à bétail","district_region":null,"departement_commune":null,"verifie":true,"name":"PARC A BOEUF","source":"Géoportail ANSTAT"}},{"type":"Feature","geometry":{"type":"Point","coordinates":[-5.353529999999978,9.525805000000048]},"properties":{"id":70890,"nom":"PARC","type":"marché à bétail","district_region":null,"departement_commune":null,"verifie":true,"name":"PARC","source":"Géoportail ANSTAT"}},{"type":"Feature","geometry":{"type":"Point","coordinates":[-5.466279999999927,9.592998000000025]},"properties":{"id":70891,"nom":"PARC","type":"marché à bétail","district_region":null,"departement_commune":null,"verifie":true,"name":"PARC","source":"Géoportail ANSTAT"}},{"type":"Feature","geometry":{"type":"Point","coordinates":[-5.401837999999941,9.583651000000032]},"properties":{"id":70892,"nom":"PARC BETAIL","type":"marché à bétail","district_region":null,"departement_commune":null,"verifie":true,"name":"PARC BETAIL","source":"Géoportail ANSTAT"}},{"type":"Feature","geometry":{"type":"Point","coordinates":[-5.696845999999937,8.946373000000051]},"properties":{"id":70893,"nom":"PARC BOEUF","type":"marché à bétail","district_region":null,"departement_commune":null,"verifie":true,"name":"PARC BOEUF","source":"Géoportail ANSTAT"}},{"type":"Feature","geometry":{"type":"Point","coordinates":[-5.540765999999962,9.21444800000006]},"properties":{"id":70894,"nom":"PARC DE BOEUF","type":"marché à bétail","district_region":null,"departement_commune":null,"verifie":true,"name":"PARC DE BOEUF","source":"Géoportail ANSTAT"}},{"type":"Feature","geometry":{"type":"Point","coordinates":[-5.539118999999971,9.235111000000074]},"properties":{"id":70895,"nom":"PARC BOEUF","type":"marché à bétail","district_region":null,"departement_commune":null,"verifie":true,"name":"PARC BOEUF","source":"Géoportail ANSTAT"}},{"type":"Feature","geometry":{"type":"Point","coordinates":[-5.560352999999964,9.242229000000066]},"properties":{"id":70896,"nom":"PARC BOEUF","type":"marché à bétail","district_region":null,"departement_commune":null,"verifie":true,"name":"PARC BOEUF","source":"Géoportail ANSTAT"}},{"type":"Feature","geometry":{"type":"Point","coordinates":[-5.471835999999939,9.254953000000055]},"properties":{"id":70897,"nom":"PARC","type":"marché à bétail","district_region":null,"departement_commune":null,"verifie":true,"name":"PARC","source":"Géoportail ANSTAT"}},{"type":"Feature","geometry":{"type":"Point","coordinates":[-5.470819999999947,9.25686600000006]},"properties":{"id":70898,"nom":"PARC","type":"marché à bétail","district_region":null,"departement_commune":null,"verifie":true,"name":"PARC","source":"Géoportail ANSTAT"}},{"type":"Feature","geometry":{"type":"Point","coordinates":[-5.574710999999979,9.24990500000007]},"properties":{"id":70899,"nom":"PARC BOEUF","type":"marché à bétail","district_region":null,"departement_commune":null,"verifie":true,"name":"PARC BOEUF","source":"Géoportail ANSTAT"}},{"type":"Feature","geometry":{"type":"Point","coordinates":[-5.510802999999953,9.311716000000049]},"properties":{"id":70900,"nom":"PARC A BOEUF","type":"marché à bétail","district_region":null,"departement_commune":null,"verifie":true,"name":"PARC A BOEUF","source":"Géoportail ANSTAT"}},{"type":"Feature","geometry":{"type":"Point","coordinates":[-5.619069999999965,9.258121000000074]},"properties":{"id":70901,"nom":"PARC DE BOEUF DE TAMMKAHA","type":"marché à bétail","district_region":null,"departement_commune":null,"verifie":true,"name":"PARC DE BOEUF DE TAMMKAHA","source":"Géoportail ANSTAT"}},{"type":"Feature","geometry":{"type":"Point","coordinates":[-5.535118999999952,9.28181200000006]},"properties":{"id":70902,"nom":"PARC BOEUF","type":"marché à bétail","district_region":null,"departement_commune":null,"verifie":true,"name":"PARC BOEUF","source":"Géoportail ANSTAT"}},{"type":"Feature","geometry":{"type":"Point","coordinates":[-5.504502999999943,9.261516000000029]},"properties":{"id":70903,"nom":"PARC BOEUF","type":"marché à bétail","district_region":null,"departement_commune":null,"verifie":true,"name":"PARC BOEUF","source":"Géoportail ANSTAT"}},{"type":"Feature","geometry":{"type":"Point","coordinates":[-5.623100999999963,9.26655100000005]},"properties":{"id":70904,"nom":"PARC BOEUF","type":"marché à bétail","district_region":null,"departement_commune":null,"verifie":true,"name":"PARC BOEUF","source":"Géoportail ANSTAT"}},{"type":"Feature","geometry":{"type":"Point","coordinates":[-5.608021999999949,9.25716200000005]},"properties":{"id":70905,"nom":"PARC BOEUF","type":"marché à bétail","district_region":null,"departement_commune":null,"verifie":true,"name":"PARC BOEUF","source":"Géoportail ANSTAT"}},{"type":"Feature","geometry":{"type":"Point","coordinates":[-5.519843999999978,9.307924000000073]},"properties":{"id":70906,"nom":"PARC","type":"marché à bétail","district_region":null,"departement_commune":null,"verifie":true,"name":"PARC","source":"Géoportail ANSTAT"}},{"type":"Feature","geometry":{"type":"Point","coordinates":[-5.46676599999995,9.437043000000074]},"properties":{"id":70907,"nom":"PARC BOEUF","type":"marché à bétail","district_region":null,"departement_commune":null,"verifie":true,"name":"PARC BOEUF","source":"Géoportail ANSTAT"}},{"type":"Feature","geometry":{"type":"Point","coordinates":[-5.458792999999957,9.423519000000056]},"properties":{"id":70908,"nom":"PARC","type":"marché à bétail","district_region":null,"departement_commune":null,"verifie":true,"name":"PARC","source":"Géoportail ANSTAT"}},{"type":"Feature","geometry":{"type":"Point","coordinates":[-5.452690999999959,9.371754000000069]},"properties":{"id":70909,"nom":"PARC A BOEUF","type":"marché à bétail","district_region":null,"departement_commune":null,"verifie":true,"name":"PARC A BOEUF","source":"Géoportail ANSTAT"}},{"type":"Feature","geometry":{"type":"Point","coordinates":[-5.416662999999971,9.38396000000006]},"properties":{"id":70910,"nom":"PARC A BOEUF","type":"marché à bétail","district_region":null,"departement_commune":null,"verifie":true,"name":"PARC A BOEUF","source":"Géoportail ANSTAT"}},{"type":"Feature","geometry":{"type":"Point","coordinates":[-5.445046999999931,9.360336000000077]},"properties":{"id":70911,"nom":"PARC","type":"marché à bétail","district_region":null,"departement_commune":null,"verifie":true,"name":"PARC","source":"Géoportail ANSTAT"}},{"type":"Feature","geometry":{"type":"Point","coordinates":[-5.444467999999972,9.347500000000023]},"properties":{"id":70912,"nom":"PARC BOVINE","type":"marché à bétail","district_region":null,"departement_commune":null,"verifie":true,"name":"PARC BOVINE","source":"Géoportail ANSTAT"}},{"type":"Feature","geometry":{"type":"Point","coordinates":[-5.426547999999968,9.354998000000023]},"properties":{"id":70913,"nom":"PARC","type":"marché à bétail","district_region":null,"departement_commune":null,"verifie":true,"name":"PARC","source":"Géoportail ANSTAT"}},{"type":"Feature","geometry":{"type":"Point","coordinates":[-5.394396999999969,9.343871000000036]},"properties":{"id":70914,"nom":"PARC A BOEUF","type":"marché à bétail","district_region":null,"departement_commune":null,"verifie":true,"name":"PARC A BOEUF","source":"Géoportail ANSTAT"}},{"type":"Feature","geometry":{"type":"Point","coordinates":[-5.414641999999958,9.244128000000046]},"properties":{"id":70915,"nom":"PARC A BETAIL","type":"marché à bétail","district_region":null,"departement_commune":null,"verifie":true,"name":"PARC A BETAIL","source":"Géoportail ANSTAT"}},{"type":"Feature","geometry":{"type":"Point","coordinates":[-5.391614999999945,9.236214000000077]},"properties":{"id":70916,"nom":"PARC A BOEUF 1","type":"marché à bétail","district_region":null,"departement_commune":null,"verifie":true,"name":"PARC A BOEUF 1","source":"Géoportail ANSTAT"}},{"type":"Feature","geometry":{"type":"Point","coordinates":[-5.43384599999996,9.383751000000077]},"properties":{"id":70917,"nom":"PARC A BOEUF","type":"marché à bétail","district_region":null,"departement_commune":null,"verifie":true,"name":"PARC A BOEUF","source":"Géoportail ANSTAT"}},{"type":"Feature","geometry":{"type":"Point","coordinates":[-5.432342999999946,9.396380000000022]},"properties":{"id":70918,"nom":"PARC BOEUF","type":"marché à bétail","district_region":null,"departement_commune":null,"verifie":true,"name":"PARC BOEUF","source":"Géoportail ANSTAT"}},{"type":"Feature","geometry":{"type":"Point","coordinates":[-5.42425899999995,9.425082000000032]},"properties":{"id":70919,"nom":"PARC","type":"marché à bétail","district_region":null,"departement_commune":null,"verifie":true,"name":"PARC","source":"Géoportail ANSTAT"}},{"type":"Feature","geometry":{"type":"Point","coordinates":[-5.497077999999931,9.426041000000057]},"properties":{"id":70920,"nom":"PARC A BETAIL","type":"marché à bétail","district_region":null,"departement_commune":null,"verifie":true,"name":"PARC A BETAIL","source":"Géoportail ANSTAT"}},{"type":"Feature","geometry":{"type":"Point","coordinates":[-5.560489999999959,9.441130000000044]},"properties":{"id":70921,"nom":"PARC A BOEUF","type":"marché à bétail","district_region":null,"departement_commune":null,"verifie":true,"name":"PARC A BOEUF","source":"Géoportail ANSTAT"}},{"type":"Feature","geometry":{"type":"Point","coordinates":[-5.503627999999935,9.465283000000056]},"properties":{"id":70922,"nom":"PARC A BETAIL","type":"marché à bétail","district_region":null,"departement_commune":null,"verifie":true,"name":"PARC A BETAIL","source":"Géoportail ANSTAT"}},{"type":"Feature","geometry":{"type":"Point","coordinates":[-5.576885999999945,9.36965600000002]},"properties":{"id":70923,"nom":"PARC A BOEUF","type":"marché à bétail","district_region":null,"departement_commune":null,"verifie":true,"name":"PARC A BOEUF","source":"Géoportail ANSTAT"}},{"type":"Feature","geometry":{"type":"Point","coordinates":[-5.583609999999965,9.368655000000048]},"properties":{"id":70924,"nom":"PARC BETAILS","type":"marché à bétail","district_region":null,"departement_commune":null,"verifie":true,"name":"PARC BETAILS","source":"Géoportail ANSTAT"}},{"type":"Feature","geometry":{"type":"Point","coordinates":[-5.564811999999961,9.367743000000075]},"properties":{"id":70925,"nom":"PARC A BETAIL","type":"marché à bétail","district_region":null,"departement_commune":null,"verifie":true,"name":"PARC A BETAIL","source":"Géoportail ANSTAT"}},{"type":"Feature","geometry":{"type":"Point","coordinates":[-5.564401999999973,9.368708000000026]},"properties":{"id":70926,"nom":"PARC ABETAIL","type":"marché à bétail","district_region":null,"departement_commune":null,"verifie":true,"name":"PARC ABETAIL","source":"Géoportail ANSTAT"}},{"type":"Feature","geometry":{"type":"Point","coordinates":[-5.469882999999925,9.367990000000075]},"properties":{"id":70927,"nom":"PARC","type":"marché à bétail","district_region":null,"departement_commune":null,"verifie":true,"name":"PARC","source":"Géoportail ANSTAT"}},{"type":"Feature","geometry":{"type":"Point","coordinates":[-5.471895999999958,9.365546000000052]},"properties":{"id":70928,"nom":"PARC BOEUF","type":"marché à bétail","district_region":null,"departement_commune":null,"verifie":true,"name":"PARC BOEUF","source":"Géoportail ANSTAT"}},{"type":"Feature","geometry":{"type":"Point","coordinates":[-5.485250999999948,9.393804000000046]},"properties":{"id":70929,"nom":"PARC A BOEUF","type":"marché à bétail","district_region":null,"departement_commune":null,"verifie":true,"name":"PARC A BOEUF","source":"Géoportail ANSTAT"}},{"type":"Feature","geometry":{"type":"Point","coordinates":[-5.558124999999961,9.441347000000064]},"properties":{"id":70930,"nom":"PAC A BETAIL","type":"marché à bétail","district_region":null,"departement_commune":null,"verifie":true,"name":"PAC A BETAIL","source":"Géoportail ANSTAT"}},{"type":"Feature","geometry":{"type":"Point","coordinates":[-5.554287999999929,9.44378800000004]},"properties":{"id":70931,"nom":"PARC A BOEUF","type":"marché à bétail","district_region":null,"departement_commune":null,"verifie":true,"name":"PARC A BOEUF","source":"Géoportail ANSTAT"}},{"type":"Feature","geometry":{"type":"Point","coordinates":[-5.547747999999956,9.46429500000005]},"properties":{"id":70932,"nom":"PARC A BOEUF","type":"marché à bétail","district_region":null,"departement_commune":null,"verifie":true,"name":"PARC A BOEUF","source":"Géoportail ANSTAT"}},{"type":"Feature","geometry":{"type":"Point","coordinates":[-5.545829999999967,9.449389000000052]},"properties":{"id":70933,"nom":"PARC","type":"marché à bétail","district_region":null,"departement_commune":null,"verifie":true,"name":"PARC","source":"Géoportail ANSTAT"}},{"type":"Feature","geometry":{"type":"Point","coordinates":[-5.47673999999995,9.432489000000032]},"properties":{"id":70934,"nom":"PARC A BOEUF","type":"marché à bétail","district_region":null,"departement_commune":null,"verifie":true,"name":"PARC A BOEUF","source":"Géoportail ANSTAT"}},{"type":"Feature","geometry":{"type":"Point","coordinates":[-5.477590999999961,9.432547000000056]},"properties":{"id":70935,"nom":"PARC A BOEUF","type":"marché à bétail","district_region":null,"departement_commune":null,"verifie":true,"name":"PARC A BOEUF","source":"Géoportail ANSTAT"}},{"type":"Feature","geometry":{"type":"Point","coordinates":[-5.477608999999973,9.43251900000007]},"properties":{"id":70936,"nom":"PARC A BOEUF","type":"marché à bétail","district_region":null,"departement_commune":null,"verifie":true,"name":"PARC A BOEUF","source":"Géoportail ANSTAT"}},{"type":"Feature","geometry":{"type":"Point","coordinates":[-5.469120999999973,9.448429000000033]},"properties":{"id":70937,"nom":"PARC A BOEUF","type":"marché à bétail","district_region":null,"departement_commune":null,"verifie":true,"name":"PARC A BOEUF","source":"Géoportail ANSTAT"}},{"type":"Feature","geometry":{"type":"Point","coordinates":[-5.537201999999979,9.492726000000062]},"properties":{"id":70938,"nom":"PARC A BOEUF","type":"marché à bétail","district_region":null,"departement_commune":null,"verifie":true,"name":"PARC A BOEUF","source":"Géoportail ANSTAT"}},{"type":"Feature","geometry":{"type":"Point","coordinates":[-5.527955999999961,9.503047000000038]},"properties":{"id":70939,"nom":"PARC","type":"marché à bétail","district_region":null,"departement_commune":null,"verifie":true,"name":"PARC","source":"Géoportail ANSTAT"}},{"type":"Feature","geometry":{"type":"Point","coordinates":[-5.519374999999968,9.51244200000002]},"properties":{"id":70940,"nom":"PARC","type":"marché à bétail","district_region":null,"departement_commune":null,"verifie":true,"name":"PARC","source":"Géoportail ANSTAT"}},{"type":"Feature","geometry":{"type":"Point","coordinates":[-5.490631999999948,9.46972100000005]},"properties":{"id":70941,"nom":"PARC","type":"marché à bétail","district_region":null,"departement_commune":null,"verifie":true,"name":"PARC","source":"Géoportail ANSTAT"}},{"type":"Feature","geometry":{"type":"Point","coordinates":[-5.421048999999925,9.36480400000005]},"properties":{"id":70942,"nom":"PARC BOEUF","type":"marché à bétail","district_region":null,"departement_commune":null,"verifie":true,"name":"PARC BOEUF","source":"Géoportail ANSTAT"}},{"type":"Feature","geometry":{"type":"Point","coordinates":[-5.568684999999959,9.19079800000003]},"properties":{"id":70943,"nom":"PARC BOEUF","type":"marché à bétail","district_region":null,"departement_commune":null,"verifie":true,"name":"PARC BOEUF","source":"Géoportail ANSTAT"}},{"type":"Feature","geometry":{"type":"Point","coordinates":[-5.569826999999975,9.186081000000058]},"properties":{"id":70944,"nom":"PARC BOEUF","type":"marché à bétail","district_region":null,"departement_commune":null,"verifie":true,"name":"PARC BOEUF","source":"Géoportail ANSTAT"}},{"type":"Feature","geometry":{"type":"Point","coordinates":[-5.367625999999973,9.585421000000052]},"properties":{"id":70945,"nom":"PARC DE BOEUF","type":"marché à bétail","district_region":null,"departement_commune":null,"verifie":true,"name":"PARC DE BOEUF","source":"Géoportail ANSTAT"}},{"type":"Feature","geometry":{"type":"Point","coordinates":[-5.489608999999973,9.307290000000023]},"properties":{"id":70946,"nom":"PARC A BOEUF","type":"marché à bétail","district_region":null,"departement_commune":null,"verifie":true,"name":"PARC A BOEUF","source":"Géoportail ANSTAT"}},{"type":"Feature","geometry":{"type":"Point","coordinates":[-4.284245999999939,6.357047000000023]},"properties":{"id":70947,"nom":"PARC DES BOEUFS","type":"marché à bétail","district_region":null,"departement_commune":null,"verifie":true,"name":"PARC DES BOEUFS","source":"Géoportail ANSTAT"}},{"type":"Feature","geometry":{"type":"Point","coordinates":[-4.225997999999947,6.653852000000029]},"properties":{"id":70948,"nom":"PARC A BETAIL","type":"marché à bétail","district_region":null,"departement_commune":null,"verifie":true,"name":"PARC A BETAIL","source":"Géoportail ANSTAT"}},{"type":"Feature","geometry":{"type":"Point","coordinates":[-4.091970999999944,6.794844000000069]},"properties":{"id":70949,"nom":"PARC DE BOEUFS","type":"marché à bétail","district_region":null,"departement_commune":null,"verifie":true,"name":"PARC DE BOEUFS","source":"Géoportail ANSTAT"}},{"type":"Feature","geometry":{"type":"Point","coordinates":[-7.263692999999932,7.20686500000005]},"properties":{"id":70950,"nom":"PARC A BOEUF","type":"marché à bétail","district_region":null,"departement_commune":null,"verifie":true,"name":"PARC A BOEUF","source":"Géoportail ANSTAT"}},{"type":"Feature","geometry":{"type":"Point","coordinates":[-4.350728999999944,5.414570000000026]},"properties":{"id":70951,"nom":"PARC A BETAIL","type":"marché à bétail","district_region":null,"departement_commune":null,"verifie":true,"name":"PARC A BETAIL","source":"Géoportail ANSTAT"}},{"type":"Feature","geometry":{"type":"Point","coordinates":[-5.958779999999933,6.147015000000067]},"properties":{"id":70952,"nom":"PARC DE BOEUF","type":"marché à bétail","district_region":null,"departement_commune":null,"verifie":true,"name":"PARC DE BOEUF","source":"Géoportail ANSTAT"}},{"type":"Feature","geometry":{"type":"Point","coordinates":[-6.16701999999998,6.23793900000004]},"properties":{"id":70953,"nom":"PARC DE BOEUF","type":"marché à bétail","district_region":null,"departement_commune":null,"verifie":true,"name":"PARC DE BOEUF","source":"Géoportail ANSTAT"}},{"type":"Feature","geometry":{"type":"Point","coordinates":[-5.354918999999938,6.427333000000033]},"properties":{"id":70954,"nom":"PARC DE BOEUF","type":"marché à bétail","district_region":null,"departement_commune":null,"verifie":true,"name":"PARC DE BOEUF","source":"Géoportail ANSTAT"}},{"type":"Feature","geometry":{"type":"Point","coordinates":[-5.67442699999998,6.352675000000033]},"properties":{"id":70955,"nom":"PARC DE BOEUF","type":"marché à bétail","district_region":null,"departement_commune":null,"verifie":true,"name":"PARC DE BOEUF","source":"Géoportail ANSTAT"}},{"type":"Feature","geometry":{"type":"Point","coordinates":[-6.142546999999979,7.452381000000059]},"properties":{"id":70956,"nom":"PARC BETAIL","type":"marché à bétail","district_region":null,"departement_commune":null,"verifie":true,"name":"PARC BETAIL","source":"Géoportail ANSTAT"}},{"type":"Feature","geometry":{"type":"Point","coordinates":[-5.090335999999979,7.424524000000076]},"properties":{"id":70957,"nom":"PARCHE DASSOUAKRO","type":"marché à bétail","district_region":null,"departement_commune":null,"verifie":true,"name":"PARCHE DASSOUAKRO","source":"Géoportail ANSTAT"}},{"type":"Feature","geometry":{"type":"Point","coordinates":[-5.083288999999979,7.690307000000075]},"properties":{"id":70958,"nom":"PARCELLE DE LA FERME DE L UFBPG","type":"marché à bétail","district_region":null,"departement_commune":null,"verifie":true,"name":"PARCELLE DE LA FERME DE L UFBPG","source":"Géoportail ANSTAT"}},{"type":"Feature","geometry":{"type":"Point","coordinates":[-5.038517999999954,7.664315000000045]},"properties":{"id":70959,"nom":"PARC DE BOEUF","type":"marché à bétail","district_region":null,"departement_commune":null,"verifie":true,"name":"PARC DE BOEUF","source":"Géoportail ANSTAT"}},{"type":"Feature","geometry":{"type":"Point","coordinates":[-5.237626999999975,5.511192000000051]},"properties":{"id":70961,"nom":"PARCK  BOEUF","type":"marché à bétail","district_region":null,"departement_commune":null,"verifie":true,"name":"PARCK  BOEUF","source":"Géoportail ANSTAT"}},{"type":"Feature","geometry":{"type":"Point","coordinates":[-6.706665999999927,9.190588000000048]},"properties":{"id":70962,"nom":"PARC","type":"marché à bétail","district_region":null,"departement_commune":null,"verifie":true,"name":"PARC","source":"Géoportail ANSTAT"}},{"type":"Feature","geometry":{"type":"Point","coordinates":[-6.62013399999995,9.525073000000075]},"properties":{"id":70963,"nom":"PARC BOVINE","type":"marché à bétail","district_region":null,"departement_commune":null,"verifie":true,"name":"PARC BOVINE","source":"Géoportail ANSTAT"}},{"type":"Feature","geometry":{"type":"Point","coordinates":[-6.618572999999969,9.524594000000036]},"properties":{"id":70964,"nom":"PARC BOVINE","type":"marché à bétail","district_region":null,"departement_commune":null,"verifie":true,"name":"PARC BOVINE","source":"Géoportail ANSTAT"}},{"type":"Feature","geometry":{"type":"Point","coordinates":[-6.616360999999927,9.522713000000069]},"properties":{"id":70965,"nom":"PARC BOVINE","type":"marché à bétail","district_region":null,"departement_commune":null,"verifie":true,"name":"PARC BOVINE","source":"Géoportail ANSTAT"}},{"type":"Feature","geometry":{"type":"Point","coordinates":[-6.633327999999949,9.504338000000075]},"properties":{"id":70966,"nom":"PARC BOVINE","type":"marché à bétail","district_region":null,"departement_commune":null,"verifie":true,"name":"PARC BOVINE","source":"Géoportail ANSTAT"}},{"type":"Feature","geometry":{"type":"Point","coordinates":[-6.292682999999954,10.56912600000004]},"properties":{"id":70967,"nom":"PARC A BETAIL","type":"marché à bétail","district_region":null,"departement_commune":null,"verifie":true,"name":"PARC A BETAIL","source":"Géoportail ANSTAT"}},{"type":"Feature","geometry":{"type":"Point","coordinates":[-7.577625999999952,9.448010000000068]},"properties":{"id":70968,"nom":"PARC ANIMALIER","type":"marché à bétail","district_region":null,"departement_commune":null,"verifie":true,"name":"PARC ANIMALIER","source":"Géoportail ANSTAT"}},{"type":"Feature","geometry":{"type":"Point","coordinates":[-7.690782999999954,9.42753300000004]},"properties":{"id":70969,"nom":"PARC ANIMALIER","type":"marché à bétail","district_region":null,"departement_commune":null,"verifie":true,"name":"PARC ANIMALIER","source":"Géoportail ANSTAT"}},{"type":"Feature","geometry":{"type":"Point","coordinates":[-7.690512999999953,9.427684000000056]},"properties":{"id":70970,"nom":"PARC ANIMALIER","type":"marché à bétail","district_region":null,"departement_commune":null,"verifie":true,"name":"PARC ANIMALIER","source":"Géoportail ANSTAT"}},{"type":"Feature","geometry":{"type":"Point","coordinates":[-7.736464999999953,9.399776000000031]},"properties":{"id":70971,"nom":"PARC ANIMALIER","type":"marché à bétail","district_region":null,"departement_commune":null,"verifie":true,"name":"PARC ANIMALIER","source":"Géoportail ANSTAT"}},{"type":"Feature","geometry":{"type":"Point","coordinates":[-7.777172999999948,9.399757000000022]},"properties":{"id":70972,"nom":"PARC D ELEVAGE","type":"marché à bétail","district_region":null,"departement_commune":null,"verifie":true,"name":"PARC D ELEVAGE","source":"Géoportail ANSTAT"}},{"type":"Feature","geometry":{"type":"Point","coordinates":[-7.776598999999976,9.395076000000074]},"properties":{"id":70973,"nom":"PARC D ELEVAGE","type":"marché à bétail","district_region":null,"departement_commune":null,"verifie":true,"name":"PARC D ELEVAGE","source":"Géoportail ANSTAT"}},{"type":"Feature","geometry":{"type":"Point","coordinates":[-7.779218999999955,9.39628700000003]},"properties":{"id":70974,"nom":"PARC D ELEVAGE","type":"marché à bétail","district_region":null,"departement_commune":null,"verifie":true,"name":"PARC D ELEVAGE","source":"Géoportail ANSTAT"}},{"type":"Feature","geometry":{"type":"Point","coordinates":[-7.77801999999997,9.39896600000003]},"properties":{"id":70975,"nom":"PARC D ELEVAGE","type":"marché à bétail","district_region":null,"departement_commune":null,"verifie":true,"name":"PARC D ELEVAGE","source":"Géoportail ANSTAT"}},{"type":"Feature","geometry":{"type":"Point","coordinates":[-7.776322999999934,9.396983000000034]},"properties":{"id":70976,"nom":"PARC DELEVAGE","type":"marché à bétail","district_region":null,"departement_commune":null,"verifie":true,"name":"PARC DELEVAGE","source":"Géoportail ANSTAT"}},{"type":"Feature","geometry":{"type":"Point","coordinates":[-7.82817799999998,9.25701900000007]},"properties":{"id":70977,"nom":"PARC ANIMALIER","type":"marché à bétail","district_region":null,"departement_commune":null,"verifie":true,"name":"PARC ANIMALIER","source":"Géoportail ANSTAT"}},{"type":"Feature","geometry":{"type":"Point","coordinates":[-5.390989999999931,9.232639000000065]},"properties":{"id":70978,"nom":"PARC A BOEUF","type":"marché à bétail","district_region":null,"departement_commune":null,"verifie":true,"name":"PARC A BOEUF","source":"Géoportail ANSTAT"}},{"type":"Feature","geometry":{"type":"Point","coordinates":[-5.324738999999965,9.253481000000022]},"properties":{"id":70979,"nom":"PARC A BOEUF","type":"marché à bétail","district_region":null,"departement_commune":null,"verifie":true,"name":"PARC A BOEUF","source":"Géoportail ANSTAT"}},{"type":"Feature","geometry":{"type":"Point","coordinates":[-8.149057999999968,7.236463000000072]},"properties":{"id":70980,"nom":"PARC DE BETAIL","type":"marché à bétail","district_region":null,"departement_commune":null,"verifie":true,"name":"PARC DE BETAIL","source":"Géoportail ANSTAT"}},{"type":"Feature","geometry":{"type":"Point","coordinates":[-6.298055999999974,5.999515000000031]},"properties":{"id":70981,"nom":"VENTE DE PRODUITS DE BETAILS PANTERYL","type":"marché à bétail","district_region":null,"departement_commune":null,"verifie":true,"name":"VENTE DE PRODUITS DE BETAILS PANTERYL","source":"Géoportail ANSTAT"}},{"type":"Feature","geometry":{"type":"Point","coordinates":[-3.160371999999938,5.603160000000059]},"properties":{"id":70982,"nom":"VENTE D ALIMENT DE BETAIL","type":"marché à bétail","district_region":null,"departement_commune":null,"verifie":true,"name":"VENTE D ALIMENT DE BETAIL","source":"Géoportail ANSTAT"}},{"type":"Feature","geometry":{"type":"Point","coordinates":[-4.031334999999956,5.348054000000047]},"properties":{"id":70983,"nom":"BETAIL","type":"marché à bétail","district_region":null,"departement_commune":null,"verifie":true,"name":"BETAIL","source":"Géoportail ANSTAT"}},{"type":"Feature","geometry":{"type":"Point","coordinates":[-3.974495999999931,5.292572000000064]},"properties":{"id":70984,"nom":"AU PARCHEMAIN","type":"marché à bétail","district_region":null,"departement_commune":null,"verifie":true,"name":"AU PARCHEMAIN","source":"Géoportail ANSTAT"}},{"type":"Feature","geometry":{"type":"Point","coordinates":[-4.002503999999931,5.295931000000053]},"properties":{"id":70985,"nom":"CODIPARC","type":"marché à bétail","district_region":null,"departement_commune":null,"verifie":true,"name":"CODIPARC","source":"Géoportail ANSTAT"}},{"type":"Feature","geometry":{"type":"Point","coordinates":[-4.003428999999926,5.296153000000061]},"properties":{"id":70986,"nom":"DEPOT DE PARC","type":"marché à bétail","district_region":null,"departement_commune":null,"verifie":true,"name":"DEPOT DE PARC","source":"Géoportail ANSTAT"}},{"type":"Feature","geometry":{"type":"Point","coordinates":[-3.96579399999996,5.262298000000044]},"properties":{"id":70988,"nom":"ESPACE VENTE DE BETAIL 1","type":"marché à bétail","district_region":null,"departement_commune":null,"verifie":true,"name":"ESPACE VENTE DE BETAIL 1","source":"Géoportail ANSTAT"}},{"type":"Feature","geometry":{"type":"Point","coordinates":[-3.965539999999976,5.262481000000037]},"properties":{"id":70989,"nom":"ESPACE VENTE DE BETAIL 2","type":"marché à bétail","district_region":null,"departement_commune":null,"verifie":true,"name":"ESPACE VENTE DE BETAIL 2","source":"Géoportail ANSTAT"}},{"type":"Feature","geometry":{"type":"Point","coordinates":[-3.884023999999954,5.242910000000052]},"properties":{"id":70990,"nom":"EDEN PARC","type":"marché à bétail","district_region":null,"departement_commune":null,"verifie":true,"name":"EDEN PARC","source":"Géoportail ANSTAT"}},{"type":"Feature","geometry":{"type":"Point","coordinates":[-4.099484999999959,5.447721000000058]},"properties":{"id":70991,"nom":"PARC BOEUF","type":"marché à bétail","district_region":null,"departement_commune":null,"verifie":true,"name":"PARC BOEUF","source":"Géoportail ANSTAT"}},{"type":"Feature","geometry":{"type":"Point","coordinates":[-4.058936999999958,5.436679000000026]},"properties":{"id":70993,"nom":"PARC GARAGE GROS CAMIONS ET REMORQUES","type":"marché à bétail","district_region":null,"departement_commune":null,"verifie":true,"name":"PARC GARAGE GROS CAMIONS ET REMORQUES","source":"Géoportail ANSTAT"}},{"type":"Feature","geometry":{"type":"Point","coordinates":[-4.030374999999935,5.344046000000048]},"properties":{"id":70994,"nom":"MARCHE DE BETAIL DE ATTECOUBE","type":"marché à bétail","district_region":null,"departement_commune":null,"verifie":true,"name":"MARCHE DE BETAIL DE ATTECOUBE","source":"Géoportail ANSTAT"}},{"type":"Feature","geometry":{"type":"Point","coordinates":[-4.02722799999998,5.325549000000024]},"properties":{"id":70995,"nom":"PARC A BOIS","type":"marché à bétail","district_region":null,"departement_commune":null,"verifie":true,"name":"PARC A BOIS","source":"Géoportail ANSTAT"}},{"type":"Feature","geometry":{"type":"Point","coordinates":[-4.008273999999972,5.278879000000074]},"properties":{"id":70996,"nom":"MOVIS PARC","type":"marché à bétail","district_region":null,"departement_commune":null,"verifie":true,"name":"MOVIS PARC","source":"Géoportail ANSTAT"}},{"type":"Feature","geometry":{"type":"Point","coordinates":[-4.010497999999927,5.311263000000054]},"properties":{"id":70997,"nom":"PARCKING PAYANT","type":"marché à bétail","district_region":null,"departement_commune":null,"verifie":true,"name":"PARCKING PAYANT","source":"Géoportail ANSTAT"}},{"type":"Feature","geometry":{"type":"Point","coordinates":[-3.868592999999976,5.23474200000004]},"properties":{"id":70998,"nom":"PARC AUTOMOBILE","type":"marché à bétail","district_region":null,"departement_commune":null,"verifie":true,"name":"PARC AUTOMOBILE","source":"Géoportail ANSTAT"}},{"type":"Feature","geometry":{"type":"Point","coordinates":[-4.004537999999968,5.279526000000033]},"properties":{"id":70999,"nom":"SIPARCO","type":"marché à bétail","district_region":null,"departement_commune":null,"verifie":true,"name":"SIPARCO","source":"Géoportail ANSTAT"}},{"type":"Feature","geometry":{"type":"Point","coordinates":[-3.96310399999993,5.265889000000072]},"properties":{"id":71000,"nom":"VENTE DE BETAIL","type":"marché à bétail","district_region":null,"departement_commune":null,"verifie":true,"name":"VENTE DE BETAIL","source":"Géoportail ANSTAT"}}],"metadata":{"dataset":"Marché à bétail — ANSTAT","source":"Géoportail ANSTAT","theme":"Commerce & Économie","verified":true,"apercu":"complet"}}