{"type":"FeatureCollection","features":[{"type":"Feature","geometry":{"type":"Point","coordinates":[-4.055797999999925,5.337898000000052]},"properties":{"id":34868,"nom":"ONG  O BETHEL","type":"ong inter","district_region":null,"departement_commune":null,"verifie":true,"name":"ONG  O BETHEL","source":"Géoportail ANSTAT"}},{"type":"Feature","geometry":{"type":"Point","coordinates":[-3.887896999999953,5.239222000000041]},"properties":{"id":35477,"nom":"ONG  DIASPORA CEDEAO","type":"ong inter","district_region":null,"departement_commune":null,"verifie":true,"name":"ONG  DIASPORA CEDEAO","source":"Géoportail ANSTAT"}}],"metadata":{"dataset":"Ong inter — ANSTAT","source":"Géoportail ANSTAT","theme":"Social & Culture","verified":true,"apercu":"complet"}}