{"type":"FeatureCollection","features":[{"type":"Feature","geometry":{"type":"Point","coordinates":[-5.257913,6.807343]},"properties":{"id":36032,"nom":"G4S","type":"agence de securité","district_region":null,"departement_commune":null,"verifie":true,"name":"G4S","source":"Géoportail ANSTAT"}},{"type":"Feature","geometry":{"type":"Point","coordinates":[-5.018676,7.682318]},"properties":{"id":36202,"nom":"BARAKA SECURITE","type":"agence de securité","district_region":null,"departement_commune":null,"verifie":true,"name":"BARAKA SECURITE","source":"Géoportail ANSTAT"}},{"type":"Feature","geometry":{"type":"Point","coordinates":[-5.259278,6.809043]},"properties":{"id":36284,"nom":"AZIMUTS SECURITY","type":"agence de securité","district_region":null,"departement_commune":null,"verifie":true,"name":"AZIMUTS SECURITY","source":"Géoportail ANSTAT"}},{"type":"Feature","geometry":{"type":"Point","coordinates":[-5.641834,9.482183]},"properties":{"id":36555,"nom":"COBAGIEX SECURITE","type":"agence de securité","district_region":null,"departement_commune":null,"verifie":true,"name":"COBAGIEX SECURITE","source":"Géoportail ANSTAT"}},{"type":"Feature","geometry":{"type":"Point","coordinates":[-4.355375,5.324947]},"properties":{"id":36958,"nom":"ESPOIR SECURITE","type":"agence de securité","district_region":null,"departement_commune":null,"verifie":true,"name":"ESPOIR SECURITE","source":"Géoportail ANSTAT"}},{"type":"Feature","geometry":{"type":"Point","coordinates":[-5.626467,9.440789]},"properties":{"id":36979,"nom":"FAC SECURITE","type":"agence de securité","district_region":null,"departement_commune":null,"verifie":true,"name":"FAC SECURITE","source":"Géoportail ANSTAT"}},{"type":"Feature","geometry":{"type":"Point","coordinates":[-5.947676,6.148226]},"properties":{"id":36981,"nom":"FAS SECURITE","type":"agence de securité","district_region":null,"departement_commune":null,"verifie":true,"name":"FAS SECURITE","source":"Géoportail ANSTAT"}},{"type":"Feature","geometry":{"type":"Point","coordinates":[-6.442197,6.899434]},"properties":{"id":37178,"nom":"GARDIENNAGE","type":"agence de securité","district_region":null,"departement_commune":null,"verifie":true,"name":"GARDIENNAGE","source":"Géoportail ANSTAT"}},{"type":"Feature","geometry":{"type":"Point","coordinates":[-6.4575,6.871185]},"properties":{"id":37377,"nom":"GRAND NORD SECURITE","type":"agence de securité","district_region":null,"departement_commune":null,"verifie":true,"name":"GRAND NORD SECURITE","source":"Géoportail ANSTAT"}},{"type":"Feature","geometry":{"type":"Point","coordinates":[-3.853192,6.11471]},"properties":{"id":37390,"nom":"GRACE SECURITE","type":"agence de securité","district_region":null,"departement_commune":null,"verifie":true,"name":"GRACE SECURITE","source":"Géoportail ANSTAT"}},{"type":"Feature","geometry":{"type":"Point","coordinates":[-6.645996,4.759356]},"properties":{"id":37394,"nom":"GSP SECURITE","type":"agence de securité","district_region":null,"departement_commune":null,"verifie":true,"name":"GSP SECURITE","source":"Géoportail ANSTAT"}},{"type":"Feature","geometry":{"type":"Point","coordinates":[-5.067617,7.737617]},"properties":{"id":37400,"nom":"GROUPE DE SECURITEDE L AEROPORT   GSA","type":"agence de securité","district_region":null,"departement_commune":null,"verifie":true,"name":"GROUPE DE SECURITEDE L AEROPORT   GSA","source":"Géoportail ANSTAT"}},{"type":"Feature","geometry":{"type":"Point","coordinates":[-6.649652,4.774103]},"properties":{"id":37405,"nom":"HART SECURITY","type":"agence de securité","district_region":null,"departement_commune":null,"verifie":true,"name":"HART SECURITY","source":"Géoportail ANSTAT"}},{"type":"Feature","geometry":{"type":"Point","coordinates":[-7.538057,7.410908]},"properties":{"id":37645,"nom":"MAMBA SECURITE","type":"agence de securité","district_region":null,"departement_commune":null,"verifie":true,"name":"MAMBA SECURITE","source":"Géoportail ANSTAT"}},{"type":"Feature","geometry":{"type":"Point","coordinates":[-5.280582,6.815718]},"properties":{"id":37649,"nom":"SOCIETE DE GARDIENNAGE","type":"agence de securité","district_region":null,"departement_commune":null,"verifie":true,"name":"SOCIETE DE GARDIENNAGE","source":"Géoportail ANSTAT"}},{"type":"Feature","geometry":{"type":"Point","coordinates":[-2.812668,8.021175]},"properties":{"id":37709,"nom":"MORO KOUA SECURITE MK SECURITE","type":"agence de securité","district_region":null,"departement_commune":null,"verifie":true,"name":"MORO KOUA SECURITE MK SECURITE","source":"Géoportail ANSTAT"}},{"type":"Feature","geometry":{"type":"Point","coordinates":[-7.563362,9.511677]},"properties":{"id":37725,"nom":"MOSA  SECURITE SARL","type":"agence de securité","district_region":null,"departement_commune":null,"verifie":true,"name":"MOSA  SECURITE SARL","source":"Géoportail ANSTAT"}},{"type":"Feature","geometry":{"type":"Point","coordinates":[-3.746583,5.209089]},"properties":{"id":37895,"nom":"ONE GAME SECURITE","type":"agence de securité","district_region":null,"departement_commune":null,"verifie":true,"name":"ONE GAME SECURITE","source":"Géoportail ANSTAT"}},{"type":"Feature","geometry":{"type":"Point","coordinates":[-3.85485,5.228218]},"properties":{"id":38667,"nom":"S PR SECURITE","type":"agence de securité","district_region":null,"departement_commune":null,"verifie":true,"name":"S PR SECURITE","source":"Géoportail ANSTAT"}},{"type":"Feature","geometry":{"type":"Point","coordinates":[-5.195774,9.59818]},"properties":{"id":39246,"nom":"VIGASSISTANCE","type":"agence de securité","district_region":null,"departement_commune":null,"verifie":true,"name":"VIGASSISTANCE","source":"Géoportail ANSTAT"}},{"type":"Feature","geometry":{"type":"Point","coordinates":[-5.629403,9.446296]},"properties":{"id":39248,"nom":"WEST AFRICA SECURITY","type":"agence de securité","district_region":null,"departement_commune":null,"verifie":true,"name":"WEST AFRICA SECURITY","source":"Géoportail ANSTAT"}},{"type":"Feature","geometry":{"type":"Point","coordinates":[-3.967901,5.396958]},"properties":{"id":39273,"nom":"BIP ASSISTANCE","type":"agence de securité","district_region":null,"departement_commune":null,"verifie":true,"name":"BIP ASSISTANCE","source":"Géoportail ANSTAT"}},{"type":"Feature","geometry":{"type":"Point","coordinates":[-3.99723,5.357702]},"properties":{"id":39343,"nom":"BID ASSISTANCE","type":"agence de securité","district_region":null,"departement_commune":null,"verifie":true,"name":"BID ASSISTANCE","source":"Géoportail ANSTAT"}},{"type":"Feature","geometry":{"type":"Point","coordinates":[-3.989582,5.364076]},"properties":{"id":39405,"nom":"ACHANGE MICHEL SECURITE","type":"agence de securité","district_region":null,"departement_commune":null,"verifie":true,"name":"ACHANGE MICHEL SECURITE","source":"Géoportail ANSTAT"}},{"type":"Feature","geometry":{"type":"Point","coordinates":[-3.997736,5.313178]},"properties":{"id":39569,"nom":"911 SECURITY","type":"agence de securité","district_region":null,"departement_commune":null,"verifie":true,"name":"911 SECURITY","source":"Géoportail ANSTAT"}},{"type":"Feature","geometry":{"type":"Point","coordinates":[-3.977637,5.282666]},"properties":{"id":39578,"nom":"991 SECURITY","type":"agence de securité","district_region":null,"departement_commune":null,"verifie":true,"name":"991 SECURITY","source":"Géoportail ANSTAT"}},{"type":"Feature","geometry":{"type":"Point","coordinates":[-4.004592,5.314671]},"properties":{"id":39825,"nom":"CISCSECURITE","type":"agence de securité","district_region":null,"departement_commune":null,"verifie":true,"name":"CISCSECURITE","source":"Géoportail ANSTAT"}},{"type":"Feature","geometry":{"type":"Point","coordinates":[-3.991357,5.372971]},"properties":{"id":39874,"nom":"G4S","type":"agence de securité","district_region":null,"departement_commune":null,"verifie":true,"name":"G4S","source":"Géoportail ANSTAT"}},{"type":"Feature","geometry":{"type":"Point","coordinates":[-3.962134,5.367114]},"properties":{"id":39882,"nom":"FAC SECURITE","type":"agence de securité","district_region":null,"departement_commune":null,"verifie":true,"name":"FAC SECURITE","source":"Géoportail ANSTAT"}},{"type":"Feature","geometry":{"type":"Point","coordinates":[-3.950952,5.376101]},"properties":{"id":39883,"nom":"FAC SECURITE","type":"agence de securité","district_region":null,"departement_commune":null,"verifie":true,"name":"FAC SECURITE","source":"Géoportail ANSTAT"}},{"type":"Feature","geometry":{"type":"Point","coordinates":[-3.98129,5.276977]},"properties":{"id":39957,"nom":"G4S","type":"agence de securité","district_region":null,"departement_commune":null,"verifie":true,"name":"G4S","source":"Géoportail ANSTAT"}},{"type":"Feature","geometry":{"type":"Point","coordinates":[-3.978514,5.285776]},"properties":{"id":40033,"nom":"LOSS CONTROL CI SECURITE","type":"agence de securité","district_region":null,"departement_commune":null,"verifie":true,"name":"LOSS CONTROL CI SECURITE","source":"Géoportail ANSTAT"}},{"type":"Feature","geometry":{"type":"Point","coordinates":[-4.016787,5.306565]},"properties":{"id":40042,"nom":"HIGH STAR SECURITY","type":"agence de securité","district_region":null,"departement_commune":null,"verifie":true,"name":"HIGH STAR SECURITY","source":"Géoportail ANSTAT"}},{"type":"Feature","geometry":{"type":"Point","coordinates":[-3.960161,5.286991]},"properties":{"id":40047,"nom":"KFG SECURITE","type":"agence de securité","district_region":null,"departement_commune":null,"verifie":true,"name":"KFG SECURITE","source":"Géoportail ANSTAT"}},{"type":"Feature","geometry":{"type":"Point","coordinates":[-4.004443,5.343053]},"properties":{"id":40105,"nom":"ONE SECURITY","type":"agence de securité","district_region":null,"departement_commune":null,"verifie":true,"name":"ONE SECURITY","source":"Géoportail ANSTAT"}},{"type":"Feature","geometry":{"type":"Point","coordinates":[-4.011199,5.340625]},"properties":{"id":40109,"nom":"MEGAS FORCE SECURITE","type":"agence de securité","district_region":null,"departement_commune":null,"verifie":true,"name":"MEGAS FORCE SECURITE","source":"Géoportail ANSTAT"}},{"type":"Feature","geometry":{"type":"Point","coordinates":[-4.079313,5.324439]},"properties":{"id":40214,"nom":"NATIONAL COUL INTERVENTION SECURITE NCIS","type":"agence de securité","district_region":null,"departement_commune":null,"verifie":true,"name":"NATIONAL COUL INTERVENTION SECURITE NCIS","source":"Géoportail ANSTAT"}},{"type":"Feature","geometry":{"type":"Point","coordinates":[-3.991643,5.308148]},"properties":{"id":40287,"nom":"MARSHALL SECURITE","type":"agence de securité","district_region":null,"departement_commune":null,"verifie":true,"name":"MARSHALL SECURITE","source":"Géoportail ANSTAT"}},{"type":"Feature","geometry":{"type":"Point","coordinates":[-3.968449,5.280248]},"properties":{"id":40367,"nom":"NBIG SECURITE","type":"agence de securité","district_region":null,"departement_commune":null,"verifie":true,"name":"NBIG SECURITE","source":"Géoportail ANSTAT"}},{"type":"Feature","geometry":{"type":"Point","coordinates":[-3.958325,5.378523]},"properties":{"id":40406,"nom":"SIEGE BIP SUN SECURITE","type":"agence de securité","district_region":null,"departement_commune":null,"verifie":true,"name":"SIEGE BIP SUN SECURITE","source":"Géoportail ANSTAT"}},{"type":"Feature","geometry":{"type":"Point","coordinates":[-3.93213,5.36677]},"properties":{"id":40430,"nom":"SECURITY DAYS","type":"agence de securité","district_region":null,"departement_commune":null,"verifie":true,"name":"SECURITY DAYS","source":"Géoportail ANSTAT"}},{"type":"Feature","geometry":{"type":"Point","coordinates":[-3.991412,5.347856]},"properties":{"id":40446,"nom":"SOCITE DE GARDIENNAGE","type":"agence de securité","district_region":null,"departement_commune":null,"verifie":true,"name":"SOCITE DE GARDIENNAGE","source":"Géoportail ANSTAT"}},{"type":"Feature","geometry":{"type":"Point","coordinates":[-3.962857,5.35464]},"properties":{"id":40455,"nom":"PREVENTOR SECURITE","type":"agence de securité","district_region":null,"departement_commune":null,"verifie":true,"name":"PREVENTOR SECURITE","source":"Géoportail ANSTAT"}},{"type":"Feature","geometry":{"type":"Point","coordinates":[-4.057492,5.312493]},"properties":{"id":40469,"nom":"SOCIETE DE GARDIENNAGE","type":"agence de securité","district_region":null,"departement_commune":null,"verifie":true,"name":"SOCIETE DE GARDIENNAGE","source":"Géoportail ANSTAT"}},{"type":"Feature","geometry":{"type":"Point","coordinates":[-4.07031,5.326313]},"properties":{"id":40493,"nom":"SAGA SECURITE","type":"agence de securité","district_region":null,"departement_commune":null,"verifie":true,"name":"SAGA SECURITE","source":"Géoportail ANSTAT"}},{"type":"Feature","geometry":{"type":"Point","coordinates":[-4.024787,5.354334]},"properties":{"id":40522,"nom":"SECURITE BLACK MARKET","type":"agence de securité","district_region":null,"departement_commune":null,"verifie":true,"name":"SECURITE BLACK MARKET","source":"Géoportail ANSTAT"}},{"type":"Feature","geometry":{"type":"Point","coordinates":[-4.023746,5.322311]},"properties":{"id":40530,"nom":"SERVICE SECURITE ET SECOURS PROFESSIONNELS","type":"agence de securité","district_region":null,"departement_commune":null,"verifie":true,"name":"SERVICE SECURITE ET SECOURS PROFESSIONNELS","source":"Géoportail ANSTAT"}},{"type":"Feature","geometry":{"type":"Point","coordinates":[-4.02309,5.337029]},"properties":{"id":40544,"nom":"PRIJET DAPPUIE AA LA SECURITE URBAINE","type":"agence de securité","district_region":null,"departement_commune":null,"verifie":true,"name":"PRIJET DAPPUIE AA LA SECURITE URBAINE","source":"Géoportail ANSTAT"}},{"type":"Feature","geometry":{"type":"Point","coordinates":[-3.971134,5.285495]},"properties":{"id":40547,"nom":"S S SECURITE","type":"agence de securité","district_region":null,"departement_commune":null,"verifie":true,"name":"S S SECURITE","source":"Géoportail ANSTAT"}},{"type":"Feature","geometry":{"type":"Point","coordinates":[-4.024047,5.303904]},"properties":{"id":40556,"nom":"POSTE SECURITE","type":"agence de securité","district_region":null,"departement_commune":null,"verifie":true,"name":"POSTE SECURITE","source":"Géoportail ANSTAT"}},{"type":"Feature","geometry":{"type":"Point","coordinates":[-3.996071,5.310959]},"properties":{"id":40634,"nom":"VIGASSISTANCE","type":"agence de securité","district_region":null,"departement_commune":null,"verifie":true,"name":"VIGASSISTANCE","source":"Géoportail ANSTAT"}},{"type":"Feature","geometry":{"type":"Point","coordinates":[-3.947611,5.30395]},"properties":{"id":40654,"nom":"UNIPREST SECURITE","type":"agence de securité","district_region":null,"departement_commune":null,"verifie":true,"name":"UNIPREST SECURITE","source":"Géoportail ANSTAT"}}],"metadata":{"dataset":"Agence de securité — ANSTAT","source":"Géoportail ANSTAT","theme":"Sécurité","verified":true,"apercu":"complet"}}