{"type":"FeatureCollection","features":[{"type":"Feature","geometry":{"type":"Point","coordinates":[-5.259102999999925,6.808066000000053]},"properties":{"id":36085,"nom":"CONSULAT HONORAIRE DU BENIN","type":"consulat","district_region":null,"departement_commune":null,"verifie":true,"name":"CONSULAT HONORAIRE DU BENIN","source":"Géoportail ANSTAT"}},{"type":"Feature","geometry":{"type":"Point","coordinates":[-3.204602999999963,7.129135000000076]},"properties":{"id":36371,"nom":"BUREAU CONSULAT DU MALI","type":"consulat","district_region":null,"departement_commune":null,"verifie":true,"name":"BUREAU CONSULAT DU MALI","source":"Géoportail ANSTAT"}},{"type":"Feature","geometry":{"type":"Point","coordinates":[-3.029334999999946,5.414940000000058]},"properties":{"id":36386,"nom":"BUREAU CONSULAIRE DU BURKINA FASO DE MAFERE","type":"consulat","district_region":null,"departement_commune":null,"verifie":true,"name":"BUREAU CONSULAIRE DU BURKINA FASO DE MAFERE","source":"Géoportail ANSTAT"}},{"type":"Feature","geometry":{"type":"Point","coordinates":[-7.086003999999946,4.676653000000044]},"properties":{"id":36566,"nom":"CONSULAT HONORAIRE DU BURKINA FASO SOUBRE ZONE SOGB","type":"consulat","district_region":null,"departement_commune":null,"verifie":true,"name":"CONSULAT HONORAIRE DU BURKINA FASO SOUBRE ZONE SOGB","source":"Géoportail ANSTAT"}},{"type":"Feature","geometry":{"type":"Point","coordinates":[-5.618839999999977,9.466890000000037]},"properties":{"id":36568,"nom":"CONSULAT HONORAIRE DU BENIN","type":"consulat","district_region":null,"departement_commune":null,"verifie":true,"name":"CONSULAT HONORAIRE DU BENIN","source":"Géoportail ANSTAT"}},{"type":"Feature","geometry":{"type":"Point","coordinates":[-6.592231999999967,5.791193000000021]},"properties":{"id":36573,"nom":"CONSULAT HONORAIRE DU BURKINA FASO","type":"consulat","district_region":null,"departement_commune":null,"verifie":true,"name":"CONSULAT HONORAIRE DU BURKINA FASO","source":"Géoportail ANSTAT"}},{"type":"Feature","geometry":{"type":"Point","coordinates":[-6.17448399999995,6.24025400000005]},"properties":{"id":36583,"nom":"CONSULAT DE BURKINA","type":"consulat","district_region":null,"departement_commune":null,"verifie":true,"name":"CONSULAT DE BURKINA","source":"Géoportail ANSTAT"}},{"type":"Feature","geometry":{"type":"Point","coordinates":[-5.026288999999963,7.694732000000045]},"properties":{"id":36605,"nom":"CONSULAT DU BURKINA FASO","type":"consulat","district_region":null,"departement_commune":null,"verifie":true,"name":"CONSULAT DU BURKINA FASO","source":"Géoportail ANSTAT"}},{"type":"Feature","geometry":{"type":"Point","coordinates":[-5.000145999999972,7.687688000000037]},"properties":{"id":36606,"nom":"CONSULAT DU MALI","type":"consulat","district_region":null,"departement_commune":null,"verifie":true,"name":"CONSULAT DU MALI","source":"Géoportail ANSTAT"}},{"type":"Feature","geometry":{"type":"Point","coordinates":[-5.027833999999928,7.694720000000075]},"properties":{"id":36607,"nom":"CONSULAT GENERAL DU MALI","type":"consulat","district_region":null,"departement_commune":null,"verifie":true,"name":"CONSULAT GENERAL DU MALI","source":"Géoportail ANSTAT"}},{"type":"Feature","geometry":{"type":"Point","coordinates":[-7.488274999999931,6.210716000000048]},"properties":{"id":36615,"nom":"CONSULAT GENERAL DU BURKINA FASO","type":"consulat","district_region":null,"departement_commune":null,"verifie":true,"name":"CONSULAT GENERAL DU BURKINA FASO","source":"Géoportail ANSTAT"}},{"type":"Feature","geometry":{"type":"Point","coordinates":[-6.474005999999974,7.381988000000035]},"properties":{"id":36620,"nom":"CONSULAT GENERAL DE SOUBRE DELEGATION CONSULAIRE DE VAVOUA","type":"consulat","district_region":null,"departement_commune":null,"verifie":true,"name":"CONSULAT GENERAL DE SOUBRE DELEGATION CONSULAIRE DE VAVOUA","source":"Géoportail ANSTAT"}},{"type":"Feature","geometry":{"type":"Point","coordinates":[-6.444761999999969,6.900924000000032]},"properties":{"id":36622,"nom":"CONSULAT DU BURKINA  FASO","type":"consulat","district_region":null,"departement_commune":null,"verifie":true,"name":"CONSULAT DU BURKINA  FASO","source":"Géoportail ANSTAT"}},{"type":"Feature","geometry":{"type":"Point","coordinates":[-6.448067999999978,6.874742000000026]},"properties":{"id":36627,"nom":"CONSEIL SUPERIEUR DE LA DIAPORA MALIENNE EN COTE D IVOIRE","type":"consulat","district_region":null,"departement_commune":null,"verifie":true,"name":"CONSEIL SUPERIEUR DE LA DIAPORA MALIENNE EN COTE D IVOIRE","source":"Géoportail ANSTAT"}},{"type":"Feature","geometry":{"type":"Point","coordinates":[-3.506039999999928,6.725142000000062]},"properties":{"id":36647,"nom":"CONSULAT DU MALI","type":"consulat","district_region":null,"departement_commune":null,"verifie":true,"name":"CONSULAT DU MALI","source":"Géoportail ANSTAT"}},{"type":"Feature","geometry":{"type":"Point","coordinates":[-6.633194999999944,4.740179000000069]},"properties":{"id":36823,"nom":"CUSULT DE FRANCE","type":"consulat","district_region":null,"departement_commune":null,"verifie":true,"name":"CUSULT DE FRANCE","source":"Géoportail ANSTAT"}},{"type":"Feature","geometry":{"type":"Point","coordinates":[-6.923260999999968,4.651647000000025]},"properties":{"id":36824,"nom":"DELEGATION CONSULAIRE DU BURKINA FASO","type":"consulat","district_region":null,"departement_commune":null,"verifie":true,"name":"DELEGATION CONSULAIRE DU BURKINA FASO","source":"Géoportail ANSTAT"}},{"type":"Feature","geometry":{"type":"Point","coordinates":[-6.993333999999948,7.445438000000024]},"properties":{"id":38724,"nom":"SERVICE CONSULAIRE BURKINABE DE VAOU","type":"consulat","district_region":null,"departement_commune":null,"verifie":true,"name":"SERVICE CONSULAIRE BURKINABE DE VAOU","source":"Géoportail ANSTAT"}},{"type":"Feature","geometry":{"type":"Point","coordinates":[-3.996609999999976,5.359405000000038]},"properties":{"id":39703,"nom":"CONSULAT DE REPUBLIQUE TCHEQUE","type":"consulat","district_region":null,"departement_commune":null,"verifie":true,"name":"CONSULAT DE REPUBLIQUE TCHEQUE","source":"Géoportail ANSTAT"}},{"type":"Feature","geometry":{"type":"Point","coordinates":[-4.002321999999936,5.355542000000071]},"properties":{"id":39705,"nom":"CONSULAT GENERAL DU SENEGAL EN COTE D IVOIRE","type":"consulat","district_region":null,"departement_commune":null,"verifie":true,"name":"CONSULAT GENERAL DU SENEGAL EN COTE D IVOIRE","source":"Géoportail ANSTAT"}},{"type":"Feature","geometry":{"type":"Point","coordinates":[-3.998128999999949,5.332281000000023]},"properties":{"id":39713,"nom":"CONSULAT DE LA REPUBLIQUE DHAITI EN COTE DIVOIRE","type":"consulat","district_region":null,"departement_commune":null,"verifie":true,"name":"CONSULAT DE LA REPUBLIQUE DHAITI EN COTE DIVOIRE","source":"Géoportail ANSTAT"}},{"type":"Feature","geometry":{"type":"Point","coordinates":[-4.013663999999949,5.341195000000027]},"properties":{"id":39714,"nom":"CONSULAT HONORAIRE DU ROYAUME HACHEMITE DE JORDANIE COTE D IVOIRE","type":"consulat","district_region":null,"departement_commune":null,"verifie":true,"name":"CONSULAT HONORAIRE DU ROYAUME HACHEMITE DE JORDANIE COTE D IVOIRE","source":"Géoportail ANSTAT"}},{"type":"Feature","geometry":{"type":"Point","coordinates":[-3.992946999999958,5.361648000000059]},"properties":{"id":39720,"nom":"CONSULAT DU TOGO","type":"consulat","district_region":null,"departement_commune":null,"verifie":true,"name":"CONSULAT DU TOGO","source":"Géoportail ANSTAT"}},{"type":"Feature","geometry":{"type":"Point","coordinates":[-4.023446999999976,5.32393600000006]},"properties":{"id":39772,"nom":"CONSULAT GENERAL DU BURKINA FASO","type":"consulat","district_region":null,"departement_commune":null,"verifie":true,"name":"CONSULAT GENERAL DU BURKINA FASO","source":"Géoportail ANSTAT"}},{"type":"Feature","geometry":{"type":"Point","coordinates":[-3.996948999999972,5.312787000000071]},"properties":{"id":39796,"nom":"CONSULAT HONORAIRE DE LA REPUBLIQUE DE MADAGASCAR","type":"consulat","district_region":null,"departement_commune":null,"verifie":true,"name":"CONSULAT HONORAIRE DE LA REPUBLIQUE DE MADAGASCAR","source":"Géoportail ANSTAT"}},{"type":"Feature","geometry":{"type":"Point","coordinates":[-3.979341999999974,5.287959000000058]},"properties":{"id":39802,"nom":"CONSULAT DE SEBORGA","type":"consulat","district_region":null,"departement_commune":null,"verifie":true,"name":"CONSULAT DE SEBORGA","source":"Géoportail ANSTAT"}},{"type":"Feature","geometry":{"type":"Point","coordinates":[-4.00673299999994,5.329300000000046]},"properties":{"id":39995,"nom":"GRANDE CHANCELERIE DE LORDRE NATIONAL","type":"consulat","district_region":null,"departement_commune":null,"verifie":true,"name":"GRANDE CHANCELERIE DE LORDRE NATIONAL","source":"Géoportail ANSTAT"}},{"type":"Feature","geometry":{"type":"Point","coordinates":[-4.001025999999968,5.330690000000061]},"properties":{"id":40439,"nom":"RESIDENCE DU CONSUL GENERAL HONORAIRE DUKRAINE EN COTE DIVOIRE","type":"consulat","district_region":null,"departement_commune":null,"verifie":true,"name":"RESIDENCE DU CONSUL GENERAL HONORAIRE DUKRAINE EN COTE DIVOIRE","source":"Géoportail ANSTAT"}}],"metadata":{"dataset":"Consulat — ANSTAT","source":"Géoportail ANSTAT","theme":"Administration","verified":true,"apercu":"complet"}}