{"type":"FeatureCollection","features":[{"type":"Feature","geometry":{"type":"Point","coordinates":[-4.372343,5.31565]},"properties":{"id":36864,"nom":"DIRECTION COOPEC DE DABOU","type":"agence finance","district_region":null,"departement_commune":null,"verifie":true,"name":"DIRECTION COOPEC DE DABOU","source":"Géoportail ANSTAT"}},{"type":"Feature","geometry":{"type":"Point","coordinates":[-5.94026,6.13253]},"properties":{"id":36866,"nom":"DIRECTION REGIONALE DE LA COOPEC","type":"agence finance","district_region":null,"departement_commune":null,"verifie":true,"name":"DIRECTION REGIONALE DE LA COOPEC","source":"Géoportail ANSTAT"}},{"type":"Feature","geometry":{"type":"Point","coordinates":[-2.811585,8.032291]},"properties":{"id":36868,"nom":"DIRECTION DE LA COOPEC DE BONDOUKOU","type":"agence finance","district_region":null,"departement_commune":null,"verifie":true,"name":"DIRECTION DE LA COOPEC DE BONDOUKOU","source":"Géoportail ANSTAT"}},{"type":"Feature","geometry":{"type":"Point","coordinates":[-4.018337,5.325418]},"properties":{"id":40282,"nom":"MINISTERE DE L ECONOMIE ET DES FINANCES","type":"agence finance","district_region":null,"departement_commune":null,"verifie":true,"name":"MINISTERE DE L ECONOMIE ET DES FINANCES","source":"Géoportail ANSTAT"}},{"type":"Feature","geometry":{"type":"Point","coordinates":[-3.215159,5.465107]},"properties":{"id":36384,"nom":"BUREAU DES CONTROLE FINANCIER","type":"agence finance","district_region":null,"departement_commune":null,"verifie":true,"name":"BUREAU DES CONTROLE FINANCIER","source":"Géoportail ANSTAT"}},{"type":"Feature","geometry":{"type":"Point","coordinates":[-5.030272,6.561349]},"properties":{"id":36589,"nom":"CONTROLE FINANCIER","type":"agence finance","district_region":null,"departement_commune":null,"verifie":true,"name":"CONTROLE FINANCIER","source":"Géoportail ANSTAT"}},{"type":"Feature","geometry":{"type":"Point","coordinates":[-2.794588,8.041995]},"properties":{"id":36590,"nom":"CONTROLE FINANCIER DE BONDOUKOU","type":"agence finance","district_region":null,"departement_commune":null,"verifie":true,"name":"CONTROLE FINANCIER DE BONDOUKOU","source":"Géoportail ANSTAT"}},{"type":"Feature","geometry":{"type":"Point","coordinates":[-5.755854,6.992652]},"properties":{"id":36596,"nom":"CONTROL FINANCIER","type":"agence finance","district_region":null,"departement_commune":null,"verifie":true,"name":"CONTROL FINANCIER","source":"Géoportail ANSTAT"}},{"type":"Feature","geometry":{"type":"Point","coordinates":[-6.050693,7.431499]},"properties":{"id":36598,"nom":"CONTROLE FINANCIER","type":"agence finance","district_region":null,"departement_commune":null,"verifie":true,"name":"CONTROLE FINANCIER","source":"Géoportail ANSTAT"}},{"type":"Feature","geometry":{"type":"Point","coordinates":[-3.484099,6.730372]},"properties":{"id":36648,"nom":"CONTROLE FINANCIER","type":"agence finance","district_region":null,"departement_commune":null,"verifie":true,"name":"CONTROLE FINANCIER","source":"Géoportail ANSTAT"}},{"type":"Feature","geometry":{"type":"Point","coordinates":[-3.864316,6.090561]},"properties":{"id":36654,"nom":"CONTROLE FINANCIER AUPRES DES DEPARTEMENTS DADZOPE AKOUPE ET YAKASSE ATTOBROU","type":"agence finance","district_region":null,"departement_commune":null,"verifie":true,"name":"CONTROLE FINANCIER AUPRES DES DEPARTEMENTS DADZOPE AKOUPE ET YAKASSE ATTOBROU","source":"Géoportail ANSTAT"}},{"type":"Feature","geometry":{"type":"Point","coordinates":[-3.97887,7.05207]},"properties":{"id":36672,"nom":"CONTROLE FINANCIER AUPRES DE LA REGION DE L IFFOU","type":"agence finance","district_region":null,"departement_commune":null,"verifie":true,"name":"CONTROLE FINANCIER AUPRES DE LA REGION DE L IFFOU","source":"Géoportail ANSTAT"}},{"type":"Feature","geometry":{"type":"Point","coordinates":[-6.607815,5.784317]},"properties":{"id":36804,"nom":"CONTROLE FINANCIER","type":"agence finance","district_region":null,"departement_commune":null,"verifie":true,"name":"CONTROLE FINANCIER","source":"Géoportail ANSTAT"}},{"type":"Feature","geometry":{"type":"Point","coordinates":[-7.571956,9.505576]},"properties":{"id":36879,"nom":"DIERCTION CONTROLE FINANCIER ODIENNE  MINIGNAN","type":"agence finance","district_region":null,"departement_commune":null,"verifie":true,"name":"DIERCTION CONTROLE FINANCIER ODIENNE  MINIGNAN","source":"Géoportail ANSTAT"}},{"type":"Feature","geometry":{"type":"Point","coordinates":[-6.461011,9.52747]},"properties":{"id":36928,"nom":"DU CONTROLE FINANCIER","type":"agence finance","district_region":null,"departement_commune":null,"verifie":true,"name":"DU CONTROLE FINANCIER","source":"Géoportail ANSTAT"}},{"type":"Feature","geometry":{"type":"Point","coordinates":[-6.53371,5.259122]},"properties":{"id":36994,"nom":"FONDS COOPERATIF RURAL","type":"agence finance","district_region":null,"departement_commune":null,"verifie":true,"name":"FONDS COOPERATIF RURAL","source":"Géoportail ANSTAT"}},{"type":"Feature","geometry":{"type":"Point","coordinates":[-6.445975,6.88344]},"properties":{"id":36996,"nom":"FONDS DE DEVELOPPEMENT DE LA FORMATION PROFESSIONNELLE  FDFP DALOA","type":"agence finance","district_region":null,"departement_commune":null,"verifie":true,"name":"FONDS DE DEVELOPPEMENT DE LA FORMATION PROFESSIONNELLE  FDFP DALOA","source":"Géoportail ANSTAT"}},{"type":"Feature","geometry":{"type":"Point","coordinates":[-3.489682,6.739526]},"properties":{"id":36997,"nom":"FINANCE IMPOTS TRESOR MARCHE PUBLIQUE SOLDE","type":"agence finance","district_region":null,"departement_commune":null,"verifie":true,"name":"FINANCE IMPOTS TRESOR MARCHE PUBLIQUE SOLDE","source":"Géoportail ANSTAT"}},{"type":"Feature","geometry":{"type":"Point","coordinates":[-5.91787,8.44662]},"properties":{"id":36998,"nom":"FONDS LOCAL D EPARGNE ET DE CREDIT","type":"agence finance","district_region":null,"departement_commune":null,"verifie":true,"name":"FONDS LOCAL D EPARGNE ET DE CREDIT","source":"Géoportail ANSTAT"}},{"type":"Feature","geometry":{"type":"Point","coordinates":[-3.970592,6.677969]},"properties":{"id":37502,"nom":"MAIRIE  D ARRAH  SECRETARIAT GENERAL  ET DIRECTION FINANCIERE","type":"agence finance","district_region":null,"departement_commune":null,"verifie":true,"name":"MAIRIE  D ARRAH  SECRETARIAT GENERAL  ET DIRECTION FINANCIERE","source":"Géoportail ANSTAT"}},{"type":"Feature","geometry":{"type":"Point","coordinates":[-6.098887,4.944502]},"properties":{"id":37674,"nom":"MINISTERE DU CONTROL FINANCIER","type":"agence finance","district_region":null,"departement_commune":null,"verifie":true,"name":"MINISTERE DU CONTROL FINANCIER","source":"Géoportail ANSTAT"}},{"type":"Feature","geometry":{"type":"Point","coordinates":[-4.060007,5.495498]},"properties":{"id":39673,"nom":"BUREAU CONTROL FINANCIER","type":"agence finance","district_region":null,"departement_commune":null,"verifie":true,"name":"BUREAU CONTROL FINANCIER","source":"Géoportail ANSTAT"}},{"type":"Feature","geometry":{"type":"Point","coordinates":[-3.988563,5.394208]},"properties":{"id":39686,"nom":"CONTROLE FINANCIER","type":"agence finance","district_region":null,"departement_commune":null,"verifie":true,"name":"CONTROLE FINANCIER","source":"Géoportail ANSTAT"}},{"type":"Feature","geometry":{"type":"Point","coordinates":[-4.020377,5.327662]},"properties":{"id":39788,"nom":"DIRECTION DES AFFAIRES FINANCIERES ET DU PATRIMOINE","type":"agence finance","district_region":null,"departement_commune":null,"verifie":true,"name":"DIRECTION DES AFFAIRES FINANCIERES ET DU PATRIMOINE","source":"Géoportail ANSTAT"}}],"metadata":{"dataset":"Agence finance — ANSTAT","source":"Géoportail ANSTAT","theme":"Finance","verified":true,"apercu":"complet"}}