{"type":"FeatureCollection","features":[{"type":"Feature","geometry":{"type":"Point","coordinates":[-2.990580999999963,9.270643000000064]},"properties":{"id":36047,"nom":"ANCIENNE GENDARMERIE","type":"poste de gendarmerie","district_region":null,"departement_commune":null,"verifie":true,"name":"ANCIENNE GENDARMERIE","source":"Géoportail ANSTAT"}},{"type":"Feature","geometry":{"type":"Point","coordinates":[-5.481129999999951,7.00356400000004]},"properties":{"id":36551,"nom":"GENDARMERIE DE KOSSOU","type":"poste de gendarmerie","district_region":null,"departement_commune":null,"verifie":true,"name":"GENDARMERIE DE KOSSOU","source":"Géoportail ANSTAT"}},{"type":"Feature","geometry":{"type":"Point","coordinates":[-5.269276999999931,6.815012000000024]},"properties":{"id":36942,"nom":"GENDARMERIE","type":"poste de gendarmerie","district_region":null,"departement_commune":null,"verifie":true,"name":"GENDARMERIE","source":"Géoportail ANSTAT"}},{"type":"Feature","geometry":{"type":"Point","coordinates":[-7.054975999999954,4.946778000000052]},"properties":{"id":37018,"nom":"GENDAMERIE","type":"poste de gendarmerie","district_region":null,"departement_commune":null,"verifie":true,"name":"GENDAMERIE","source":"Géoportail ANSTAT"}},{"type":"Feature","geometry":{"type":"Point","coordinates":[-7.355174999999974,4.41802000000007]},"properties":{"id":37024,"nom":"GENDARMERIE","type":"poste de gendarmerie","district_region":null,"departement_commune":null,"verifie":true,"name":"GENDARMERIE","source":"Géoportail ANSTAT"}},{"type":"Feature","geometry":{"type":"Point","coordinates":[-5.654353999999955,9.603803000000028]},"properties":{"id":37030,"nom":"GENDARMERIE","type":"poste de gendarmerie","district_region":null,"departement_commune":null,"verifie":true,"name":"GENDARMERIE","source":"Géoportail ANSTAT"}},{"type":"Feature","geometry":{"type":"Point","coordinates":[-6.595461999999941,5.784065000000055]},"properties":{"id":37043,"nom":"GENDARMERIE","type":"poste de gendarmerie","district_region":null,"departement_commune":null,"verifie":true,"name":"GENDARMERIE","source":"Géoportail ANSTAT"}},{"type":"Feature","geometry":{"type":"Point","coordinates":[-3.985195999999974,6.972590000000025]},"properties":{"id":37054,"nom":"GENDARMERIE","type":"poste de gendarmerie","district_region":null,"departement_commune":null,"verifie":true,"name":"GENDARMERIE","source":"Géoportail ANSTAT"}},{"type":"Feature","geometry":{"type":"Point","coordinates":[-3.985853999999961,6.97184900000002]},"properties":{"id":37055,"nom":"GENDARMERIE","type":"poste de gendarmerie","district_region":null,"departement_commune":null,"verifie":true,"name":"GENDARMERIE","source":"Géoportail ANSTAT"}},{"type":"Feature","geometry":{"type":"Point","coordinates":[-4.85826499999996,5.517991000000052]},"properties":{"id":37071,"nom":"GENDARMERIE D AHOUANOU","type":"poste de gendarmerie","district_region":null,"departement_commune":null,"verifie":true,"name":"GENDARMERIE D AHOUANOU","source":"Géoportail ANSTAT"}},{"type":"Feature","geometry":{"type":"Point","coordinates":[-5.004626999999971,5.259967000000074]},"properties":{"id":37078,"nom":"GENDAMERIE GRAND LAHOU","type":"poste de gendarmerie","district_region":null,"departement_commune":null,"verifie":true,"name":"GENDAMERIE GRAND LAHOU","source":"Géoportail ANSTAT"}},{"type":"Feature","geometry":{"type":"Point","coordinates":[-4.370832999999948,5.324403000000075]},"properties":{"id":37079,"nom":"GENDARMERIE DE DABOU","type":"poste de gendarmerie","district_region":null,"departement_commune":null,"verifie":true,"name":"GENDARMERIE DE DABOU","source":"Géoportail ANSTAT"}},{"type":"Feature","geometry":{"type":"Point","coordinates":[-5.936463999999944,6.328413000000069]},"properties":{"id":37090,"nom":"GENDARMERIE DE DIGBEHUIE","type":"poste de gendarmerie","district_region":null,"departement_commune":null,"verifie":true,"name":"GENDARMERIE DE DIGBEHUIE","source":"Géoportail ANSTAT"}},{"type":"Feature","geometry":{"type":"Point","coordinates":[-5.426420999999948,6.383219000000054]},"properties":{"id":37092,"nom":"GENDARMERIE D OUME","type":"poste de gendarmerie","district_region":null,"departement_commune":null,"verifie":true,"name":"GENDARMERIE D OUME","source":"Géoportail ANSTAT"}},{"type":"Feature","geometry":{"type":"Point","coordinates":[-5.113430999999935,6.475611000000072]},"properties":{"id":37103,"nom":"GENDARMERIE DE DJEKANOU","type":"poste de gendarmerie","district_region":null,"departement_commune":null,"verifie":true,"name":"GENDARMERIE DE DJEKANOU","source":"Géoportail ANSTAT"}},{"type":"Feature","geometry":{"type":"Point","coordinates":[-5.224840999999969,7.152408000000037]},"properties":{"id":37107,"nom":"GENDARMERIE","type":"poste de gendarmerie","district_region":null,"departement_commune":null,"verifie":true,"name":"GENDARMERIE","source":"Géoportail ANSTAT"}},{"type":"Feature","geometry":{"type":"Point","coordinates":[-4.900473999999974,7.126953000000071]},"properties":{"id":37109,"nom":"GENDAMERIE DE DIDIEVI","type":"poste de gendarmerie","district_region":null,"departement_commune":null,"verifie":true,"name":"GENDAMERIE DE DIDIEVI","source":"Géoportail ANSTAT"}},{"type":"Feature","geometry":{"type":"Point","coordinates":[-2.963813999999957,8.279269000000056]},"properties":{"id":37117,"nom":"GENDARMERIE DE LAOUDI BA","type":"poste de gendarmerie","district_region":null,"departement_commune":null,"verifie":true,"name":"GENDARMERIE DE LAOUDI BA","source":"Géoportail ANSTAT"}},{"type":"Feature","geometry":{"type":"Point","coordinates":[-6.543124999999975,8.120133000000067]},"properties":{"id":37132,"nom":"GENDARMERIE DE DUALLA","type":"poste de gendarmerie","district_region":null,"departement_commune":null,"verifie":true,"name":"GENDARMERIE DE DUALLA","source":"Géoportail ANSTAT"}},{"type":"Feature","geometry":{"type":"Point","coordinates":[-6.050472999999954,6.617928000000063]},"properties":{"id":37134,"nom":"GENDARMERIE DE KOUETINFLA","type":"poste de gendarmerie","district_region":null,"departement_commune":null,"verifie":true,"name":"GENDARMERIE DE KOUETINFLA","source":"Géoportail ANSTAT"}},{"type":"Feature","geometry":{"type":"Point","coordinates":[-6.052611999999954,6.925552000000039]},"properties":{"id":37136,"nom":"GENDARMERIE","type":"poste de gendarmerie","district_region":null,"departement_commune":null,"verifie":true,"name":"GENDARMERIE","source":"Géoportail ANSTAT"}},{"type":"Feature","geometry":{"type":"Point","coordinates":[-5.75264199999998,6.984487000000058]},"properties":{"id":37137,"nom":"GENDARMERIE","type":"poste de gendarmerie","district_region":null,"departement_commune":null,"verifie":true,"name":"GENDARMERIE","source":"Géoportail ANSTAT"}},{"type":"Feature","geometry":{"type":"Point","coordinates":[-5.070152999999948,7.522226000000046]},"properties":{"id":37157,"nom":"GENDARMERIE","type":"poste de gendarmerie","district_region":null,"departement_commune":null,"verifie":true,"name":"GENDARMERIE","source":"Géoportail ANSTAT"}},{"type":"Feature","geometry":{"type":"Point","coordinates":[-4.723572999999931,6.657659000000024]},"properties":{"id":37168,"nom":"GENDAMERIE NATIONALE","type":"poste de gendarmerie","district_region":null,"departement_commune":null,"verifie":true,"name":"GENDAMERIE NATIONALE","source":"Géoportail ANSTAT"}},{"type":"Feature","geometry":{"type":"Point","coordinates":[-7.502026999999941,6.546478000000036]},"properties":{"id":37171,"nom":"GENDAMERIE NATIONAL DE GUIGLO","type":"poste de gendarmerie","district_region":null,"departement_commune":null,"verifie":true,"name":"GENDAMERIE NATIONAL DE GUIGLO","source":"Géoportail ANSTAT"}},{"type":"Feature","geometry":{"type":"Point","coordinates":[-7.711679999999944,6.568039000000056]},"properties":{"id":37172,"nom":"GENDARMERIE DE KAADE","type":"poste de gendarmerie","district_region":null,"departement_commune":null,"verifie":true,"name":"GENDARMERIE DE KAADE","source":"Géoportail ANSTAT"}},{"type":"Feature","geometry":{"type":"Point","coordinates":[-6.585061999999937,6.758056000000067]},"properties":{"id":37182,"nom":"GENDARMERIE DE LA SOUS PREFECTURE DE GBOGUHE","type":"poste de gendarmerie","district_region":null,"departement_commune":null,"verifie":true,"name":"GENDARMERIE DE LA SOUS PREFECTURE DE GBOGUHE","source":"Géoportail ANSTAT"}},{"type":"Feature","geometry":{"type":"Point","coordinates":[-6.229694999999936,6.385074000000031]},"properties":{"id":37183,"nom":"GENDARMERIE DE NAHIO","type":"poste de gendarmerie","district_region":null,"departement_commune":null,"verifie":true,"name":"GENDARMERIE DE NAHIO","source":"Géoportail ANSTAT"}},{"type":"Feature","geometry":{"type":"Point","coordinates":[-4.824698999999953,6.014250000000061]},"properties":{"id":37188,"nom":"GENDARMERIE","type":"poste de gendarmerie","district_region":null,"departement_commune":null,"verifie":true,"name":"GENDARMERIE","source":"Géoportail ANSTAT"}},{"type":"Feature","geometry":{"type":"Point","coordinates":[-5.682960999999978,5.852865000000065]},"properties":{"id":37210,"nom":"GENDAMERIE NATIONALE","type":"poste de gendarmerie","district_region":null,"departement_commune":null,"verifie":true,"name":"GENDAMERIE NATIONALE","source":"Géoportail ANSTAT"}},{"type":"Feature","geometry":{"type":"Point","coordinates":[-5.362297999999953,5.838913000000048]},"properties":{"id":37224,"nom":"GENDAMERIE NATIONALE","type":"poste de gendarmerie","district_region":null,"departement_commune":null,"verifie":true,"name":"GENDAMERIE NATIONALE","source":"Géoportail ANSTAT"}},{"type":"Feature","geometry":{"type":"Point","coordinates":[-5.30216699999994,6.058072000000038]},"properties":{"id":37225,"nom":"GENDARMERIE","type":"poste de gendarmerie","district_region":null,"departement_commune":null,"verifie":true,"name":"GENDARMERIE","source":"Géoportail ANSTAT"}},{"type":"Feature","geometry":{"type":"Point","coordinates":[-6.216277999999932,9.825919000000056]},"properties":{"id":37228,"nom":"GENDARMERIE DE KASSERE","type":"poste de gendarmerie","district_region":null,"departement_commune":null,"verifie":true,"name":"GENDARMERIE DE KASSERE","source":"Géoportail ANSTAT"}},{"type":"Feature","geometry":{"type":"Point","coordinates":[-6.079314999999951,7.815603000000067]},"properties":{"id":37235,"nom":"GENDARMERIE DE KONGASSO","type":"poste de gendarmerie","district_region":null,"departement_commune":null,"verifie":true,"name":"GENDARMERIE DE KONGASSO","source":"Géoportail ANSTAT"}},{"type":"Feature","geometry":{"type":"Point","coordinates":[-7.564024999999958,9.812153000000023]},"properties":{"id":37249,"nom":"GENDARMERIE DE SAMATIGUILA","type":"poste de gendarmerie","district_region":null,"departement_commune":null,"verifie":true,"name":"GENDARMERIE DE SAMATIGUILA","source":"Géoportail ANSTAT"}},{"type":"Feature","geometry":{"type":"Point","coordinates":[-7.607636999999954,9.140637000000028]},"properties":{"id":37250,"nom":"GENDARMERIE","type":"poste de gendarmerie","district_region":null,"departement_commune":null,"verifie":true,"name":"GENDARMERIE","source":"Géoportail ANSTAT"}},{"type":"Feature","geometry":{"type":"Point","coordinates":[-3.661482999999976,5.501561000000038]},"properties":{"id":37251,"nom":"GENDARME ET POLICIE","type":"poste de gendarmerie","district_region":null,"departement_commune":null,"verifie":true,"name":"GENDARME ET POLICIE","source":"Géoportail ANSTAT"}},{"type":"Feature","geometry":{"type":"Point","coordinates":[-3.661660999999981,5.501264000000049]},"properties":{"id":37252,"nom":"GENDARMERIE D ALEPE","type":"poste de gendarmerie","district_region":null,"departement_commune":null,"verifie":true,"name":"GENDARMERIE D ALEPE","source":"Géoportail ANSTAT"}},{"type":"Feature","geometry":{"type":"Point","coordinates":[-3.762411999999927,6.565207000000044]},"properties":{"id":37254,"nom":"GENDARMERIE","type":"poste de gendarmerie","district_region":null,"departement_commune":null,"verifie":true,"name":"GENDARMERIE","source":"Géoportail ANSTAT"}},{"type":"Feature","geometry":{"type":"Point","coordinates":[-3.951651999999967,5.812427000000071]},"properties":{"id":37255,"nom":"GENDARMERIE","type":"poste de gendarmerie","district_region":null,"departement_commune":null,"verifie":true,"name":"GENDARMERIE","source":"Géoportail ANSTAT"}},{"type":"Feature","geometry":{"type":"Point","coordinates":[-3.547476999999958,5.510914000000071]},"properties":{"id":37261,"nom":"GENDARMERIE","type":"poste de gendarmerie","district_region":null,"departement_commune":null,"verifie":true,"name":"GENDARMERIE","source":"Géoportail ANSTAT"}},{"type":"Feature","geometry":{"type":"Point","coordinates":[-3.752154999999959,5.210132000000044]},"properties":{"id":37264,"nom":"GENDARMERIE","type":"poste de gendarmerie","district_region":null,"departement_commune":null,"verifie":true,"name":"GENDARMERIE","source":"Géoportail ANSTAT"}},{"type":"Feature","geometry":{"type":"Point","coordinates":[-5.302109999999971,9.300775000000044]},"properties":{"id":37277,"nom":"GENDARMERIE","type":"poste de gendarmerie","district_region":null,"departement_commune":null,"verifie":true,"name":"GENDARMERIE","source":"Géoportail ANSTAT"}},{"type":"Feature","geometry":{"type":"Point","coordinates":[-4.719143999999972,8.373622000000069]},"properties":{"id":37283,"nom":"GENDARMERIE","type":"poste de gendarmerie","district_region":null,"departement_commune":null,"verifie":true,"name":"GENDARMERIE","source":"Géoportail ANSTAT"}},{"type":"Feature","geometry":{"type":"Point","coordinates":[-4.427880999999957,8.35997100000003]},"properties":{"id":37286,"nom":"GENDARMERIE","type":"poste de gendarmerie","district_region":null,"departement_commune":null,"verifie":true,"name":"GENDARMERIE","source":"Géoportail ANSTAT"}},{"type":"Feature","geometry":{"type":"Point","coordinates":[-6.641352999999981,4.74632500000007]},"properties":{"id":37301,"nom":"GENDARMERIE DU LAC SAN PEDRO","type":"poste de gendarmerie","district_region":null,"departement_commune":null,"verifie":true,"name":"GENDARMERIE DU LAC SAN PEDRO","source":"Géoportail ANSTAT"}},{"type":"Feature","geometry":{"type":"Point","coordinates":[-5.645572999999956,9.456206000000066]},"properties":{"id":37302,"nom":"GENDARMERIE NATIONALE DE KOROGHO","type":"poste de gendarmerie","district_region":null,"departement_commune":null,"verifie":true,"name":"GENDARMERIE NATIONALE DE KOROGHO","source":"Géoportail ANSTAT"}},{"type":"Feature","geometry":{"type":"Point","coordinates":[-5.645559999999932,9.456273000000069]},"properties":{"id":37303,"nom":"GENDARMERIE NATIONNALE DE KOROGHO","type":"poste de gendarmerie","district_region":null,"departement_commune":null,"verifie":true,"name":"GENDARMERIE NATIONNALE DE KOROGHO","source":"Géoportail ANSTAT"}},{"type":"Feature","geometry":{"type":"Point","coordinates":[-6.601107999999954,5.78383800000006]},"properties":{"id":37305,"nom":"GENDARMERIE NATIONALE","type":"poste de gendarmerie","district_region":null,"departement_commune":null,"verifie":true,"name":"GENDARMERIE NATIONALE","source":"Géoportail ANSTAT"}},{"type":"Feature","geometry":{"type":"Point","coordinates":[-7.345711999999935,6.73867000000007]},"properties":{"id":37309,"nom":"GENDARMERIE NATIONALE DE DUEKOUE","type":"poste de gendarmerie","district_region":null,"departement_commune":null,"verifie":true,"name":"GENDARMERIE NATIONALE DE DUEKOUE","source":"Géoportail ANSTAT"}},{"type":"Feature","geometry":{"type":"Point","coordinates":[-5.004610999999954,5.259996000000058]},"properties":{"id":37310,"nom":"GENDARMERIE GRAND LAHOU","type":"poste de gendarmerie","district_region":null,"departement_commune":null,"verifie":true,"name":"GENDARMERIE GRAND LAHOU","source":"Géoportail ANSTAT"}},{"type":"Feature","geometry":{"type":"Point","coordinates":[-4.408604999999966,5.204429000000061]},"properties":{"id":37311,"nom":"GENDARMERIE NATIONALE DE JACQUEVILLE","type":"poste de gendarmerie","district_region":null,"departement_commune":null,"verifie":true,"name":"GENDARMERIE NATIONALE DE JACQUEVILLE","source":"Géoportail ANSTAT"}},{"type":"Feature","geometry":{"type":"Point","coordinates":[-6.294433999999967,6.00430700000004]},"properties":{"id":37312,"nom":"GENDARMERIE NATIONNAL DE GALEBRE","type":"poste de gendarmerie","district_region":null,"departement_commune":null,"verifie":true,"name":"GENDARMERIE NATIONNAL DE GALEBRE","source":"Géoportail ANSTAT"}},{"type":"Feature","geometry":{"type":"Point","coordinates":[-5.959806999999955,6.469340000000045]},"properties":{"id":37313,"nom":"GENDARMERIE DEUXIEME LEGION TERRITORIALE DE BAYOTA","type":"poste de gendarmerie","district_region":null,"departement_commune":null,"verifie":true,"name":"GENDARMERIE DEUXIEME LEGION TERRITORIALE DE BAYOTA","source":"Géoportail ANSTAT"}},{"type":"Feature","geometry":{"type":"Point","coordinates":[-5.837448999999935,5.966868000000034]},"properties":{"id":37314,"nom":"GENDARMERIE NATIONALE DE GNAGBODOUGNOA","type":"poste de gendarmerie","district_region":null,"departement_commune":null,"verifie":true,"name":"GENDARMERIE NATIONALE DE GNAGBODOUGNOA","source":"Géoportail ANSTAT"}},{"type":"Feature","geometry":{"type":"Point","coordinates":[-3.014967999999953,7.552294000000074]},"properties":{"id":37316,"nom":"GENDARMERIE DE TRANSUA","type":"poste de gendarmerie","district_region":null,"departement_commune":null,"verifie":true,"name":"GENDARMERIE DE TRANSUA","source":"Géoportail ANSTAT"}},{"type":"Feature","geometry":{"type":"Point","coordinates":[-6.92230799999993,7.985195000000033]},"properties":{"id":37317,"nom":"GENDARMERIE DE SIFIE","type":"poste de gendarmerie","district_region":null,"departement_commune":null,"verifie":true,"name":"GENDARMERIE DE SIFIE","source":"Géoportail ANSTAT"}},{"type":"Feature","geometry":{"type":"Point","coordinates":[-6.049486999999942,7.434183000000075]},"properties":{"id":37318,"nom":"GENDARMERIE DE ZUENOULA","type":"poste de gendarmerie","district_region":null,"departement_commune":null,"verifie":true,"name":"GENDARMERIE DE ZUENOULA","source":"Géoportail ANSTAT"}},{"type":"Feature","geometry":{"type":"Point","coordinates":[-6.213244999999972,7.474202000000048]},"properties":{"id":37319,"nom":"GENDARMERIE DE ZANZRA","type":"poste de gendarmerie","district_region":null,"departement_commune":null,"verifie":true,"name":"GENDARMERIE DE ZANZRA","source":"Géoportail ANSTAT"}},{"type":"Feature","geometry":{"type":"Point","coordinates":[-3.004137999999955,9.266625000000031]},"properties":{"id":37322,"nom":"GENDARMERIE NATIONALE","type":"poste de gendarmerie","district_region":null,"departement_commune":null,"verifie":true,"name":"GENDARMERIE NATIONALE","source":"Géoportail ANSTAT"}},{"type":"Feature","geometry":{"type":"Point","coordinates":[-8.416629999999941,6.579598000000033]},"properties":{"id":37323,"nom":"GENDARMERIE DE TOULEPLEU","type":"poste de gendarmerie","district_region":null,"departement_commune":null,"verifie":true,"name":"GENDARMERIE DE TOULEPLEU","source":"Géoportail ANSTAT"}},{"type":"Feature","geometry":{"type":"Point","coordinates":[-6.480531999999926,7.379870000000039]},"properties":{"id":37326,"nom":"GENDARMERIE NATIONALE DE VAVOUA","type":"poste de gendarmerie","district_region":null,"departement_commune":null,"verifie":true,"name":"GENDARMERIE NATIONALE DE VAVOUA","source":"Géoportail ANSTAT"}},{"type":"Feature","geometry":{"type":"Point","coordinates":[-6.311030999999957,7.154507000000024]},"properties":{"id":37327,"nom":"GENDARMERIE NATIONALE","type":"poste de gendarmerie","district_region":null,"departement_commune":null,"verifie":true,"name":"GENDARMERIE NATIONALE","source":"Géoportail ANSTAT"}},{"type":"Feature","geometry":{"type":"Point","coordinates":[-4.822109999999952,5.892950000000042]},"properties":{"id":37329,"nom":"GENDARMERIE NATIONALE DE TIASSALE","type":"poste de gendarmerie","district_region":null,"departement_commune":null,"verifie":true,"name":"GENDARMERIE NATIONALE DE TIASSALE","source":"Géoportail ANSTAT"}},{"type":"Feature","geometry":{"type":"Point","coordinates":[-4.308535999999947,6.07004500000005]},"properties":{"id":37331,"nom":"GENDARMERIE NATIONALE DE RUBINO","type":"poste de gendarmerie","district_region":null,"departement_commune":null,"verifie":true,"name":"GENDARMERIE NATIONALE DE RUBINO","source":"Géoportail ANSTAT"}},{"type":"Feature","geometry":{"type":"Point","coordinates":[-4.333552999999938,5.810905000000048]},"properties":{"id":37332,"nom":"GENDARMERIE LOBIGUIE","type":"poste de gendarmerie","district_region":null,"departement_commune":null,"verifie":true,"name":"GENDARMERIE LOBIGUIE","source":"Géoportail ANSTAT"}},{"type":"Feature","geometry":{"type":"Point","coordinates":[-5.703327999999942,6.06383900000003]},"properties":{"id":37333,"nom":"GENDARMERIE DE ZIKISSO","type":"poste de gendarmerie","district_region":null,"departement_commune":null,"verifie":true,"name":"GENDARMERIE DE ZIKISSO","source":"Géoportail ANSTAT"}},{"type":"Feature","geometry":{"type":"Point","coordinates":[-5.369412999999952,5.832744000000048]},"properties":{"id":37335,"nom":"GENDARMERIE NATIONAL PREMIERE LEGION GENDARMERIE TERRITORIALE","type":"poste de gendarmerie","district_region":null,"departement_commune":null,"verifie":true,"name":"GENDARMERIE NATIONAL PREMIERE LEGION GENDARMERIE TERRITORIALE","source":"Géoportail ANSTAT"}},{"type":"Feature","geometry":{"type":"Point","coordinates":[-6.247394999999926,9.907256000000077]},"properties":{"id":37336,"nom":"GENDARMERIE NATIONALE POSTE DE BAYA","type":"poste de gendarmerie","district_region":null,"departement_commune":null,"verifie":true,"name":"GENDARMERIE NATIONALE POSTE DE BAYA","source":"Géoportail ANSTAT"}},{"type":"Feature","geometry":{"type":"Point","coordinates":[-6.408812999999952,10.48691100000002]},"properties":{"id":37337,"nom":"GENDARMERIE NATIONALE  DE TENGRELA","type":"poste de gendarmerie","district_region":null,"departement_commune":null,"verifie":true,"name":"GENDARMERIE NATIONALE  DE TENGRELA","source":"Géoportail ANSTAT"}},{"type":"Feature","geometry":{"type":"Point","coordinates":[-6.190201999999942,8.061268000000041]},"properties":{"id":37338,"nom":"GENDARMERIE NATIONALE DE MANKONO","type":"poste de gendarmerie","district_region":null,"departement_commune":null,"verifie":true,"name":"GENDARMERIE NATIONALE DE MANKONO","source":"Géoportail ANSTAT"}},{"type":"Feature","geometry":{"type":"Point","coordinates":[-6.253142999999966,8.945647000000065]},"properties":{"id":37339,"nom":"GENDARMERIE NATIONALE DE DIANRA","type":"poste de gendarmerie","district_region":null,"departement_commune":null,"verifie":true,"name":"GENDARMERIE NATIONALE DE DIANRA","source":"Géoportail ANSTAT"}},{"type":"Feature","geometry":{"type":"Point","coordinates":[-7.834441999999967,9.993661000000031]},"properties":{"id":37340,"nom":"GENDARMERIE NATIONALE DE MINIGNAN","type":"poste de gendarmerie","district_region":null,"departement_commune":null,"verifie":true,"name":"GENDARMERIE NATIONALE DE MINIGNAN","source":"Géoportail ANSTAT"}},{"type":"Feature","geometry":{"type":"Point","coordinates":[-3.365248999999949,6.428029000000038]},"properties":{"id":37342,"nom":"GENDARMETIE","type":"poste de gendarmerie","district_region":null,"departement_commune":null,"verifie":true,"name":"GENDARMETIE","source":"Géoportail ANSTAT"}},{"type":"Feature","geometry":{"type":"Point","coordinates":[-3.683913999999959,6.658927000000062]},"properties":{"id":37343,"nom":"GENDARMERIE NATIONALE","type":"poste de gendarmerie","district_region":null,"departement_commune":null,"verifie":true,"name":"GENDARMERIE NATIONALE","source":"Géoportail ANSTAT"}},{"type":"Feature","geometry":{"type":"Point","coordinates":[-3.486335999999937,6.731783000000064]},"properties":{"id":37345,"nom":"GENDARMERIE NATIONALE","type":"poste de gendarmerie","district_region":null,"departement_commune":null,"verifie":true,"name":"GENDARMERIE NATIONALE","source":"Géoportail ANSTAT"}},{"type":"Feature","geometry":{"type":"Point","coordinates":[-3.408853999999963,6.076436000000058]},"properties":{"id":37346,"nom":"GENDARMERIE NATIONALE DE BETTIE","type":"poste de gendarmerie","district_region":null,"departement_commune":null,"verifie":true,"name":"GENDARMERIE NATIONALE DE BETTIE","source":"Géoportail ANSTAT"}},{"type":"Feature","geometry":{"type":"Point","coordinates":[-7.880979999999965,9.211768000000063]},"properties":{"id":37349,"nom":"GENDARMERIE MILLITAIRE","type":"poste de gendarmerie","district_region":null,"departement_commune":null,"verifie":true,"name":"GENDARMERIE MILLITAIRE","source":"Géoportail ANSTAT"}},{"type":"Feature","geometry":{"type":"Point","coordinates":[-3.657716999999934,6.183199000000059]},"properties":{"id":37350,"nom":"GENDARMERIE NATIONALE","type":"poste de gendarmerie","district_region":null,"departement_commune":null,"verifie":true,"name":"GENDARMERIE NATIONALE","source":"Géoportail ANSTAT"}},{"type":"Feature","geometry":{"type":"Point","coordinates":[-3.055801999999971,5.296824000000072]},"properties":{"id":37353,"nom":"GENDARMERIE NATIONNAL","type":"poste de gendarmerie","district_region":null,"departement_commune":null,"verifie":true,"name":"GENDARMERIE NATIONNAL","source":"Géoportail ANSTAT"}},{"type":"Feature","geometry":{"type":"Point","coordinates":[-3.036272999999937,5.412799000000064]},"properties":{"id":37354,"nom":"GENDARMERIE NATIONAE DE MAFERE","type":"poste de gendarmerie","district_region":null,"departement_commune":null,"verifie":true,"name":"GENDARMERIE NATIONAE DE MAFERE","source":"Géoportail ANSTAT"}},{"type":"Feature","geometry":{"type":"Point","coordinates":[-5.287553999999943,8.659128000000067]},"properties":{"id":37355,"nom":"GENDARMERIE NATIONALE DE NIANKARA","type":"poste de gendarmerie","district_region":null,"departement_commune":null,"verifie":true,"name":"GENDARMERIE NATIONALE DE NIANKARA","source":"Géoportail ANSTAT"}},{"type":"Feature","geometry":{"type":"Point","coordinates":[-8.151225999999951,7.260983000000067]},"properties":{"id":37358,"nom":"GENDARMERIE TERRITORIALE","type":"poste de gendarmerie","district_region":null,"departement_commune":null,"verifie":true,"name":"GENDARMERIE TERRITORIALE","source":"Géoportail ANSTAT"}},{"type":"Feature","geometry":{"type":"Point","coordinates":[-7.724038999999948,7.635293000000047]},"properties":{"id":37361,"nom":"GENDARMERIE NATOONALE","type":"poste de gendarmerie","district_region":null,"departement_commune":null,"verifie":true,"name":"GENDARMERIE NATOONALE","source":"Géoportail ANSTAT"}},{"type":"Feature","geometry":{"type":"Point","coordinates":[-8.209451999999942,6.91524400000003]},"properties":{"id":37362,"nom":"GENDARMERIE NATIONAL","type":"poste de gendarmerie","district_region":null,"departement_commune":null,"verifie":true,"name":"GENDARMERIE NATIONAL","source":"Géoportail ANSTAT"}},{"type":"Feature","geometry":{"type":"Point","coordinates":[-3.997218999999973,7.648753000000056]},"properties":{"id":37363,"nom":"GENDARMERIE NATIONALE","type":"poste de gendarmerie","district_region":null,"departement_commune":null,"verifie":true,"name":"GENDARMERIE NATIONALE","source":"Géoportail ANSTAT"}},{"type":"Feature","geometry":{"type":"Point","coordinates":[-5.296289999999942,6.190761000000066]},"properties":{"id":37721,"nom":"MISSIONS DE LA GENDARMERIE NATIONNAL","type":"poste de gendarmerie","district_region":null,"departement_commune":null,"verifie":true,"name":"MISSIONS DE LA GENDARMERIE NATIONNAL","source":"Géoportail ANSTAT"}},{"type":"Feature","geometry":{"type":"Point","coordinates":[-6.524746999999934,5.348687000000041]},"properties":{"id":37953,"nom":"P0STE DE GENDARMERIE","type":"poste de gendarmerie","district_region":null,"departement_commune":null,"verifie":true,"name":"P0STE DE GENDARMERIE","source":"Géoportail ANSTAT"}},{"type":"Feature","geometry":{"type":"Point","coordinates":[-5.249633999999958,6.816911000000061]},"properties":{"id":38390,"nom":"GENDAMERIE NATIONALE DE YAMOUSSOKRO","type":"poste de gendarmerie","district_region":null,"departement_commune":null,"verifie":true,"name":"GENDAMERIE NATIONALE DE YAMOUSSOKRO","source":"Géoportail ANSTAT"}},{"type":"Feature","geometry":{"type":"Point","coordinates":[-4.719900999999936,9.442983000000028]},"properties":{"id":38395,"nom":"POSTE DE GENDARMERIE","type":"poste de gendarmerie","district_region":null,"departement_commune":null,"verifie":true,"name":"POSTE DE GENDARMERIE","source":"Géoportail ANSTAT"}},{"type":"Feature","geometry":{"type":"Point","coordinates":[-6.641361999999958,5.098379000000023]},"properties":{"id":38399,"nom":"POSTE DE GENDARMERIE SAPH RAPIDES GRAH","type":"poste de gendarmerie","district_region":null,"departement_commune":null,"verifie":true,"name":"POSTE DE GENDARMERIE SAPH RAPIDES GRAH","source":"Géoportail ANSTAT"}},{"type":"Feature","geometry":{"type":"Point","coordinates":[-6.841864999999927,4.765306000000066]},"properties":{"id":38400,"nom":"POSTE DE GENDARMERIE","type":"poste de gendarmerie","district_region":null,"departement_commune":null,"verifie":true,"name":"POSTE DE GENDARMERIE","source":"Géoportail ANSTAT"}},{"type":"Feature","geometry":{"type":"Point","coordinates":[-5.732297999999957,9.902524000000028]},"properties":{"id":38403,"nom":"POSTE GENDARMERIE TONGON","type":"poste de gendarmerie","district_region":null,"departement_commune":null,"verifie":true,"name":"POSTE GENDARMERIE TONGON","source":"Géoportail ANSTAT"}},{"type":"Feature","geometry":{"type":"Point","coordinates":[-6.343432999999948,5.971401000000071]},"properties":{"id":38411,"nom":"POSTE DE GENDARMERIE DE SAYO","type":"poste de gendarmerie","district_region":null,"departement_commune":null,"verifie":true,"name":"POSTE DE GENDARMERIE DE SAYO","source":"Géoportail ANSTAT"}},{"type":"Feature","geometry":{"type":"Point","coordinates":[-6.277830999999935,5.671939000000066]},"properties":{"id":38414,"nom":"POSTE DE GENDARMERIE","type":"poste de gendarmerie","district_region":null,"departement_commune":null,"verifie":true,"name":"POSTE DE GENDARMERIE","source":"Géoportail ANSTAT"}},{"type":"Feature","geometry":{"type":"Point","coordinates":[-6.829103999999973,6.134480000000053]},"properties":{"id":38415,"nom":"POSTE DE GENDARMERIE","type":"poste de gendarmerie","district_region":null,"departement_commune":null,"verifie":true,"name":"POSTE DE GENDARMERIE","source":"Géoportail ANSTAT"}},{"type":"Feature","geometry":{"type":"Point","coordinates":[-4.306390999999962,6.635346000000027]},"properties":{"id":38423,"nom":"POSTE DE GENDARMERIE","type":"poste de gendarmerie","district_region":null,"departement_commune":null,"verifie":true,"name":"POSTE DE GENDARMERIE","source":"Géoportail ANSTAT"}},{"type":"Feature","geometry":{"type":"Point","coordinates":[-4.290272999999956,6.764059000000032]},"properties":{"id":38425,"nom":"POSTE DE GENDARMERIE DE ASSIE KOUMASSI","type":"poste de gendarmerie","district_region":null,"departement_commune":null,"verifie":true,"name":"POSTE DE GENDARMERIE DE ASSIE KOUMASSI","source":"Géoportail ANSTAT"}},{"type":"Feature","geometry":{"type":"Point","coordinates":[-7.026580999999965,6.866512000000057]},"properties":{"id":38434,"nom":"POSTE DE GENDARMERIE","type":"poste de gendarmerie","district_region":null,"departement_commune":null,"verifie":true,"name":"POSTE DE GENDARMERIE","source":"Géoportail ANSTAT"}},{"type":"Feature","geometry":{"type":"Point","coordinates":[-4.852768999999967,5.498744000000045]},"properties":{"id":38437,"nom":"POSTE DE GENDARMERIE","type":"poste de gendarmerie","district_region":null,"departement_commune":null,"verifie":true,"name":"POSTE DE GENDARMERIE","source":"Géoportail ANSTAT"}},{"type":"Feature","geometry":{"type":"Point","coordinates":[-5.706842999999935,6.476877000000059]},"properties":{"id":38447,"nom":"POSTE DE GENDARMERIE","type":"poste de gendarmerie","district_region":null,"departement_commune":null,"verifie":true,"name":"POSTE DE GENDARMERIE","source":"Géoportail ANSTAT"}},{"type":"Feature","geometry":{"type":"Point","coordinates":[-6.26502499999998,5.065339000000051]},"properties":{"id":38449,"nom":"POSTE DE GENDARMERIR","type":"poste de gendarmerie","district_region":null,"departement_commune":null,"verifie":true,"name":"POSTE DE GENDARMERIR","source":"Géoportail ANSTAT"}},{"type":"Feature","geometry":{"type":"Point","coordinates":[-5.075832999999932,7.030520000000024]},"properties":{"id":38450,"nom":"POSTE DE GENDARMERIE DE N GONGORO","type":"poste de gendarmerie","district_region":null,"departement_commune":null,"verifie":true,"name":"POSTE DE GENDARMERIE DE N GONGORO","source":"Géoportail ANSTAT"}},{"type":"Feature","geometry":{"type":"Point","coordinates":[-3.529039999999952,7.819148000000041]},"properties":{"id":38467,"nom":"POSTE DE GENDARMERIE DE KOUASSI DATEKRO","type":"poste de gendarmerie","district_region":null,"departement_commune":null,"verifie":true,"name":"POSTE DE GENDARMERIE DE KOUASSI DATEKRO","source":"Géoportail ANSTAT"}},{"type":"Feature","geometry":{"type":"Point","coordinates":[-5.876194999999939,7.590828000000045]},"properties":{"id":38479,"nom":"POSTE DE GENDARMERIE DE GOHOUFLA","type":"poste de gendarmerie","district_region":null,"departement_commune":null,"verifie":true,"name":"POSTE DE GENDARMERIE DE GOHOUFLA","source":"Géoportail ANSTAT"}},{"type":"Feature","geometry":{"type":"Point","coordinates":[-5.948422999999934,7.627278000000047]},"properties":{"id":38480,"nom":"POSTE DE GENDARMERIE VOUEBOUFLA","type":"poste de gendarmerie","district_region":null,"departement_commune":null,"verifie":true,"name":"POSTE DE GENDARMERIE VOUEBOUFLA","source":"Géoportail ANSTAT"}},{"type":"Feature","geometry":{"type":"Point","coordinates":[-5.736348999999962,8.006736000000046]},"properties":{"id":38490,"nom":"POSTE DE GENDAMERIE DE TOTOKRO","type":"poste de gendarmerie","district_region":null,"departement_commune":null,"verifie":true,"name":"POSTE DE GENDAMERIE DE TOTOKRO","source":"Géoportail ANSTAT"}},{"type":"Feature","geometry":{"type":"Point","coordinates":[-2.869677999999965,9.435199000000068]},"properties":{"id":38492,"nom":"POSTE DE GENDARMERIE","type":"poste de gendarmerie","district_region":null,"departement_commune":null,"verifie":true,"name":"POSTE DE GENDARMERIE","source":"Géoportail ANSTAT"}},{"type":"Feature","geometry":{"type":"Point","coordinates":[-6.840060999999935,7.154569000000038]},"properties":{"id":38508,"nom":"POSTE DE GENDAMERIE DE DANIA","type":"poste de gendarmerie","district_region":null,"departement_commune":null,"verifie":true,"name":"POSTE DE GENDAMERIE DE DANIA","source":"Géoportail ANSTAT"}},{"type":"Feature","geometry":{"type":"Point","coordinates":[-6.469559999999944,7.23101500000007]},"properties":{"id":38509,"nom":"POSTE DE GENDARMERIE","type":"poste de gendarmerie","district_region":null,"departement_commune":null,"verifie":true,"name":"POSTE DE GENDARMERIE","source":"Géoportail ANSTAT"}},{"type":"Feature","geometry":{"type":"Point","coordinates":[-6.732697999999971,6.802657000000067]},"properties":{"id":38512,"nom":"POSTE DE GENDARMERIE","type":"poste de gendarmerie","district_region":null,"departement_commune":null,"verifie":true,"name":"POSTE DE GENDARMERIE","source":"Géoportail ANSTAT"}},{"type":"Feature","geometry":{"type":"Point","coordinates":[-6.646445999999969,6.705055000000073]},"properties":{"id":38514,"nom":"POSTE DE GENDARMERIE","type":"poste de gendarmerie","district_region":null,"departement_commune":null,"verifie":true,"name":"POSTE DE GENDARMERIE","source":"Géoportail ANSTAT"}},{"type":"Feature","geometry":{"type":"Point","coordinates":[-6.178733999999963,7.215862000000072]},"properties":{"id":38515,"nom":"POSTE DE GENDARMERIE","type":"poste de gendarmerie","district_region":null,"departement_commune":null,"verifie":true,"name":"POSTE DE GENDARMERIE","source":"Géoportail ANSTAT"}},{"type":"Feature","geometry":{"type":"Point","coordinates":[-6.515886999999964,6.388019000000043]},"properties":{"id":38519,"nom":"POSTE DE GENDARMERIE DE TAPEGUIA","type":"poste de gendarmerie","district_region":null,"departement_commune":null,"verifie":true,"name":"POSTE DE GENDARMERIE DE TAPEGUIA","source":"Géoportail ANSTAT"}},{"type":"Feature","geometry":{"type":"Point","coordinates":[-7.191203999999971,8.474005000000034]},"properties":{"id":38536,"nom":"POSTE DE GENDARMERIE DE LUAI","type":"poste de gendarmerie","district_region":null,"departement_commune":null,"verifie":true,"name":"POSTE DE GENDARMERIE DE LUAI","source":"Géoportail ANSTAT"}},{"type":"Feature","geometry":{"type":"Point","coordinates":[-6.218687999999929,10.42685800000004]},"properties":{"id":38551,"nom":"POSTE DE GENDARMERIE DE LA MINE DOR","type":"poste de gendarmerie","district_region":null,"departement_commune":null,"verifie":true,"name":"POSTE DE GENDARMERIE DE LA MINE DOR","source":"Géoportail ANSTAT"}},{"type":"Feature","geometry":{"type":"Point","coordinates":[-5.91503599999993,8.443587000000036]},"properties":{"id":38555,"nom":"POSTE DE GENDARMERIE MARANDALLAH","type":"poste de gendarmerie","district_region":null,"departement_commune":null,"verifie":true,"name":"POSTE DE GENDARMERIE MARANDALLAH","source":"Géoportail ANSTAT"}},{"type":"Feature","geometry":{"type":"Point","coordinates":[-3.207634999999925,7.118817000000035]},"properties":{"id":38565,"nom":"POSTE DE CONTROLE DES FORCES DE DEFENSE ET DE SECURITE","type":"poste de gendarmerie","district_region":null,"departement_commune":null,"verifie":true,"name":"POSTE DE CONTROLE DES FORCES DE DEFENSE ET DE SECURITE","source":"Géoportail ANSTAT"}},{"type":"Feature","geometry":{"type":"Point","coordinates":[-5.166830999999945,9.193759000000057]},"properties":{"id":38597,"nom":"POSTE DE GENDARMERIE","type":"poste de gendarmerie","district_region":null,"departement_commune":null,"verifie":true,"name":"POSTE DE GENDARMERIE","source":"Géoportail ANSTAT"}},{"type":"Feature","geometry":{"type":"Point","coordinates":[-7.591267999999957,7.272784000000058]},"properties":{"id":38606,"nom":"POSTE DE GENDARMERIE","type":"poste de gendarmerie","district_region":null,"departement_commune":null,"verifie":true,"name":"POSTE DE GENDARMERIE","source":"Géoportail ANSTAT"}},{"type":"Feature","geometry":{"type":"Point","coordinates":[-4.021210999999937,5.335677000000032]},"properties":{"id":39482,"nom":"AGENCE OPERATIONNEL DE LA GENDAMEROE","type":"poste de gendarmerie","district_region":null,"departement_commune":null,"verifie":true,"name":"AGENCE OPERATIONNEL DE LA GENDAMEROE","source":"Géoportail ANSTAT"}},{"type":"Feature","geometry":{"type":"Point","coordinates":[-4.053107999999952,5.506079000000057]},"properties":{"id":39857,"nom":"GENDARMERIE","type":"poste de gendarmerie","district_region":null,"departement_commune":null,"verifie":true,"name":"GENDARMERIE","source":"Géoportail ANSTAT"}},{"type":"Feature","geometry":{"type":"Point","coordinates":[-4.055194999999969,5.326985000000036]},"properties":{"id":39919,"nom":"GENDARMERIE","type":"poste de gendarmerie","district_region":null,"departement_commune":null,"verifie":true,"name":"GENDARMERIE","source":"Géoportail ANSTAT"}},{"type":"Feature","geometry":{"type":"Point","coordinates":[-4.004590999999948,5.287007000000074]},"properties":{"id":39967,"nom":"GENDARMERIE NATIONALE DU  PORT","type":"poste de gendarmerie","district_region":null,"departement_commune":null,"verifie":true,"name":"GENDARMERIE NATIONALE DU  PORT","source":"Géoportail ANSTAT"}},{"type":"Feature","geometry":{"type":"Point","coordinates":[-4.032958999999948,5.357905000000073]},"properties":{"id":39971,"nom":"GENDARMERIE ATTECOUBE","type":"poste de gendarmerie","district_region":null,"departement_commune":null,"verifie":true,"name":"GENDARMERIE ATTECOUBE","source":"Géoportail ANSTAT"}},{"type":"Feature","geometry":{"type":"Point","coordinates":[-3.934943999999973,5.251859000000024]},"properties":{"id":39984,"nom":"GENDARMERIE NATIONALE","type":"poste de gendarmerie","district_region":null,"departement_commune":null,"verifie":true,"name":"GENDARMERIE NATIONALE","source":"Géoportail ANSTAT"}},{"type":"Feature","geometry":{"type":"Point","coordinates":[-3.933086999999944,5.257384000000059]},"properties":{"id":39985,"nom":"GENDARMERIE NATIONALE AEROPORT","type":"poste de gendarmerie","district_region":null,"departement_commune":null,"verifie":true,"name":"GENDARMERIE NATIONALE AEROPORT","source":"Géoportail ANSTAT"}},{"type":"Feature","geometry":{"type":"Point","coordinates":[-3.933116999999925,5.257411000000047]},"properties":{"id":39986,"nom":"GENDARMERIE NATIONALE DE L AEROPORT","type":"poste de gendarmerie","district_region":null,"departement_commune":null,"verifie":true,"name":"GENDARMERIE NATIONALE DE L AEROPORT","source":"Géoportail ANSTAT"}}],"metadata":{"dataset":"Poste de gendarmerie — ANSTAT","source":"Géoportail ANSTAT","theme":"Sécurité","verified":true,"apercu":"complet"}}