{"type":"FeatureCollection","features":[{"type":"Feature","geometry":{"type":"Point","coordinates":[-5.625307999999961,9.443178000000046]},"properties":{"id":35906,"nom":"AGEROUTE","type":"bureau societe","district_region":null,"departement_commune":null,"verifie":true,"name":"AGEROUTE","source":"Géoportail ANSTAT"}},{"type":"Feature","geometry":{"type":"Point","coordinates":[-6.43082899999996,6.885345000000029]},"properties":{"id":35976,"nom":"AGEROUTE","type":"bureau societe","district_region":null,"departement_commune":null,"verifie":true,"name":"AGEROUTE","source":"Géoportail ANSTAT"}},{"type":"Feature","geometry":{"type":"Point","coordinates":[-6.479758999999945,9.517954000000032]},"properties":{"id":35994,"nom":"AGEROUTE DE BOUNDIALI","type":"bureau societe","district_region":null,"departement_commune":null,"verifie":true,"name":"AGEROUTE DE BOUNDIALI","source":"Géoportail ANSTAT"}},{"type":"Feature","geometry":{"type":"Point","coordinates":[-5.630547999999976,9.448048000000028]},"properties":{"id":36036,"nom":"AIR COTE DIVOIRE","type":"bureau societe","district_region":null,"departement_commune":null,"verifie":true,"name":"AIR COTE DIVOIRE","source":"Géoportail ANSTAT"}},{"type":"Feature","geometry":{"type":"Point","coordinates":[-7.563282999999956,9.50727500000005]},"properties":{"id":36068,"nom":"AGENCE AIR COTE D IVOIRE","type":"bureau societe","district_region":null,"departement_commune":null,"verifie":true,"name":"AGENCE AIR COTE D IVOIRE","source":"Géoportail ANSTAT"}},{"type":"Feature","geometry":{"type":"Point","coordinates":[-7.549868999999944,7.410008000000062]},"properties":{"id":36069,"nom":"AIR COTE DIVOIRE","type":"bureau societe","district_region":null,"departement_commune":null,"verifie":true,"name":"AIR COTE DIVOIRE","source":"Géoportail ANSTAT"}},{"type":"Feature","geometry":{"type":"Point","coordinates":[-5.244587999999965,6.797656000000075]},"properties":{"id":36130,"nom":"AGEROUTE","type":"bureau societe","district_region":null,"departement_commune":null,"verifie":true,"name":"AGEROUTE","source":"Géoportail ANSTAT"}},{"type":"Feature","geometry":{"type":"Point","coordinates":[-3.969115999999929,5.351904000000047]},"properties":{"id":39423,"nom":"AGEROUTE","type":"bureau societe","district_region":null,"departement_commune":null,"verifie":true,"name":"AGEROUTE","source":"Géoportail ANSTAT"}},{"type":"Feature","geometry":{"type":"Point","coordinates":[-4.02282699999995,5.32389900000004]},"properties":{"id":39517,"nom":"AGEROUTE","type":"bureau societe","district_region":null,"departement_commune":null,"verifie":true,"name":"AGEROUTE","source":"Géoportail ANSTAT"}},{"type":"Feature","geometry":{"type":"Point","coordinates":[-4.016709999999932,5.323363000000029]},"properties":{"id":39523,"nom":"AIR MAROC","type":"bureau societe","district_region":null,"departement_commune":null,"verifie":true,"name":"AIR MAROC","source":"Géoportail ANSTAT"}},{"type":"Feature","geometry":{"type":"Point","coordinates":[-4.015830999999935,5.316791000000023]},"properties":{"id":39531,"nom":"AIR BURKINA","type":"bureau societe","district_region":null,"departement_commune":null,"verifie":true,"name":"AIR BURKINA","source":"Géoportail ANSTAT"}},{"type":"Feature","geometry":{"type":"Point","coordinates":[-4.019192999999973,5.317322000000047]},"properties":{"id":39532,"nom":"AIR COTE D IVOIRE","type":"bureau societe","district_region":null,"departement_commune":null,"verifie":true,"name":"AIR COTE D IVOIRE","source":"Géoportail ANSTAT"}},{"type":"Feature","geometry":{"type":"Point","coordinates":[-4.014971999999943,5.318759000000057]},"properties":{"id":39533,"nom":"AIR FRANCE","type":"bureau societe","district_region":null,"departement_commune":null,"verifie":true,"name":"AIR FRANCE","source":"Géoportail ANSTAT"}},{"type":"Feature","geometry":{"type":"Point","coordinates":[-4.016156999999964,5.321564000000023]},"properties":{"id":39544,"nom":"AIR COTE D IVOIRE","type":"bureau societe","district_region":null,"departement_commune":null,"verifie":true,"name":"AIR COTE D IVOIRE","source":"Géoportail ANSTAT"}},{"type":"Feature","geometry":{"type":"Point","coordinates":[-3.967887999999959,5.27609300000006]},"properties":{"id":39579,"nom":"AGEROUTE","type":"bureau societe","district_region":null,"departement_commune":null,"verifie":true,"name":"AGEROUTE","source":"Géoportail ANSTAT"}},{"type":"Feature","geometry":{"type":"Point","coordinates":[-3.940319999999929,5.259008000000051]},"properties":{"id":39660,"nom":"AIR COTE D IVOIRE","type":"bureau societe","district_region":null,"departement_commune":null,"verifie":true,"name":"AIR COTE D IVOIRE","source":"Géoportail ANSTAT"}},{"type":"Feature","geometry":{"type":"Point","coordinates":[-3.940244999999948,5.259058000000039]},"properties":{"id":39661,"nom":"AIR COTE D IVOIRE","type":"bureau societe","district_region":null,"departement_commune":null,"verifie":true,"name":"AIR COTE D IVOIRE","source":"Géoportail ANSTAT"}},{"type":"Feature","geometry":{"type":"Point","coordinates":[-3.991352999999947,5.361896000000058]},"properties":{"id":39721,"nom":"COMPAGNIE DE SIGNALISATION ET SECURITZ ROUTIERE","type":"bureau societe","district_region":null,"departement_commune":null,"verifie":true,"name":"COMPAGNIE DE SIGNALISATION ET SECURITZ ROUTIERE","source":"Géoportail ANSTAT"}},{"type":"Feature","geometry":{"type":"Point","coordinates":[-3.990132999999958,5.385391000000027]},"properties":{"id":39877,"nom":"FONDS D ENTRETIEN ROUTIER PEAGE","type":"bureau societe","district_region":null,"departement_commune":null,"verifie":true,"name":"FONDS D ENTRETIEN ROUTIER PEAGE","source":"Géoportail ANSTAT"}},{"type":"Feature","geometry":{"type":"Point","coordinates":[-3.98868699999997,5.357669000000044]},"properties":{"id":39892,"nom":"FOND DE DEVELOPPEMENT DU TRANSPORT ROUTIER","type":"bureau societe","district_region":null,"departement_commune":null,"verifie":true,"name":"FOND DE DEVELOPPEMENT DU TRANSPORT ROUTIER","source":"Géoportail ANSTAT"}},{"type":"Feature","geometry":{"type":"Point","coordinates":[-4.02268399999997,5.323395000000062]},"properties":{"id":39947,"nom":"FOND D ENTRETIENT ROUTIER F E R","type":"bureau societe","district_region":null,"departement_commune":null,"verifie":true,"name":"FOND D ENTRETIENT ROUTIER F E R","source":"Géoportail ANSTAT"}},{"type":"Feature","geometry":{"type":"Point","coordinates":[-4.016902999999957,5.323713000000055]},"properties":{"id":39952,"nom":"ETHIOPIAN AIR WAYS","type":"bureau societe","district_region":null,"departement_commune":null,"verifie":true,"name":"ETHIOPIAN AIR WAYS","source":"Géoportail ANSTAT"}}],"metadata":{"dataset":"Bureau societe — ANSTAT","source":"Géoportail ANSTAT","theme":"Commerce & Économie","verified":true,"apercu":"complet"}}