{"type":"FeatureCollection","features":[{"type":"Feature","geometry":{"type":"Point","coordinates":[-6.623363999999981,4.736282000000074]},"properties":{"id":36859,"nom":"DIRECTION REGIONALE DU BUDGET ET DES FINANCES","type":"dir region finance","district_region":null,"departement_commune":null,"verifie":true,"name":"DIRECTION REGIONALE DU BUDGET ET DES FINANCES","source":"Géoportail ANSTAT"}},{"type":"Feature","geometry":{"type":"Point","coordinates":[-4.902469999999937,7.131078000000059]},"properties":{"id":36867,"nom":"DIRECTION GENERALE DU BUDGET ET DES FINANCES","type":"dir region finance","district_region":null,"departement_commune":null,"verifie":true,"name":"DIRECTION GENERALE DU BUDGET ET DES FINANCES","source":"Géoportail ANSTAT"}},{"type":"Feature","geometry":{"type":"Point","coordinates":[-5.058648999999946,7.687476000000061]},"properties":{"id":36870,"nom":"DIRECTION REGIONALE DU BUDGET ET DES FINANCES","type":"dir region finance","district_region":null,"departement_commune":null,"verifie":true,"name":"DIRECTION REGIONALE DU BUDGET ET DES FINANCES","source":"Géoportail ANSTAT"}},{"type":"Feature","geometry":{"type":"Point","coordinates":[-3.203712999999937,5.470665000000054]},"properties":{"id":36882,"nom":"DIRECTION GENERALE DU BUDGET ET DES FINANCES","type":"dir region finance","district_region":null,"departement_commune":null,"verifie":true,"name":"DIRECTION GENERALE DU BUDGET ET DES FINANCES","source":"Géoportail ANSTAT"}},{"type":"Feature","geometry":{"type":"Point","coordinates":[-4.704992999999945,6.650976000000071]},"properties":{"id":37681,"nom":"MINISTERE CHARGES DU BUGET ET DES FINANCES","type":"dir region finance","district_region":null,"departement_commune":null,"verifie":true,"name":"MINISTERE CHARGES DU BUGET ET DES FINANCES","source":"Géoportail ANSTAT"}},{"type":"Feature","geometry":{"type":"Point","coordinates":[-7.483077999999978,6.543587000000059]},"properties":{"id":37682,"nom":"MINISTERE DE L ECONOMIE ET DES FINANCES","type":"dir region finance","district_region":null,"departement_commune":null,"verifie":true,"name":"MINISTERE DE L ECONOMIE ET DES FINANCES","source":"Géoportail ANSTAT"}},{"type":"Feature","geometry":{"type":"Point","coordinates":[-4.02073299999995,5.32658900000007]},"properties":{"id":39789,"nom":"DIRECTION GENERALE DU BUDGET ET DES FINANCES","type":"dir region finance","district_region":null,"departement_commune":null,"verifie":true,"name":"DIRECTION GENERALE DU BUDGET ET DES FINANCES","source":"Géoportail ANSTAT"}},{"type":"Feature","geometry":{"type":"Point","coordinates":[-3.923065999999949,5.334333000000072]},"properties":{"id":40461,"nom":"SOUS DIREVTION DU GUICHET UNIQUE DE DEPOT DES ETATS DE FINANCES","type":"dir region finance","district_region":null,"departement_commune":null,"verifie":true,"name":"SOUS DIREVTION DU GUICHET UNIQUE DE DEPOT DES ETATS DE FINANCES","source":"Géoportail ANSTAT"}}],"metadata":{"dataset":"Dir region finance — ANSTAT","source":"Géoportail ANSTAT","theme":"Finance","verified":true,"apercu":"complet"}}