{"type":"FeatureCollection","features":[{"type":"Feature","geometry":{"type":"Point","coordinates":[-4.012155999999948,5.320006000000035]},"properties":{"id":131338,"nom":"BUREAU DE L ENSEIGNEMENT SUPERIEURE","type":"autre direction","district_region":"ABIDJAN","departement_commune":null,"verifie":true,"name":"BUREAU DE L ENSEIGNEMENT SUPERIEURE","nomreg":"ABIDJAN","codreg":1,"source":"Géoportail ANSTAT"}},{"type":"Feature","geometry":{"type":"Point","coordinates":[-4.000689999999963,5.383826000000056]},"properties":{"id":131349,"nom":"MINISTERE DEEDUCATION NATIONALE ENSEIGNEMENT","type":"autre direction","district_region":"ABIDJAN","departement_commune":null,"verifie":true,"name":"MINISTERE DEEDUCATION NATIONALE ENSEIGNEMENT","nomreg":"ABIDJAN","codreg":1,"source":"Géoportail ANSTAT"}}],"metadata":{"dataset":"Autre direction — ANSTAT","source":"Géoportail ANSTAT","theme":"Administration","verified":true,"apercu":"complet"}}