{"type":"FeatureCollection","features":[{"type":"Feature","geometry":{"type":"Point","coordinates":[-5.371174999999937,6.846893000000023]},"properties":{"id":41318,"nom":"GESTOCI","type":"raffinerie","district_region":null,"departement_commune":null,"verifie":true,"name":"GESTOCI","source":"Géoportail ANSTAT"}},{"type":"Feature","geometry":{"type":"Point","coordinates":[-5.060994999999934,7.734530000000063]},"properties":{"id":42828,"nom":"GESTOCI","type":"raffinerie","district_region":null,"departement_commune":null,"verifie":true,"name":"GESTOCI","source":"Géoportail ANSTAT"}},{"type":"Feature","geometry":{"type":"Point","coordinates":[-6.64694899999995,4.763676000000032]},"properties":{"id":44210,"nom":"LUBACI","type":"raffinerie","district_region":null,"departement_commune":null,"verifie":true,"name":"LUBACI","source":"Géoportail ANSTAT"}},{"type":"Feature","geometry":{"type":"Point","coordinates":[-3.992721999999958,5.25764300000003]},"properties":{"id":56388,"nom":"LA SIR","type":"raffinerie","district_region":null,"departement_commune":null,"verifie":true,"name":"LA SIR","source":"Géoportail ANSTAT"}},{"type":"Feature","geometry":{"type":"Point","coordinates":[-4.056986999999936,5.260749000000033]},"properties":{"id":56546,"nom":"STATION DE POMPAGE DE LA SIR","type":"raffinerie","district_region":null,"departement_commune":null,"verifie":true,"name":"STATION DE POMPAGE DE LA SIR","source":"Géoportail ANSTAT"}},{"type":"Feature","geometry":{"type":"Point","coordinates":[-3.986985999999945,5.261483000000055]},"properties":{"id":56719,"nom":"USINE DE FABRICATION ET DE REQUALIFICATION DES BOUTEILLES DE GAZ GPL DE PETROCI","type":"raffinerie","district_region":null,"departement_commune":null,"verifie":true,"name":"USINE DE FABRICATION ET DE REQUALIFICATION DES BOUTEILLES DE GAZ GPL DE PETROCI","source":"Géoportail ANSTAT"}}],"metadata":{"dataset":"Raffinerie — ANSTAT","source":"Géoportail ANSTAT","theme":"Transport & mobilité","verified":true,"apercu":"complet"}}