{"type":"FeatureCollection","features":[{"type":"Feature","geometry":{"type":"Point","coordinates":[-4.202858999999933,6.644377000000077]},"properties":{"id":36041,"nom":"MAIRIE TECHNIQUE DE BONGOUANOU","type":"mairie","district_region":null,"departement_commune":null,"verifie":true,"name":"MAIRIE TECHNIQUE DE BONGOUANOU","source":"Géoportail ANSTAT"}},{"type":"Feature","geometry":{"type":"Point","coordinates":[-5.707154999999943,9.24772500000006]},"properties":{"id":37406,"nom":"HOTEL DE VILLE","type":"mairie","district_region":null,"departement_commune":null,"verifie":true,"name":"HOTEL DE VILLE","source":"Géoportail ANSTAT"}},{"type":"Feature","geometry":{"type":"Point","coordinates":[-5.943299999999965,6.131358000000034]},"properties":{"id":37407,"nom":"HOTEL DE VILLE ROGER GNOHTE","type":"mairie","district_region":null,"departement_commune":null,"verifie":true,"name":"HOTEL DE VILLE ROGER GNOHTE","source":"Géoportail ANSTAT"}},{"type":"Feature","geometry":{"type":"Point","coordinates":[-4.677294999999958,7.345084000000043]},"properties":{"id":37408,"nom":"HOTEL DE VILLE DE KOUASSI KOUASSIKRO","type":"mairie","district_region":null,"departement_commune":null,"verifie":true,"name":"HOTEL DE VILLE DE KOUASSI KOUASSIKRO","source":"Géoportail ANSTAT"}},{"type":"Feature","geometry":{"type":"Point","coordinates":[-6.310359999999946,7.156365000000051]},"properties":{"id":37409,"nom":"HOTEL DE VILLE DE BEDIALA","type":"mairie","district_region":null,"departement_commune":null,"verifie":true,"name":"HOTEL DE VILLE DE BEDIALA","source":"Géoportail ANSTAT"}},{"type":"Feature","geometry":{"type":"Point","coordinates":[-3.486470999999938,6.730461000000048]},"properties":{"id":37410,"nom":"HOTEL DE VILLE","type":"mairie","district_region":null,"departement_commune":null,"verifie":true,"name":"HOTEL DE VILLE","source":"Géoportail ANSTAT"}},{"type":"Feature","geometry":{"type":"Point","coordinates":[-3.86045699999994,6.099346000000025]},"properties":{"id":37411,"nom":"HOTEL DE VILLE EN CONSTRUCTION","type":"mairie","district_region":null,"departement_commune":null,"verifie":true,"name":"HOTEL DE VILLE EN CONSTRUCTION","source":"Géoportail ANSTAT"}},{"type":"Feature","geometry":{"type":"Point","coordinates":[-3.156820999999979,5.606186000000037]},"properties":{"id":37412,"nom":"HOTEL DE VILLE DAYAME","type":"mairie","district_region":null,"departement_commune":null,"verifie":true,"name":"HOTEL DE VILLE DAYAME","source":"Géoportail ANSTAT"}},{"type":"Feature","geometry":{"type":"Point","coordinates":[-3.203884999999957,5.471401000000071]},"properties":{"id":37413,"nom":"HOTEL DE VILLE","type":"mairie","district_region":null,"departement_commune":null,"verifie":true,"name":"HOTEL DE VILLE","source":"Géoportail ANSTAT"}},{"type":"Feature","geometry":{"type":"Point","coordinates":[-3.203817999999956,5.471394000000032]},"properties":{"id":37414,"nom":"HOTEL DE VILLE","type":"mairie","district_region":null,"departement_commune":null,"verifie":true,"name":"HOTEL DE VILLE","source":"Géoportail ANSTAT"}},{"type":"Feature","geometry":{"type":"Point","coordinates":[-5.125535999999954,8.214169000000027]},"properties":{"id":37415,"nom":"HOTEL COMMUNAL DE FRONAN","type":"mairie","district_region":null,"departement_commune":null,"verifie":true,"name":"HOTEL COMMUNAL DE FRONAN","source":"Géoportail ANSTAT"}},{"type":"Feature","geometry":{"type":"Point","coordinates":[-4.364276999999959,7.899028000000044]},"properties":{"id":37416,"nom":"HOTEL DE VILLE DE SATAMA SOKOURA","type":"mairie","district_region":null,"departement_commune":null,"verifie":true,"name":"HOTEL DE VILLE DE SATAMA SOKOURA","source":"Géoportail ANSTAT"}},{"type":"Feature","geometry":{"type":"Point","coordinates":[-4.496677999999974,7.067064000000073]},"properties":{"id":37429,"nom":"HOTEL VILLE","type":"mairie","district_region":null,"departement_commune":null,"verifie":true,"name":"HOTEL VILLE","source":"Géoportail ANSTAT"}},{"type":"Feature","geometry":{"type":"Point","coordinates":[-4.417425999999978,5.203169000000059]},"properties":{"id":37439,"nom":"JACQUEVILLE","type":"mairie","district_region":null,"departement_commune":null,"verifie":true,"name":"JACQUEVILLE","source":"Géoportail ANSTAT"}},{"type":"Feature","geometry":{"type":"Point","coordinates":[-6.402528999999959,6.084070000000054]},"properties":{"id":37467,"nom":"LA MAIRIE DE MAYO","type":"mairie","district_region":null,"departement_commune":null,"verifie":true,"name":"LA MAIRIE DE MAYO","source":"Géoportail ANSTAT"}},{"type":"Feature","geometry":{"type":"Point","coordinates":[-7.54882699999996,7.102995000000021]},"properties":{"id":37470,"nom":"LA MAIRIE DE LOGOUALE","type":"mairie","district_region":null,"departement_commune":null,"verifie":true,"name":"LA MAIRIE DE LOGOUALE","source":"Géoportail ANSTAT"}},{"type":"Feature","geometry":{"type":"Point","coordinates":[-7.414154999999937,7.531782000000021]},"properties":{"id":37471,"nom":"LA MAIRIE DE GBONNE","type":"mairie","district_region":null,"departement_commune":null,"verifie":true,"name":"LA MAIRIE DE GBONNE","source":"Géoportail ANSTAT"}},{"type":"Feature","geometry":{"type":"Point","coordinates":[-6.447828999999956,6.874030000000062]},"properties":{"id":37481,"nom":"LOCAL DE LA MAIRIE","type":"mairie","district_region":null,"departement_commune":null,"verifie":true,"name":"LOCAL DE LA MAIRIE","source":"Géoportail ANSTAT"}},{"type":"Feature","geometry":{"type":"Point","coordinates":[-4.607655999999963,9.148198000000036]},"properties":{"id":37491,"nom":"MAIRIE DE KONG","type":"mairie","district_region":null,"departement_commune":null,"verifie":true,"name":"MAIRIE DE KONG","source":"Géoportail ANSTAT"}},{"type":"Feature","geometry":{"type":"Point","coordinates":[-5.478848999999968,10.11210900000003]},"properties":{"id":37492,"nom":"MAIRIE DE DIAWALA","type":"mairie","district_region":null,"departement_commune":null,"verifie":true,"name":"MAIRIE DE DIAWALA","source":"Géoportail ANSTAT"}},{"type":"Feature","geometry":{"type":"Point","coordinates":[-5.197950999999932,9.59391800000003]},"properties":{"id":37493,"nom":"MAIEIE DE FERKESSEDOUGOU","type":"mairie","district_region":null,"departement_commune":null,"verifie":true,"name":"MAIEIE DE FERKESSEDOUGOU","source":"Géoportail ANSTAT"}},{"type":"Feature","geometry":{"type":"Point","coordinates":[-7.497101999999927,4.928395000000023]},"properties":{"id":37494,"nom":"MAIRIE DE GRABO","type":"mairie","district_region":null,"departement_commune":null,"verifie":true,"name":"MAIRIE DE GRABO","source":"Géoportail ANSTAT"}},{"type":"Feature","geometry":{"type":"Point","coordinates":[-5.711941999999965,9.233756000000028]},"properties":{"id":37495,"nom":"MAIRIE","type":"mairie","district_region":null,"departement_commune":null,"verifie":true,"name":"MAIRIE","source":"Géoportail ANSTAT"}},{"type":"Feature","geometry":{"type":"Point","coordinates":[-5.769045999999946,9.073684000000071]},"properties":{"id":37496,"nom":"MAIRIE DE DIKODOUDOU","type":"mairie","district_region":null,"departement_commune":null,"verifie":true,"name":"MAIRIE DE DIKODOUDOU","source":"Géoportail ANSTAT"}},{"type":"Feature","geometry":{"type":"Point","coordinates":[-5.430674999999951,9.334907000000044]},"properties":{"id":37497,"nom":"MAIRIE DE KOMBORODOUGOU","type":"mairie","district_region":null,"departement_commune":null,"verifie":true,"name":"MAIRIE DE KOMBORODOUGOU","source":"Géoportail ANSTAT"}},{"type":"Feature","geometry":{"type":"Point","coordinates":[-5.525434999999959,9.388280000000066]},"properties":{"id":37498,"nom":"MAIRIE DE KARAKORO","type":"mairie","district_region":null,"departement_commune":null,"verifie":true,"name":"MAIRIE DE KARAKORO","source":"Géoportail ANSTAT"}},{"type":"Feature","geometry":{"type":"Point","coordinates":[-6.995210999999927,6.276358000000073]},"properties":{"id":37499,"nom":"MAIRIE DE BUYO","type":"mairie","district_region":null,"departement_commune":null,"verifie":true,"name":"MAIRIE DE BUYO","source":"Géoportail ANSTAT"}},{"type":"Feature","geometry":{"type":"Point","coordinates":[-4.523159999999962,6.339660000000038]},"properties":{"id":37500,"nom":"MAIRIE D ANOUMABA","type":"mairie","district_region":null,"departement_commune":null,"verifie":true,"name":"MAIRIE D ANOUMABA","source":"Géoportail ANSTAT"}},{"type":"Feature","geometry":{"type":"Point","coordinates":[-4.355588999999952,6.474924000000044]},"properties":{"id":37501,"nom":"MAIRE DE MBATTO","type":"mairie","district_region":null,"departement_commune":null,"verifie":true,"name":"MAIRE DE MBATTO","source":"Géoportail ANSTAT"}},{"type":"Feature","geometry":{"type":"Point","coordinates":[-4.198646999999937,6.651940000000025]},"properties":{"id":37503,"nom":"MAIRIE DE BONGOUANOU","type":"mairie","district_region":null,"departement_commune":null,"verifie":true,"name":"MAIRIE DE BONGOUANOU","source":"Géoportail ANSTAT"}},{"type":"Feature","geometry":{"type":"Point","coordinates":[-7.372940999999969,7.390195000000062]},"properties":{"id":37504,"nom":"MAIRIE DE FAKOBLY","type":"mairie","district_region":null,"departement_commune":null,"verifie":true,"name":"MAIRIE DE FAKOBLY","source":"Géoportail ANSTAT"}},{"type":"Feature","geometry":{"type":"Point","coordinates":[-7.341962999999964,6.743731000000025]},"properties":{"id":37505,"nom":"MAIRIE DE DUEKOUE","type":"mairie","district_region":null,"departement_commune":null,"verifie":true,"name":"MAIRIE DE DUEKOUE","source":"Géoportail ANSTAT"}},{"type":"Feature","geometry":{"type":"Point","coordinates":[-4.372402999999963,5.324509000000035]},"properties":{"id":37506,"nom":"MAIRIE DE DABOU","type":"mairie","district_region":null,"departement_commune":null,"verifie":true,"name":"MAIRIE DE DABOU","source":"Géoportail ANSTAT"}},{"type":"Feature","geometry":{"type":"Point","coordinates":[-6.173673999999949,6.240233000000046]},"properties":{"id":37507,"nom":"MAIRIE DE GUIBEROUA","type":"mairie","district_region":null,"departement_commune":null,"verifie":true,"name":"MAIRIE DE GUIBEROUA","source":"Géoportail ANSTAT"}},{"type":"Feature","geometry":{"type":"Point","coordinates":[-5.580283999999949,6.282985000000053]},"properties":{"id":37508,"nom":"MAIRIE DE DIGONEFLA","type":"mairie","district_region":null,"departement_commune":null,"verifie":true,"name":"MAIRIE DE DIGONEFLA","source":"Géoportail ANSTAT"}},{"type":"Feature","geometry":{"type":"Point","coordinates":[-5.112836999999956,6.473343000000057]},"properties":{"id":37509,"nom":"MAIRIE DE DJEKANOU","type":"mairie","district_region":null,"departement_commune":null,"verifie":true,"name":"MAIRIE DE DJEKANOU","source":"Géoportail ANSTAT"}},{"type":"Feature","geometry":{"type":"Point","coordinates":[-5.251507999999944,6.53879900000004]},"properties":{"id":37510,"nom":"MAIRIE DE KOKUMBO","type":"mairie","district_region":null,"departement_commune":null,"verifie":true,"name":"MAIRIE DE KOKUMBO","source":"Géoportail ANSTAT"}},{"type":"Feature","geometry":{"type":"Point","coordinates":[-2.797538999999972,8.043209000000047]},"properties":{"id":37511,"nom":"MAIRIE DE BONDOUUKOU","type":"mairie","district_region":null,"departement_commune":null,"verifie":true,"name":"MAIRIE DE BONDOUUKOU","source":"Géoportail ANSTAT"}},{"type":"Feature","geometry":{"type":"Point","coordinates":[-3.528890999999931,7.818065000000047]},"properties":{"id":37512,"nom":"MAIRIE","type":"mairie","district_region":null,"departement_commune":null,"verifie":true,"name":"MAIRIE","source":"Géoportail ANSTAT"}},{"type":"Feature","geometry":{"type":"Point","coordinates":[-6.600412999999946,8.473442000000034]},"properties":{"id":37513,"nom":"MAIRIE DE KANI","type":"mairie","district_region":null,"departement_commune":null,"verifie":true,"name":"MAIRIE DE KANI","source":"Géoportail ANSTAT"}},{"type":"Feature","geometry":{"type":"Point","coordinates":[-6.542745999999966,8.122983000000033]},"properties":{"id":37514,"nom":"MAIRIE DE DUALLA","type":"mairie","district_region":null,"departement_commune":null,"verifie":true,"name":"MAIRIE DE DUALLA","source":"Géoportail ANSTAT"}},{"type":"Feature","geometry":{"type":"Point","coordinates":[-6.052501999999947,6.928850000000068]},"properties":{"id":37515,"nom":"MAIRIE DE BONON","type":"mairie","district_region":null,"departement_commune":null,"verifie":true,"name":"MAIRIE DE BONON","source":"Géoportail ANSTAT"}},{"type":"Feature","geometry":{"type":"Point","coordinates":[-5.741334999999935,6.977922000000035]},"properties":{"id":37516,"nom":"MAIRIE DE BOUAFLE","type":"mairie","district_region":null,"departement_commune":null,"verifie":true,"name":"MAIRIE DE BOUAFLE","source":"Géoportail ANSTAT"}},{"type":"Feature","geometry":{"type":"Point","coordinates":[-5.87667399999998,7.488471000000061]},"properties":{"id":37517,"nom":"MAIRIE DE GOHITAFLA","type":"mairie","district_region":null,"departement_commune":null,"verifie":true,"name":"MAIRIE DE GOHITAFLA","source":"Géoportail ANSTAT"}},{"type":"Feature","geometry":{"type":"Point","coordinates":[-4.957282999999961,7.736855000000048]},"properties":{"id":37518,"nom":"MAIRIE DE KAHANKRO","type":"mairie","district_region":null,"departement_commune":null,"verifie":true,"name":"MAIRIE DE KAHANKRO","source":"Géoportail ANSTAT"}},{"type":"Feature","geometry":{"type":"Point","coordinates":[-5.023000999999965,7.690262000000075]},"properties":{"id":37519,"nom":"MAIRIE  NON FONTIONNELLE","type":"mairie","district_region":null,"departement_commune":null,"verifie":true,"name":"MAIRIE  NON FONTIONNELLE","source":"Géoportail ANSTAT"}},{"type":"Feature","geometry":{"type":"Point","coordinates":[-5.028103999999928,7.657636000000025]},"properties":{"id":37520,"nom":"MAIRIE DE BOUAKE","type":"mairie","district_region":null,"departement_commune":null,"verifie":true,"name":"MAIRIE DE BOUAKE","source":"Géoportail ANSTAT"}},{"type":"Feature","geometry":{"type":"Point","coordinates":[-5.029402999999945,7.679845000000057]},"properties":{"id":37521,"nom":"MAIRIE DE BOUAKE","type":"mairie","district_region":null,"departement_commune":null,"verifie":true,"name":"MAIRIE DE BOUAKE","source":"Géoportail ANSTAT"}},{"type":"Feature","geometry":{"type":"Point","coordinates":[-4.829967999999951,7.634504000000049]},"properties":{"id":37522,"nom":"MAIRIE DE BROBO","type":"mairie","district_region":null,"departement_commune":null,"verifie":true,"name":"MAIRIE DE BROBO","source":"Géoportail ANSTAT"}},{"type":"Feature","geometry":{"type":"Point","coordinates":[-5.072936999999968,7.513498000000027]},"properties":{"id":37523,"nom":"MAIRIE DE DJEBONOUA","type":"mairie","district_region":null,"departement_commune":null,"verifie":true,"name":"MAIRIE DE DJEBONOUA","source":"Géoportail ANSTAT"}},{"type":"Feature","geometry":{"type":"Point","coordinates":[-5.578462999999942,7.673971000000051]},"properties":{"id":37524,"nom":"MAIRIE DE BEOUMI","type":"mairie","district_region":null,"departement_commune":null,"verifie":true,"name":"MAIRIE DE BEOUMI","source":"Géoportail ANSTAT"}},{"type":"Feature","geometry":{"type":"Point","coordinates":[-5.476549999999975,7.865887000000043]},"properties":{"id":37525,"nom":"MAIRIE DE BODOKRO","type":"mairie","district_region":null,"departement_commune":null,"verifie":true,"name":"MAIRIE DE BODOKRO","source":"Géoportail ANSTAT"}},{"type":"Feature","geometry":{"type":"Point","coordinates":[-5.178312999999946,7.78786800000006]},"properties":{"id":37526,"nom":"MAIRIE DE DIABO","type":"mairie","district_region":null,"departement_commune":null,"verifie":true,"name":"MAIRIE DE DIABO","source":"Géoportail ANSTAT"}},{"type":"Feature","geometry":{"type":"Point","coordinates":[-3.345336999999972,9.808682000000031]},"properties":{"id":37527,"nom":"MAIRIE","type":"mairie","district_region":null,"departement_commune":null,"verifie":true,"name":"MAIRIE","source":"Géoportail ANSTAT"}},{"type":"Feature","geometry":{"type":"Point","coordinates":[-2.999202999999966,9.268653000000027]},"properties":{"id":37528,"nom":"MAIRIE DE BOUNA","type":"mairie","district_region":null,"departement_commune":null,"verifie":true,"name":"MAIRIE DE BOUNA","source":"Géoportail ANSTAT"}},{"type":"Feature","geometry":{"type":"Point","coordinates":[-7.497509999999977,6.548111000000063]},"properties":{"id":37529,"nom":"MAIRIE DE GUIGLO","type":"mairie","district_region":null,"departement_commune":null,"verifie":true,"name":"MAIRIE DE GUIGLO","source":"Géoportail ANSTAT"}},{"type":"Feature","geometry":{"type":"Point","coordinates":[-8.00746399999997,6.571962000000042]},"properties":{"id":37530,"nom":"MAIRIE DE BLOLEQUIN","type":"mairie","district_region":null,"departement_commune":null,"verifie":true,"name":"MAIRIE DE BLOLEQUIN","source":"Géoportail ANSTAT"}},{"type":"Feature","geometry":{"type":"Point","coordinates":[-6.449755999999979,6.886760000000038]},"properties":{"id":37531,"nom":"MAIRIE DE DALOA","type":"mairie","district_region":null,"departement_commune":null,"verifie":true,"name":"MAIRIE DE DALOA","source":"Géoportail ANSTAT"}},{"type":"Feature","geometry":{"type":"Point","coordinates":[-6.451766999999961,6.885909000000026]},"properties":{"id":37532,"nom":"MAIRIE DE DALOA","type":"mairie","district_region":null,"departement_commune":null,"verifie":true,"name":"MAIRIE DE DALOA","source":"Géoportail ANSTAT"}},{"type":"Feature","geometry":{"type":"Point","coordinates":[-6.586229999999944,6.759863000000053]},"properties":{"id":37533,"nom":"MAIRIE DE GBOGUHE","type":"mairie","district_region":null,"departement_commune":null,"verifie":true,"name":"MAIRIE DE GBOGUHE","source":"Géoportail ANSTAT"}},{"type":"Feature","geometry":{"type":"Point","coordinates":[-6.590110999999979,6.487430000000074]},"properties":{"id":37534,"nom":"MAIRIE","type":"mairie","district_region":null,"departement_commune":null,"verifie":true,"name":"MAIRIE","source":"Géoportail ANSTAT"}},{"type":"Feature","geometry":{"type":"Point","coordinates":[-4.077827999999954,5.644812000000059]},"properties":{"id":37535,"nom":"MAIRIE D AZAGUIE","type":"mairie","district_region":null,"departement_commune":null,"verifie":true,"name":"MAIRIE D AZAGUIE","source":"Géoportail ANSTAT"}},{"type":"Feature","geometry":{"type":"Point","coordinates":[-7.315930999999978,8.288158000000067]},"properties":{"id":37536,"nom":"MAIRIE DE GUINTEGUELA","type":"mairie","district_region":null,"departement_commune":null,"verifie":true,"name":"MAIRIE DE GUINTEGUELA","source":"Géoportail ANSTAT"}},{"type":"Feature","geometry":{"type":"Point","coordinates":[-7.492570999999941,8.733037000000024]},"properties":{"id":37537,"nom":"MAIRIE DE BOROTOU","type":"mairie","district_region":null,"departement_commune":null,"verifie":true,"name":"MAIRIE DE BOROTOU","source":"Géoportail ANSTAT"}},{"type":"Feature","geometry":{"type":"Point","coordinates":[-7.788289999999961,8.870192000000031]},"properties":{"id":37538,"nom":"MAIRIE DE BOOKO","type":"mairie","district_region":null,"departement_commune":null,"verifie":true,"name":"MAIRIE DE BOOKO","source":"Géoportail ANSTAT"}},{"type":"Feature","geometry":{"type":"Point","coordinates":[-5.296720999999934,6.184088000000031]},"properties":{"id":37539,"nom":"MAIRIE DE HIRE","type":"mairie","district_region":null,"departement_commune":null,"verifie":true,"name":"MAIRIE DE HIRE","source":"Géoportail ANSTAT"}},{"type":"Feature","geometry":{"type":"Point","coordinates":[-5.241479999999967,5.519778000000031]},"properties":{"id":37540,"nom":"MAIRIE DE GUITRY","type":"mairie","district_region":null,"departement_commune":null,"verifie":true,"name":"MAIRIE DE GUITRY","source":"Géoportail ANSTAT"}},{"type":"Feature","geometry":{"type":"Point","coordinates":[-5.366480999999965,5.835537000000045]},"properties":{"id":37542,"nom":"MAIRIE DE DIVO","type":"mairie","district_region":null,"departement_commune":null,"verifie":true,"name":"MAIRIE DE DIVO","source":"Géoportail ANSTAT"}},{"type":"Feature","geometry":{"type":"Point","coordinates":[-6.464824999999962,9.759177000000022]},"properties":{"id":37543,"nom":"MAIRIE DE KOLIA","type":"mairie","district_region":null,"departement_commune":null,"verifie":true,"name":"MAIRIE DE KOLIA","source":"Géoportail ANSTAT"}},{"type":"Feature","geometry":{"type":"Point","coordinates":[-6.44756499999994,9.832215000000076]},"properties":{"id":37544,"nom":"MAIRIE DE GBON","type":"mairie","district_region":null,"departement_commune":null,"verifie":true,"name":"MAIRIE DE GBON","source":"Géoportail ANSTAT"}},{"type":"Feature","geometry":{"type":"Point","coordinates":[-6.21821099999994,9.825394000000074]},"properties":{"id":37545,"nom":"MAIRIE DE KASSERE","type":"mairie","district_region":null,"departement_commune":null,"verifie":true,"name":"MAIRIE DE KASSERE","source":"Géoportail ANSTAT"}},{"type":"Feature","geometry":{"type":"Point","coordinates":[-6.237473999999963,10.35872800000004]},"properties":{"id":37546,"nom":"MAIRIE DE KANAKONO","type":"mairie","district_region":null,"departement_commune":null,"verifie":true,"name":"MAIRIE DE KANAKONO","source":"Géoportail ANSTAT"}},{"type":"Feature","geometry":{"type":"Point","coordinates":[-6.166778999999963,8.069293000000073]},"properties":{"id":37547,"nom":"MAIRIE ANNEXE","type":"mairie","district_region":null,"departement_commune":null,"verifie":true,"name":"MAIRIE ANNEXE","source":"Géoportail ANSTAT"}},{"type":"Feature","geometry":{"type":"Point","coordinates":[-6.253873999999939,8.944682000000057]},"properties":{"id":37548,"nom":"MAIRIE DE DIANRA","type":"mairie","district_region":null,"departement_commune":null,"verifie":true,"name":"MAIRIE DE DIANRA","source":"Géoportail ANSTAT"}},{"type":"Feature","geometry":{"type":"Point","coordinates":[-7.20387999999997,10.01543700000008]},"properties":{"id":37549,"nom":"MAIRIE DE GOULIA","type":"mairie","district_region":null,"departement_commune":null,"verifie":true,"name":"MAIRIE DE GOULIA","source":"Géoportail ANSTAT"}},{"type":"Feature","geometry":{"type":"Point","coordinates":[-7.203862999999956,10.01542200000006]},"properties":{"id":37550,"nom":"MAIRIE DE GOULIA","type":"mairie","district_region":null,"departement_commune":null,"verifie":true,"name":"MAIRIE DE GOULIA","source":"Géoportail ANSTAT"}},{"type":"Feature","geometry":{"type":"Point","coordinates":[-7.482745999999963,10.22398500000003]},"properties":{"id":37551,"nom":"MAIRIE DE  TIENKO","type":"mairie","district_region":null,"departement_commune":null,"verifie":true,"name":"MAIRIE DE  TIENKO","source":"Géoportail ANSTAT"}},{"type":"Feature","geometry":{"type":"Point","coordinates":[-7.508674999999926,9.815976000000036]},"properties":{"id":37552,"nom":"MAIRIE DE KANIASSO","type":"mairie","district_region":null,"departement_commune":null,"verifie":true,"name":"MAIRIE DE KANIASSO","source":"Géoportail ANSTAT"}},{"type":"Feature","geometry":{"type":"Point","coordinates":[-3.405568999999957,6.079997000000049]},"properties":{"id":37553,"nom":"MAIRIE DE BETTIE","type":"mairie","district_region":null,"departement_commune":null,"verifie":true,"name":"MAIRIE DE BETTIE","source":"Géoportail ANSTAT"}},{"type":"Feature","geometry":{"type":"Point","coordinates":[-7.562028999999939,9.501015000000052]},"properties":{"id":37554,"nom":"MAIRIE D ODIENNE","type":"mairie","district_region":null,"departement_commune":null,"verifie":true,"name":"MAIRIE D ODIENNE","source":"Géoportail ANSTAT"}},{"type":"Feature","geometry":{"type":"Point","coordinates":[-7.239549999999952,8.979466000000059]},"properties":{"id":37555,"nom":"MAIRIE DE DIOULATIEDOUGOU","type":"mairie","district_region":null,"departement_commune":null,"verifie":true,"name":"MAIRIE DE DIOULATIEDOUGOU","source":"Géoportail ANSTAT"}},{"type":"Feature","geometry":{"type":"Point","coordinates":[-7.607501999999954,9.140070000000035]},"properties":{"id":37556,"nom":"MAIRIE DE BAKO","type":"mairie","district_region":null,"departement_commune":null,"verifie":true,"name":"MAIRIE DE BAKO","source":"Géoportail ANSTAT"}},{"type":"Feature","geometry":{"type":"Point","coordinates":[-8.126376999999934,9.582998000000032]},"properties":{"id":37557,"nom":"MAIRIE DE GBELEBAN","type":"mairie","district_region":null,"departement_commune":null,"verifie":true,"name":"MAIRIE DE GBELEBAN","source":"Géoportail ANSTAT"}},{"type":"Feature","geometry":{"type":"Point","coordinates":[-3.659291999999937,5.500756000000024]},"properties":{"id":37558,"nom":"MAIRIE D ALEPE","type":"mairie","district_region":null,"departement_commune":null,"verifie":true,"name":"MAIRIE D ALEPE","source":"Géoportail ANSTAT"}},{"type":"Feature","geometry":{"type":"Point","coordinates":[-3.860394999999926,6.098670000000027]},"properties":{"id":37559,"nom":"MAIRIE D ADZOPE","type":"mairie","district_region":null,"departement_commune":null,"verifie":true,"name":"MAIRIE D ADZOPE","source":"Géoportail ANSTAT"}},{"type":"Feature","geometry":{"type":"Point","coordinates":[-3.856209999999976,6.110749000000055]},"properties":{"id":37560,"nom":"MAIRIE D ADZOPE","type":"mairie","district_region":null,"departement_commune":null,"verifie":true,"name":"MAIRIE D ADZOPE","source":"Géoportail ANSTAT"}},{"type":"Feature","geometry":{"type":"Point","coordinates":[-3.953874999999925,6.318791000000033]},"properties":{"id":37561,"nom":"MAIRIE DE AFFERY","type":"mairie","district_region":null,"departement_commune":null,"verifie":true,"name":"MAIRIE DE AFFERY","source":"Géoportail ANSTAT"}},{"type":"Feature","geometry":{"type":"Point","coordinates":[-3.737082999999927,5.197070000000053]},"properties":{"id":37562,"nom":"MAIRIE DE GRAND BASSAM","type":"mairie","district_region":null,"departement_commune":null,"verifie":true,"name":"MAIRIE DE GRAND BASSAM","source":"Géoportail ANSTAT"}},{"type":"Feature","geometry":{"type":"Point","coordinates":[-5.16331299999996,9.067903000000058]},"properties":{"id":37563,"nom":"MAIRIE","type":"mairie","district_region":null,"departement_commune":null,"verifie":true,"name":"MAIRIE","source":"Géoportail ANSTAT"}},{"type":"Feature","geometry":{"type":"Point","coordinates":[-5.098293999999953,8.139702000000057]},"properties":{"id":37565,"nom":"MAIRIE DE KATIOLA","type":"mairie","district_region":null,"departement_commune":null,"verifie":true,"name":"MAIRIE DE KATIOLA","source":"Géoportail ANSTAT"}},{"type":"Feature","geometry":{"type":"Point","coordinates":[-4.648174999999981,8.640375000000063]},"properties":{"id":37567,"nom":"MAIRIE DE FOUMBOLO","type":"mairie","district_region":null,"departement_commune":null,"verifie":true,"name":"MAIRIE DE FOUMBOLO","source":"Géoportail ANSTAT"}},{"type":"Feature","geometry":{"type":"Point","coordinates":[-4.720309999999927,8.374043000000029]},"properties":{"id":37568,"nom":"MAIRIE DE BONIEREDOUGOU","type":"mairie","district_region":null,"departement_commune":null,"verifie":true,"name":"MAIRIE DE BONIEREDOUGOU","source":"Géoportail ANSTAT"}},{"type":"Feature","geometry":{"type":"Point","coordinates":[-4.527901999999926,7.896375000000035]},"properties":{"id":37569,"nom":"MAIRIE","type":"mairie","district_region":null,"departement_commune":null,"verifie":true,"name":"MAIRIE","source":"Géoportail ANSTAT"}},{"type":"Feature","geometry":{"type":"Point","coordinates":[-4.102210999999954,8.04845400000005]},"properties":{"id":37570,"nom":"MAIRIE DE BASSAWA","type":"mairie","district_region":null,"departement_commune":null,"verifie":true,"name":"MAIRIE DE BASSAWA","source":"Géoportail ANSTAT"}},{"type":"Feature","geometry":{"type":"Point","coordinates":[-4.428022999999939,8.360715000000027]},"properties":{"id":37571,"nom":"MAIRIE DE DABAKALA","type":"mairie","district_region":null,"departement_commune":null,"verifie":true,"name":"MAIRIE DE DABAKALA","source":"Géoportail ANSTAT"}},{"type":"Feature","geometry":{"type":"Point","coordinates":[-8.150168999999948,7.268308000000047]},"properties":{"id":37572,"nom":"MAIRIE DE DANANE","type":"mairie","district_region":null,"departement_commune":null,"verifie":true,"name":"MAIRIE DE DANANE","source":"Géoportail ANSTAT"}},{"type":"Feature","geometry":{"type":"Point","coordinates":[-7.615005999999937,7.738979000000029]},"properties":{"id":37573,"nom":"MAIRIE DE BIANKOUMA","type":"mairie","district_region":null,"departement_commune":null,"verifie":true,"name":"MAIRIE DE BIANKOUMA","source":"Géoportail ANSTAT"}},{"type":"Feature","geometry":{"type":"Point","coordinates":[-8.31462799999997,6.783195000000035]},"properties":{"id":37574,"nom":"MAIRIE DE BIN HOUYE","type":"mairie","district_region":null,"departement_commune":null,"verifie":true,"name":"MAIRIE DE BIN HOUYE","source":"Géoportail ANSTAT"}},{"type":"Feature","geometry":{"type":"Point","coordinates":[-3.967926999999975,7.055603000000076]},"properties":{"id":37576,"nom":"MAIRIE DE DAOUKRO","type":"mairie","district_region":null,"departement_commune":null,"verifie":true,"name":"MAIRIE DE DAOUKRO","source":"Géoportail ANSTAT"}},{"type":"Feature","geometry":{"type":"Point","coordinates":[-3.762873999999954,7.257200000000068]},"properties":{"id":37577,"nom":"MAIRIE D ETROKRO","type":"mairie","district_region":null,"departement_commune":null,"verifie":true,"name":"MAIRIE D ETROKRO","source":"Géoportail ANSTAT"}},{"type":"Feature","geometry":{"type":"Point","coordinates":[-5.625065999999947,10.19895600000007]},"properties":{"id":37578,"nom":"MAIRIE DE NIELLE","type":"mairie","district_region":null,"departement_commune":null,"verifie":true,"name":"MAIRIE DE NIELLE","source":"Géoportail ANSTAT"}},{"type":"Feature","geometry":{"type":"Point","coordinates":[-7.357064999999977,4.412789000000032]},"properties":{"id":37579,"nom":"MAIRIE DE TABOU","type":"mairie","district_region":null,"departement_commune":null,"verifie":true,"name":"MAIRIE DE TABOU","source":"Géoportail ANSTAT"}},{"type":"Feature","geometry":{"type":"Point","coordinates":[-5.632668999999964,9.364105000000052]},"properties":{"id":37580,"nom":"MAIRIE DE TIORONIARADOUGOU","type":"mairie","district_region":null,"departement_commune":null,"verifie":true,"name":"MAIRIE DE TIORONIARADOUGOU","source":"Géoportail ANSTAT"}},{"type":"Feature","geometry":{"type":"Point","coordinates":[-6.09884999999997,9.275600000000054]},"properties":{"id":37581,"nom":"MAIRIE DE SIRASSO","type":"mairie","district_region":null,"departement_commune":null,"verifie":true,"name":"MAIRIE DE SIRASSO","source":"Géoportail ANSTAT"}},{"type":"Feature","geometry":{"type":"Point","coordinates":[-6.076329999999928,9.608370000000036]},"properties":{"id":37582,"nom":"MAIRIE DE NIOFOIN","type":"mairie","district_region":null,"departement_commune":null,"verifie":true,"name":"MAIRIE DE NIOFOIN","source":"Géoportail ANSTAT"}},{"type":"Feature","geometry":{"type":"Point","coordinates":[-5.383833999999979,9.57702000000006]},"properties":{"id":37583,"nom":"MAIRIE DE SINEMATIALI","type":"mairie","district_region":null,"departement_commune":null,"verifie":true,"name":"MAIRIE DE SINEMATIALI","source":"Géoportail ANSTAT"}},{"type":"Feature","geometry":{"type":"Point","coordinates":[-6.548430999999937,5.395043000000044]},"properties":{"id":37584,"nom":"MAIRIE DE MIAGUI","type":"mairie","district_region":null,"departement_commune":null,"verifie":true,"name":"MAIRIE DE MIAGUI","source":"Géoportail ANSTAT"}},{"type":"Feature","geometry":{"type":"Point","coordinates":[-6.547229999999956,5.395259000000067]},"properties":{"id":37585,"nom":"MAIRIE TECHNIQUE MIAGUI","type":"mairie","district_region":null,"departement_commune":null,"verifie":true,"name":"MAIRIE TECHNIQUE MIAGUI","source":"Géoportail ANSTAT"}},{"type":"Feature","geometry":{"type":"Point","coordinates":[-6.600652999999966,5.787695000000042]},"properties":{"id":37586,"nom":"MAIRIE SOUBRE","type":"mairie","district_region":null,"departement_commune":null,"verifie":true,"name":"MAIRIE SOUBRE","source":"Géoportail ANSTAT"}},{"type":"Feature","geometry":{"type":"Point","coordinates":[-6.60066699999993,5.78707600000007]},"properties":{"id":37587,"nom":"MAIRIE SOUBRE","type":"mairie","district_region":null,"departement_commune":null,"verifie":true,"name":"MAIRIE SOUBRE","source":"Géoportail ANSTAT"}},{"type":"Feature","geometry":{"type":"Point","coordinates":[-6.598689999999976,5.783742000000075]},"properties":{"id":37588,"nom":"MAIRIE TECHNIQUE","type":"mairie","district_region":null,"departement_commune":null,"verifie":true,"name":"MAIRIE TECHNIQUE","source":"Géoportail ANSTAT"}},{"type":"Feature","geometry":{"type":"Point","coordinates":[-6.536939999999959,6.112423000000035]},"properties":{"id":37589,"nom":"MAIRIE GRAND ZATTRY","type":"mairie","district_region":null,"departement_commune":null,"verifie":true,"name":"MAIRIE GRAND ZATTRY","source":"Géoportail ANSTAT"}},{"type":"Feature","geometry":{"type":"Point","coordinates":[-6.588746999999955,5.783806000000027]},"properties":{"id":37590,"nom":"MAIRIE DE SOUBRE","type":"mairie","district_region":null,"departement_commune":null,"verifie":true,"name":"MAIRIE DE SOUBRE","source":"Géoportail ANSTAT"}},{"type":"Feature","geometry":{"type":"Point","coordinates":[-3.97069399999998,6.678297000000043]},"properties":{"id":37591,"nom":"MAIRIE TECHNIQUE ET SOCIO CULTUREL D ARRAH","type":"mairie","district_region":null,"departement_commune":null,"verifie":true,"name":"MAIRIE TECHNIQUE ET SOCIO CULTUREL D ARRAH","source":"Géoportail ANSTAT"}},{"type":"Feature","geometry":{"type":"Point","coordinates":[-4.62306499999994,6.499970000000076]},"properties":{"id":37592,"nom":"MAIRIE TIEMELEKRO","type":"mairie","district_region":null,"departement_commune":null,"verifie":true,"name":"MAIRIE TIEMELEKRO","source":"Géoportail ANSTAT"}},{"type":"Feature","geometry":{"type":"Point","coordinates":[-7.234568999999965,7.252263000000028]},"properties":{"id":37593,"nom":"MAIRIE DE KOUIBLY","type":"mairie","district_region":null,"departement_commune":null,"verifie":true,"name":"MAIRIE DE KOUIBLY","source":"Géoportail ANSTAT"}},{"type":"Feature","geometry":{"type":"Point","coordinates":[-5.93509599999993,6.124484000000052]},"properties":{"id":37594,"nom":"MAIRIE TECHNIQUE","type":"mairie","district_region":null,"departement_commune":null,"verifie":true,"name":"MAIRIE TECHNIQUE","source":"Géoportail ANSTAT"}},{"type":"Feature","geometry":{"type":"Point","coordinates":[-5.931642999999951,6.305268000000069]},"properties":{"id":37595,"nom":"MAIRIE DE OURAGAHIO","type":"mairie","district_region":null,"departement_commune":null,"verifie":true,"name":"MAIRIE DE OURAGAHIO","source":"Géoportail ANSTAT"}},{"type":"Feature","geometry":{"type":"Point","coordinates":[-5.419918999999936,6.381521000000021]},"properties":{"id":37596,"nom":"MAIRIE DE OUME","type":"mairie","district_region":null,"departement_commune":null,"verifie":true,"name":"MAIRIE DE OUME","source":"Géoportail ANSTAT"}},{"type":"Feature","geometry":{"type":"Point","coordinates":[-5.01855699999993,6.554308000000049]},"properties":{"id":37597,"nom":"MAIRIE DE TOUMODI","type":"mairie","district_region":null,"departement_commune":null,"verifie":true,"name":"MAIRIE DE TOUMODI","source":"Géoportail ANSTAT"}},{"type":"Feature","geometry":{"type":"Point","coordinates":[-5.22446199999996,7.157963000000052]},"properties":{"id":37598,"nom":"MAIRIE DE TIEBISSOU","type":"mairie","district_region":null,"departement_commune":null,"verifie":true,"name":"MAIRIE DE TIEBISSOU","source":"Géoportail ANSTAT"}},{"type":"Feature","geometry":{"type":"Point","coordinates":[-4.897415999999964,7.129709000000048]},"properties":{"id":37599,"nom":"MAIRIE DIDIEVI","type":"mairie","district_region":null,"departement_commune":null,"verifie":true,"name":"MAIRIE DIDIEVI","source":"Géoportail ANSTAT"}},{"type":"Feature","geometry":{"type":"Point","coordinates":[-4.193416999999954,5.323454000000027]},"properties":{"id":37600,"nom":"MAIRIE DE SONGON","type":"mairie","district_region":null,"departement_commune":null,"verifie":true,"name":"MAIRIE DE SONGON","source":"Géoportail ANSTAT"}},{"type":"Feature","geometry":{"type":"Point","coordinates":[-4.173617999999976,5.339963000000068]},"properties":{"id":37601,"nom":"MAIRIE DE SONGON","type":"mairie","district_region":null,"departement_commune":null,"verifie":true,"name":"MAIRIE DE SONGON","source":"Géoportail ANSTAT"}},{"type":"Feature","geometry":{"type":"Point","coordinates":[-3.585333999999932,7.955128000000059]},"properties":{"id":37602,"nom":"MAIRIE DE SANDEGUE","type":"mairie","district_region":null,"departement_commune":null,"verifie":true,"name":"MAIRIE DE SANDEGUE","source":"Géoportail ANSTAT"}},{"type":"Feature","geometry":{"type":"Point","coordinates":[-3.011069999999961,7.555941000000075]},"properties":{"id":37603,"nom":"MAIRIE DE TRANSUA","type":"mairie","district_region":null,"departement_commune":null,"verifie":true,"name":"MAIRIE DE TRANSUA","source":"Géoportail ANSTAT"}},{"type":"Feature","geometry":{"type":"Point","coordinates":[-3.167414999999949,7.801574000000073]},"properties":{"id":37604,"nom":"MAIRIE DE TANDA","type":"mairie","district_region":null,"departement_commune":null,"verifie":true,"name":"MAIRIE DE TANDA","source":"Géoportail ANSTAT"}},{"type":"Feature","geometry":{"type":"Point","coordinates":[-3.17119699999995,7.795463000000041]},"properties":{"id":37605,"nom":"MAIRIE TECHNIQUE","type":"mairie","district_region":null,"departement_commune":null,"verifie":true,"name":"MAIRIE TECHNIQUE","source":"Géoportail ANSTAT"}},{"type":"Feature","geometry":{"type":"Point","coordinates":[-6.90555999999998,8.272646000000066]},"properties":{"id":37606,"nom":"MAIRIE DE WOROFLA","type":"mairie","district_region":null,"departement_commune":null,"verifie":true,"name":"MAIRIE DE WOROFLA","source":"Géoportail ANSTAT"}},{"type":"Feature","geometry":{"type":"Point","coordinates":[-6.92554999999993,7.978126000000032]},"properties":{"id":37607,"nom":"MAIRIE DE SIFIE","type":"mairie","district_region":null,"departement_commune":null,"verifie":true,"name":"MAIRIE DE SIFIE","source":"Géoportail ANSTAT"}},{"type":"Feature","geometry":{"type":"Point","coordinates":[-6.783731999999929,8.953954000000067]},"properties":{"id":37608,"nom":"MAIRIE DE MORONDO","type":"mairie","district_region":null,"departement_commune":null,"verifie":true,"name":"MAIRIE DE MORONDO","source":"Géoportail ANSTAT"}},{"type":"Feature","geometry":{"type":"Point","coordinates":[-6.441703999999959,7.898613000000068]},"properties":{"id":37609,"nom":"MAIRIE DE MASSALA","type":"mairie","district_region":null,"departement_commune":null,"verifie":true,"name":"MAIRIE DE MASSALA","source":"Géoportail ANSTAT"}},{"type":"Feature","geometry":{"type":"Point","coordinates":[-6.670108999999968,7.962142000000028]},"properties":{"id":37610,"nom":"MAIRIE DE SEGUELA","type":"mairie","district_region":null,"departement_commune":null,"verifie":true,"name":"MAIRIE DE SEGUELA","source":"Géoportail ANSTAT"}},{"type":"Feature","geometry":{"type":"Point","coordinates":[-6.04886799999997,7.431973000000028]},"properties":{"id":37611,"nom":"MAIRIE DE ZUENOULA","type":"mairie","district_region":null,"departement_commune":null,"verifie":true,"name":"MAIRIE DE ZUENOULA","source":"Géoportail ANSTAT"}},{"type":"Feature","geometry":{"type":"Point","coordinates":[-5.915309999999977,6.620658000000049]},"properties":{"id":37612,"nom":"MAIRIE DE SINFRA","type":"mairie","district_region":null,"departement_commune":null,"verifie":true,"name":"MAIRIE DE SINFRA","source":"Géoportail ANSTAT"}},{"type":"Feature","geometry":{"type":"Point","coordinates":[-5.28937099999996,7.449648000000025]},"properties":{"id":37614,"nom":"MAIRIE DE SAKASSOU","type":"mairie","district_region":null,"departement_commune":null,"verifie":true,"name":"MAIRIE DE SAKASSOU","source":"Géoportail ANSTAT"}},{"type":"Feature","geometry":{"type":"Point","coordinates":[-3.471351999999968,8.45399800000007]},"properties":{"id":37615,"nom":"MAIRIE DE NASSIAN","type":"mairie","district_region":null,"departement_commune":null,"verifie":true,"name":"MAIRIE DE NASSIAN","source":"Géoportail ANSTAT"}},{"type":"Feature","geometry":{"type":"Point","coordinates":[-7.45657099999994,5.874600000000044]},"properties":{"id":37616,"nom":"MAIRIE DE TAI","type":"mairie","district_region":null,"departement_commune":null,"verifie":true,"name":"MAIRIE DE TAI","source":"Géoportail ANSTAT"}},{"type":"Feature","geometry":{"type":"Point","coordinates":[-8.416999999999973,6.580156000000045]},"properties":{"id":37617,"nom":"MAIRIE DE TOULEUPLEU","type":"mairie","district_region":null,"departement_commune":null,"verifie":true,"name":"MAIRIE DE TOULEUPLEU","source":"Géoportail ANSTAT"}},{"type":"Feature","geometry":{"type":"Point","coordinates":[-6.480629999999962,7.379189000000054]},"properties":{"id":37618,"nom":"MAIRIE DE VAVOUA","type":"mairie","district_region":null,"departement_commune":null,"verifie":true,"name":"MAIRIE DE VAVOUA","source":"Géoportail ANSTAT"}},{"type":"Feature","geometry":{"type":"Point","coordinates":[-6.453093999999965,6.889828000000023]},"properties":{"id":37619,"nom":"MAIRIE TECHNIQUE","type":"mairie","district_region":null,"departement_commune":null,"verifie":true,"name":"MAIRIE TECHNIQUE","source":"Géoportail ANSTAT"}},{"type":"Feature","geometry":{"type":"Point","coordinates":[-6.860165999999936,6.767362000000048]},"properties":{"id":37620,"nom":"MAIRIE DE ZOUKOUGBEU","type":"mairie","district_region":null,"departement_commune":null,"verifie":true,"name":"MAIRIE DE ZOUKOUGBEU","source":"Géoportail ANSTAT"}},{"type":"Feature","geometry":{"type":"Point","coordinates":[-6.260838999999976,6.490782000000024]},"properties":{"id":37621,"nom":"MAIRIE DE SAIOUA","type":"mairie","district_region":null,"departement_commune":null,"verifie":true,"name":"MAIRIE DE SAIOUA","source":"Géoportail ANSTAT"}},{"type":"Feature","geometry":{"type":"Point","coordinates":[-6.281856999999945,6.481749000000036]},"properties":{"id":37622,"nom":"MAIRIE TECHNIQUE","type":"mairie","district_region":null,"departement_commune":null,"verifie":true,"name":"MAIRIE TECHNIQUE","source":"Géoportail ANSTAT"}},{"type":"Feature","geometry":{"type":"Point","coordinates":[-4.783027999999945,5.872347000000048]},"properties":{"id":37623,"nom":"MAIRIE DE NDOUCI","type":"mairie","district_region":null,"departement_commune":null,"verifie":true,"name":"MAIRIE DE NDOUCI","source":"Géoportail ANSTAT"}},{"type":"Feature","geometry":{"type":"Point","coordinates":[-5.07085799999993,6.266497000000072]},"properties":{"id":37624,"nom":"MAIRIE DE TAABO","type":"mairie","district_region":null,"departement_commune":null,"verifie":true,"name":"MAIRIE DE TAABO","source":"Géoportail ANSTAT"}},{"type":"Feature","geometry":{"type":"Point","coordinates":[-4.823206999999968,5.900740000000042]},"properties":{"id":37625,"nom":"MAIRIE DE TIASSALE","type":"mairie","district_region":null,"departement_commune":null,"verifie":true,"name":"MAIRIE DE TIASSALE","source":"Géoportail ANSTAT"}},{"type":"Feature","geometry":{"type":"Point","coordinates":[-7.691461999999945,8.285101000000054]},"properties":{"id":37626,"nom":"MAIRIE DE TOUBA","type":"mairie","district_region":null,"departement_commune":null,"verifie":true,"name":"MAIRIE DE TOUBA","source":"Géoportail ANSTAT"}},{"type":"Feature","geometry":{"type":"Point","coordinates":[-7.872789999999952,8.240857000000062]},"properties":{"id":37627,"nom":"MAIRIE DE OUANINOU","type":"mairie","district_region":null,"departement_commune":null,"verifie":true,"name":"MAIRIE DE OUANINOU","source":"Géoportail ANSTAT"}},{"type":"Feature","geometry":{"type":"Point","coordinates":[-7.971739999999954,8.363301000000035]},"properties":{"id":37628,"nom":"MAIRIE DE KOONAN","type":"mairie","district_region":null,"departement_commune":null,"verifie":true,"name":"MAIRIE DE KOONAN","source":"Géoportail ANSTAT"}},{"type":"Feature","geometry":{"type":"Point","coordinates":[-5.683423999999945,5.859137000000032]},"properties":{"id":37629,"nom":"MAIRIE DE LAKOTA","type":"mairie","district_region":null,"departement_commune":null,"verifie":true,"name":"MAIRIE DE LAKOTA","source":"Géoportail ANSTAT"}},{"type":"Feature","geometry":{"type":"Point","coordinates":[-6.414729999999963,9.889546000000053]},"properties":{"id":37630,"nom":"MAIRIE DE KOUTO","type":"mairie","district_region":null,"departement_commune":null,"verifie":true,"name":"MAIRIE DE KOUTO","source":"Géoportail ANSTAT"}},{"type":"Feature","geometry":{"type":"Point","coordinates":[-6.408961999999974,10.48763800000006]},"properties":{"id":37631,"nom":"MAIRIE DE TENGRELA","type":"mairie","district_region":null,"departement_commune":null,"verifie":true,"name":"MAIRIE DE TENGRELA","source":"Géoportail ANSTAT"}},{"type":"Feature","geometry":{"type":"Point","coordinates":[-6.170206999999948,8.415184000000067]},"properties":{"id":37632,"nom":"MAIRIE DE SAHRALA","type":"mairie","district_region":null,"departement_commune":null,"verifie":true,"name":"MAIRIE DE SAHRALA","source":"Géoportail ANSTAT"}},{"type":"Feature","geometry":{"type":"Point","coordinates":[-6.190335999999945,8.06173700000005]},"properties":{"id":37633,"nom":"MAIRIE DE MANKONO","type":"mairie","district_region":null,"departement_commune":null,"verifie":true,"name":"MAIRIE DE MANKONO","source":"Géoportail ANSTAT"}},{"type":"Feature","geometry":{"type":"Point","coordinates":[-7.83685799999995,9.999679000000071]},"properties":{"id":37634,"nom":"MAIRIE DE MINIGNAN","type":"mairie","district_region":null,"departement_commune":null,"verifie":true,"name":"MAIRIE DE MINIGNAN","source":"Géoportail ANSTAT"}},{"type":"Feature","geometry":{"type":"Point","coordinates":[-7.834787999999946,10.00014600000003]},"properties":{"id":37635,"nom":"MAIRIE DE MINIGNAN","type":"mairie","district_region":null,"departement_commune":null,"verifie":true,"name":"MAIRIE DE MINIGNAN","source":"Géoportail ANSTAT"}},{"type":"Feature","geometry":{"type":"Point","coordinates":[-3.267544999999927,6.656078000000036]},"properties":{"id":37636,"nom":"MAIRIE DE NIABLE","type":"mairie","district_region":null,"departement_commune":null,"verifie":true,"name":"MAIRIE DE NIABLE","source":"Géoportail ANSTAT"}},{"type":"Feature","geometry":{"type":"Point","coordinates":[-7.12140299999993,9.35621100000003]},"properties":{"id":37637,"nom":"MAIRIE DE SEGUELON","type":"mairie","district_region":null,"departement_commune":null,"verifie":true,"name":"MAIRIE DE SEGUELON","source":"Géoportail ANSTAT"}},{"type":"Feature","geometry":{"type":"Point","coordinates":[-7.320524999999975,9.545833000000073]},"properties":{"id":37638,"nom":"MAIRIE DE TIEME","type":"mairie","district_region":null,"departement_commune":null,"verifie":true,"name":"MAIRIE DE TIEME","source":"Géoportail ANSTAT"}},{"type":"Feature","geometry":{"type":"Point","coordinates":[-7.975831999999969,9.506887000000065]},"properties":{"id":37639,"nom":"MAIRIE DE SEYDOUGOU","type":"mairie","district_region":null,"departement_commune":null,"verifie":true,"name":"MAIRIE DE SEYDOUGOU","source":"Géoportail ANSTAT"}},{"type":"Feature","geometry":{"type":"Point","coordinates":[-3.014665999999977,5.137902000000054]},"properties":{"id":37640,"nom":"MAIRIE DE TIAPOUM","type":"mairie","district_region":null,"departement_commune":null,"verifie":true,"name":"MAIRIE DE TIAPOUM","source":"Géoportail ANSTAT"}},{"type":"Feature","geometry":{"type":"Point","coordinates":[-3.037160999999969,5.406250000000057]},"properties":{"id":37641,"nom":"MAIRIE DE MAFERE","type":"mairie","district_region":null,"departement_commune":null,"verifie":true,"name":"MAIRIE DE MAFERE","source":"Géoportail ANSTAT"}},{"type":"Feature","geometry":{"type":"Point","coordinates":[-5.287324999999953,8.659962000000064]},"properties":{"id":37642,"nom":"MAIRIE DE NIAKARA","type":"mairie","district_region":null,"departement_commune":null,"verifie":true,"name":"MAIRIE DE NIAKARA","source":"Géoportail ANSTAT"}},{"type":"Feature","geometry":{"type":"Point","coordinates":[-5.682128999999975,8.761165000000062]},"properties":{"id":37643,"nom":"MAIRIE DE TORTIYA","type":"mairie","district_region":null,"departement_commune":null,"verifie":true,"name":"MAIRIE DE TORTIYA","source":"Géoportail ANSTAT"}},{"type":"Feature","geometry":{"type":"Point","coordinates":[-7.778257999999937,7.271489000000031]},"properties":{"id":37644,"nom":"MAIRIE DE SANGOUINE","type":"mairie","district_region":null,"departement_commune":null,"verifie":true,"name":"MAIRIE DE SANGOUINE","source":"Géoportail ANSTAT"}},{"type":"Feature","geometry":{"type":"Point","coordinates":[-8.205851999999936,6.919578000000058]},"properties":{"id":37646,"nom":"MAIRIE DE ZOUAN HOUNIEN","type":"mairie","district_region":null,"departement_commune":null,"verifie":true,"name":"MAIRIE DE ZOUAN HOUNIEN","source":"Géoportail ANSTAT"}},{"type":"Feature","geometry":{"type":"Point","coordinates":[-3.99560299999996,7.654062000000067]},"properties":{"id":37647,"nom":"MAIRIE DE PRIKRO","type":"mairie","district_region":null,"departement_commune":null,"verifie":true,"name":"MAIRIE DE PRIKRO","source":"Géoportail ANSTAT"}},{"type":"Feature","geometry":{"type":"Point","coordinates":[-4.01368999999994,7.297356000000036]},"properties":{"id":37648,"nom":"MAIRIE DE OUELLE","type":"mairie","district_region":null,"departement_commune":null,"verifie":true,"name":"MAIRIE DE OUELLE","source":"Géoportail ANSTAT"}},{"type":"Feature","geometry":{"type":"Point","coordinates":[-5.591229999999939,9.29166200000003]},"properties":{"id":37650,"nom":"MARIE DE NAPIE","type":"mairie","district_region":null,"departement_commune":null,"verifie":true,"name":"MARIE DE NAPIE","source":"Géoportail ANSTAT"}},{"type":"Feature","geometry":{"type":"Point","coordinates":[-6.095965999999976,4.945099000000027]},"properties":{"id":37651,"nom":"MARIE DE SASSANDRA","type":"mairie","district_region":null,"departement_commune":null,"verifie":true,"name":"MARIE DE SASSANDRA","source":"Géoportail ANSTAT"}},{"type":"Feature","geometry":{"type":"Point","coordinates":[-6.997368999999935,8.761901000000023]},"properties":{"id":37652,"nom":"MARIE DE DJIBROSSO","type":"mairie","district_region":null,"departement_commune":null,"verifie":true,"name":"MARIE DE DJIBROSSO","source":"Géoportail ANSTAT"}},{"type":"Feature","geometry":{"type":"Point","coordinates":[-6.48067599999996,9.51951500000007]},"properties":{"id":37653,"nom":"MARIE","type":"mairie","district_region":null,"departement_commune":null,"verifie":true,"name":"MARIE","source":"Géoportail ANSTAT"}},{"type":"Feature","geometry":{"type":"Point","coordinates":[-5.72306599999996,8.17984800000005]},"properties":{"id":37654,"nom":"MARIE DE TIENINGBOUE","type":"mairie","district_region":null,"departement_commune":null,"verifie":true,"name":"MARIE DE TIENINGBOUE","source":"Géoportail ANSTAT"}},{"type":"Feature","geometry":{"type":"Point","coordinates":[-6.256915999999933,8.952800000000025]},"properties":{"id":37655,"nom":"MARIE DE DIARAN","type":"mairie","district_region":null,"departement_commune":null,"verifie":true,"name":"MARIE DE DIARAN","source":"Géoportail ANSTAT"}},{"type":"Feature","geometry":{"type":"Point","coordinates":[-3.94529499999993,5.983151000000021]},"properties":{"id":37656,"nom":"MARIE D AGOU","type":"mairie","district_region":null,"departement_commune":null,"verifie":true,"name":"MARIE D AGOU","source":"Géoportail ANSTAT"}},{"type":"Feature","geometry":{"type":"Point","coordinates":[-3.887911999999972,6.392684000000031]},"properties":{"id":37657,"nom":"MARIE D AKOUPE","type":"mairie","district_region":null,"departement_commune":null,"verifie":true,"name":"MARIE D AKOUPE","source":"Géoportail ANSTAT"}},{"type":"Feature","geometry":{"type":"Point","coordinates":[-5.00264999999996,5.251225000000034]},"properties":{"id":37864,"nom":"NOUVELLE MAIRIE DE GRAND LAHOU","type":"mairie","district_region":null,"departement_commune":null,"verifie":true,"name":"NOUVELLE MAIRIE DE GRAND LAHOU","source":"Géoportail ANSTAT"}},{"type":"Feature","geometry":{"type":"Point","coordinates":[-4.315780999999959,6.070847000000072]},"properties":{"id":37882,"nom":"NOUVELLE MAIRIE DE RUBINO","type":"mairie","district_region":null,"departement_commune":null,"verifie":true,"name":"NOUVELLE MAIRIE DE RUBINO","source":"Géoportail ANSTAT"}},{"type":"Feature","geometry":{"type":"Point","coordinates":[-6.25408299999998,8.94521700000007]},"properties":{"id":37885,"nom":"NOUVELLE MAIRIE EN FINISSION","type":"mairie","district_region":null,"departement_commune":null,"verifie":true,"name":"NOUVELLE MAIRIE EN FINISSION","source":"Géoportail ANSTAT"}},{"type":"Feature","geometry":{"type":"Point","coordinates":[-7.563668999999948,9.813112000000046]},"properties":{"id":37890,"nom":"NOUVELLE MAIRIE","type":"mairie","district_region":null,"departement_commune":null,"verifie":true,"name":"NOUVELLE MAIRIE","source":"Géoportail ANSTAT"}},{"type":"Feature","geometry":{"type":"Point","coordinates":[-6.589045999999939,6.489111000000037]},"properties":{"id":38665,"nom":"SALLE DES FETES","type":"mairie","district_region":null,"departement_commune":null,"verifie":true,"name":"SALLE DES FETES","source":"Géoportail ANSTAT"}},{"type":"Feature","geometry":{"type":"Point","coordinates":[-6.92336599999993,4.650944000000038]},"properties":{"id":38697,"nom":"SERVICE TECHNIQUE MAIRIE","type":"mairie","district_region":null,"departement_commune":null,"verifie":true,"name":"SERVICE TECHNIQUE MAIRIE","source":"Géoportail ANSTAT"}},{"type":"Feature","geometry":{"type":"Point","coordinates":[-4.421361999999931,5.202653000000055]},"properties":{"id":38707,"nom":"SERVICE TECHNIQUE DE LA MAIRIE DE JACQUEVILLE","type":"mairie","district_region":null,"departement_commune":null,"verifie":true,"name":"SERVICE TECHNIQUE DE LA MAIRIE DE JACQUEVILLE","source":"Géoportail ANSTAT"}},{"type":"Feature","geometry":{"type":"Point","coordinates":[-6.675240999999971,7.960882000000026]},"properties":{"id":38719,"nom":"SERVICES TECHNIQUES","type":"mairie","district_region":null,"departement_commune":null,"verifie":true,"name":"SERVICES TECHNIQUES","source":"Géoportail ANSTAT"}},{"type":"Feature","geometry":{"type":"Point","coordinates":[-6.480512999999974,9.519669000000022]},"properties":{"id":38733,"nom":"SERVICE TECHNIQUE","type":"mairie","district_region":null,"departement_commune":null,"verifie":true,"name":"SERVICE TECHNIQUE","source":"Géoportail ANSTAT"}},{"type":"Feature","geometry":{"type":"Point","coordinates":[-3.310750999999925,5.288458000000048]},"properties":{"id":38740,"nom":"SERVICE TECHNIQUE DE LA MAIRIE","type":"mairie","district_region":null,"departement_commune":null,"verifie":true,"name":"SERVICE TECHNIQUE DE LA MAIRIE","source":"Géoportail ANSTAT"}},{"type":"Feature","geometry":{"type":"Point","coordinates":[-3.211234999999931,5.465485000000058]},"properties":{"id":38741,"nom":"SERVICE TECHNIQUE DE LA MAIRIE ABOISSO","type":"mairie","district_region":null,"departement_commune":null,"verifie":true,"name":"SERVICE TECHNIQUE DE LA MAIRIE ABOISSO","source":"Géoportail ANSTAT"}},{"type":"Feature","geometry":{"type":"Point","coordinates":[-3.211360999999954,5.465587000000028]},"properties":{"id":38742,"nom":"SERVICE TECHNIQUE DE LA MAIRIE ABOISSO","type":"mairie","district_region":null,"departement_commune":null,"verifie":true,"name":"SERVICE TECHNIQUE DE LA MAIRIE ABOISSO","source":"Géoportail ANSTAT"}},{"type":"Feature","geometry":{"type":"Point","coordinates":[-4.363790999999935,7.898749000000066]},"properties":{"id":38747,"nom":"SERVICE TECHNIQUE DE LA MAIRIE DE SATAMA SOKOURA","type":"mairie","district_region":null,"departement_commune":null,"verifie":true,"name":"SERVICE TECHNIQUE DE LA MAIRIE DE SATAMA SOKOURA","source":"Géoportail ANSTAT"}},{"type":"Feature","geometry":{"type":"Point","coordinates":[-4.767684999999972,7.427163000000064]},"properties":{"id":39204,"nom":"TIE NDIEKRO","type":"mairie","district_region":null,"departement_commune":null,"verifie":true,"name":"TIE NDIEKRO","source":"Géoportail ANSTAT"}},{"type":"Feature","geometry":{"type":"Point","coordinates":[-4.016314999999963,5.420817000000056]},"properties":{"id":39992,"nom":"LA MAIRIE D ABOBO","type":"mairie","district_region":null,"departement_commune":null,"verifie":true,"name":"LA MAIRIE D ABOBO","source":"Géoportail ANSTAT"}},{"type":"Feature","geometry":{"type":"Point","coordinates":[-4.004186999999945,5.332345000000032]},"properties":{"id":40106,"nom":"MAIRIE COMMUNALE DE COCODY","type":"mairie","district_region":null,"departement_commune":null,"verifie":true,"name":"MAIRIE COMMUNALE DE COCODY","source":"Géoportail ANSTAT"}},{"type":"Feature","geometry":{"type":"Point","coordinates":[-3.88975899999997,5.356997000000035]},"properties":{"id":40146,"nom":"MAIRIE DE BINGERVILLE","type":"mairie","district_region":null,"departement_commune":null,"verifie":true,"name":"MAIRIE DE BINGERVILLE","source":"Géoportail ANSTAT"}},{"type":"Feature","geometry":{"type":"Point","coordinates":[-4.092010999999957,5.326889000000051]},"properties":{"id":40207,"nom":"MAIRE ANNEXE","type":"mairie","district_region":null,"departement_commune":null,"verifie":true,"name":"MAIRE ANNEXE","source":"Géoportail ANSTAT"}},{"type":"Feature","geometry":{"type":"Point","coordinates":[-4.076215999999931,5.33072100000004]},"properties":{"id":40211,"nom":"MAIRIE TECHNIQUE SIDRCI LEM","type":"mairie","district_region":null,"departement_commune":null,"verifie":true,"name":"MAIRIE TECHNIQUE SIDRCI LEM","source":"Géoportail ANSTAT"}},{"type":"Feature","geometry":{"type":"Point","coordinates":[-4.05360399999995,5.326659000000063]},"properties":{"id":40225,"nom":"MAIRIE ANNEXE TOIT ROUGE","type":"mairie","district_region":null,"departement_commune":null,"verifie":true,"name":"MAIRIE ANNEXE TOIT ROUGE","source":"Géoportail ANSTAT"}},{"type":"Feature","geometry":{"type":"Point","coordinates":[-4.026491999999962,5.34281100000004]},"properties":{"id":40260,"nom":"MAIRIE D ADJAME","type":"mairie","district_region":null,"departement_commune":null,"verifie":true,"name":"MAIRIE D ADJAME","source":"Géoportail ANSTAT"}},{"type":"Feature","geometry":{"type":"Point","coordinates":[-4.024011999999971,5.323664000000065]},"properties":{"id":40275,"nom":"MAIRIE DU PLATEAU","type":"mairie","district_region":null,"departement_commune":null,"verifie":true,"name":"MAIRIE DU PLATEAU","source":"Géoportail ANSTAT"}},{"type":"Feature","geometry":{"type":"Point","coordinates":[-3.990042999999957,5.29059600000005]},"properties":{"id":40288,"nom":"MAIRIE DE MARCORY","type":"mairie","district_region":null,"departement_commune":null,"verifie":true,"name":"MAIRIE DE MARCORY","source":"Géoportail ANSTAT"}},{"type":"Feature","geometry":{"type":"Point","coordinates":[-4.012761999999952,5.309937000000048]},"properties":{"id":40331,"nom":"MAIRIE DE TREICHVILLE","type":"mairie","district_region":null,"departement_commune":null,"verifie":true,"name":"MAIRIE DE TREICHVILLE","source":"Géoportail ANSTAT"}},{"type":"Feature","geometry":{"type":"Point","coordinates":[-4.014179999999953,5.306419000000062]},"properties":{"id":40348,"nom":"MEDIATHEQUE","type":"mairie","district_region":null,"departement_commune":null,"verifie":true,"name":"MEDIATHEQUE","source":"Géoportail ANSTAT"}},{"type":"Feature","geometry":{"type":"Point","coordinates":[-4.033888999999931,5.347840000000076]},"properties":{"id":40363,"nom":"MAIRIE D ATTECOUBE","type":"mairie","district_region":null,"departement_commune":null,"verifie":true,"name":"MAIRIE D ATTECOUBE","source":"Géoportail ANSTAT"}},{"type":"Feature","geometry":{"type":"Point","coordinates":[-3.968766999999957,5.290511000000038]},"properties":{"id":40369,"nom":"MAIRIE D KOUASSI","type":"mairie","district_region":null,"departement_commune":null,"verifie":true,"name":"MAIRIE D KOUASSI","source":"Géoportail ANSTAT"}},{"type":"Feature","geometry":{"type":"Point","coordinates":[-3.96496099999996,5.259615000000053]},"properties":{"id":40386,"nom":"MAIRIE  DE  PORT BOUET","type":"mairie","district_region":null,"departement_commune":null,"verifie":true,"name":"MAIRIE  DE  PORT BOUET","source":"Géoportail ANSTAT"}},{"type":"Feature","geometry":{"type":"Point","coordinates":[-4.037267999999926,5.324845000000039]},"properties":{"id":40399,"nom":"MAIRIE ANNEXE DATIE","type":"mairie","district_region":null,"departement_commune":null,"verifie":true,"name":"MAIRIE ANNEXE DATIE","source":"Géoportail ANSTAT"}},{"type":"Feature","geometry":{"type":"Point","coordinates":[-3.978004999999939,5.336857000000066]},"properties":{"id":40436,"nom":"SERVICE TECHNIQUE DE LA MAIRIE","type":"mairie","district_region":null,"departement_commune":null,"verifie":true,"name":"SERVICE TECHNIQUE DE LA MAIRIE","source":"Géoportail ANSTAT"}},{"type":"Feature","geometry":{"type":"Point","coordinates":[-3.889570999999933,5.364723000000026]},"properties":{"id":40463,"nom":"SERVICE TECHNIQUE DE LA MAIRIE DE BINGERVILLE","type":"mairie","district_region":null,"departement_commune":null,"verifie":true,"name":"SERVICE TECHNIQUE DE LA MAIRIE DE BINGERVILLE","source":"Géoportail ANSTAT"}},{"type":"Feature","geometry":{"type":"Point","coordinates":[-4.002219999999966,5.301147000000071]},"properties":{"id":40569,"nom":"SERVICE TECHNIQUE MAIRIE TREICHVILLE","type":"mairie","district_region":null,"departement_commune":null,"verifie":true,"name":"SERVICE TECHNIQUE MAIRIE TREICHVILLE","source":"Géoportail ANSTAT"}}],"metadata":{"dataset":"Mairie — ANSTAT","source":"Géoportail ANSTAT","theme":"Administration","verified":true,"apercu":"complet"}}