{"type":"FeatureCollection","features":[{"type":"Feature","geometry":{"type":"Point","coordinates":[-3.512214999999969,6.717128000000059]},"properties":{"id":40658,"nom":"SODECI","type":"sodeci","district_region":null,"departement_commune":null,"verifie":true,"name":"SODECI","source":"Géoportail ANSTAT"}},{"type":"Feature","geometry":{"type":"Point","coordinates":[-3.203297999999961,5.470949000000076]},"properties":{"id":40675,"nom":"SODECI","type":"sodeci","district_region":null,"departement_commune":null,"verifie":true,"name":"SODECI","source":"Géoportail ANSTAT"}},{"type":"Feature","geometry":{"type":"Point","coordinates":[-3.203228999999965,5.470881000000077]},"properties":{"id":40690,"nom":"SODECI","type":"sodeci","district_region":null,"departement_commune":null,"verifie":true,"name":"SODECI","source":"Géoportail ANSTAT"}},{"type":"Feature","geometry":{"type":"Point","coordinates":[-4.030579999999929,5.377203000000065]},"properties":{"id":40705,"nom":"SODECI","type":"sodeci","district_region":null,"departement_commune":null,"verifie":true,"name":"SODECI","source":"Géoportail ANSTAT"}},{"type":"Feature","geometry":{"type":"Point","coordinates":[-6.420480999999938,6.656737000000021]},"properties":{"id":40823,"nom":"ATELIER DISTRIBUTION EAU SODECI","type":"sodeci","district_region":null,"departement_commune":null,"verifie":true,"name":"ATELIER DISTRIBUTION EAU SODECI","source":"Géoportail ANSTAT"}},{"type":"Feature","geometry":{"type":"Point","coordinates":[-4.609823999999946,9.152127000000064]},"properties":{"id":41297,"nom":"BUREAU SODECI CENTRE DE KONG","type":"sodeci","district_region":null,"departement_commune":null,"verifie":true,"name":"BUREAU SODECI CENTRE DE KONG","source":"Géoportail ANSTAT"}},{"type":"Feature","geometry":{"type":"Point","coordinates":[-3.747640999999931,5.380063000000064]},"properties":{"id":41299,"nom":"BUREAU SODECI","type":"sodeci","district_region":null,"departement_commune":null,"verifie":true,"name":"BUREAU SODECI","source":"Géoportail ANSTAT"}},{"type":"Feature","geometry":{"type":"Point","coordinates":[-5.244321999999954,5.521490000000028]},"properties":{"id":41309,"nom":"BUREAU DE SODECI GUITRY","type":"sodeci","district_region":null,"departement_commune":null,"verifie":true,"name":"BUREAU DE SODECI GUITRY","source":"Géoportail ANSTAT"}},{"type":"Feature","geometry":{"type":"Point","coordinates":[-3.997283999999979,7.650304000000062]},"properties":{"id":41317,"nom":"BUREAU DE SODECI DE PRIKRO","type":"sodeci","district_region":null,"departement_commune":null,"verifie":true,"name":"BUREAU DE SODECI DE PRIKRO","source":"Géoportail ANSTAT"}},{"type":"Feature","geometry":{"type":"Point","coordinates":[-6.084786999999949,4.949883000000057]},"properties":{"id":41319,"nom":"BUREAU SODECI DE SASSANDRA","type":"sodeci","district_region":null,"departement_commune":null,"verifie":true,"name":"BUREAU SODECI DE SASSANDRA","source":"Géoportail ANSTAT"}},{"type":"Feature","geometry":{"type":"Point","coordinates":[-4.371459999999956,5.329025000000058]},"properties":{"id":55770,"nom":"SODECI","type":"sodeci","district_region":null,"departement_commune":null,"verifie":true,"name":"SODECI","source":"Géoportail ANSTAT"}},{"type":"Feature","geometry":{"type":"Point","coordinates":[-4.37361199999998,5.328521000000023]},"properties":{"id":55771,"nom":"SODECI","type":"sodeci","district_region":null,"departement_commune":null,"verifie":true,"name":"SODECI","source":"Géoportail ANSTAT"}},{"type":"Feature","geometry":{"type":"Point","coordinates":[-5.172636999999952,7.13134800000006]},"properties":{"id":55772,"nom":"SODECI","type":"sodeci","district_region":null,"departement_commune":null,"verifie":true,"name":"SODECI","source":"Géoportail ANSTAT"}},{"type":"Feature","geometry":{"type":"Point","coordinates":[-6.28303399999993,6.486644000000069]},"properties":{"id":55773,"nom":"SODECI","type":"sodeci","district_region":null,"departement_commune":null,"verifie":true,"name":"SODECI","source":"Géoportail ANSTAT"}},{"type":"Feature","geometry":{"type":"Point","coordinates":[-3.984441999999945,5.360310000000027]},"properties":{"id":55774,"nom":"SODECI","type":"sodeci","district_region":null,"departement_commune":null,"verifie":true,"name":"SODECI","source":"Géoportail ANSTAT"}},{"type":"Feature","geometry":{"type":"Point","coordinates":[-5.258809999999926,6.542003000000022]},"properties":{"id":55775,"nom":"AGENCE SODECI DE KOKUMBO","type":"sodeci","district_region":null,"departement_commune":null,"verifie":true,"name":"AGENCE SODECI DE KOKUMBO","source":"Géoportail ANSTAT"}},{"type":"Feature","geometry":{"type":"Point","coordinates":[-2.980368999999939,7.696871000000044]},"properties":{"id":55776,"nom":"AGENCE SODECI","type":"sodeci","district_region":null,"departement_commune":null,"verifie":true,"name":"AGENCE SODECI","source":"Géoportail ANSTAT"}},{"type":"Feature","geometry":{"type":"Point","coordinates":[-3.150871999999936,5.308029000000033]},"properties":{"id":55777,"nom":"AGENCE SODECI DE ADJOUAN","type":"sodeci","district_region":null,"departement_commune":null,"verifie":true,"name":"AGENCE SODECI DE ADJOUAN","source":"Géoportail ANSTAT"}},{"type":"Feature","geometry":{"type":"Point","coordinates":[-3.862282999999934,6.094789000000048]},"properties":{"id":55778,"nom":"BASE SODECI","type":"sodeci","district_region":null,"departement_commune":null,"verifie":true,"name":"BASE SODECI","source":"Géoportail ANSTAT"}},{"type":"Feature","geometry":{"type":"Point","coordinates":[-7.234789999999975,7.255960000000073]},"properties":{"id":55779,"nom":"BUREAU SODECI","type":"sodeci","district_region":null,"departement_commune":null,"verifie":true,"name":"BUREAU SODECI","source":"Géoportail ANSTAT"}},{"type":"Feature","geometry":{"type":"Point","coordinates":[-7.381250999999963,7.38357000000002]},"properties":{"id":55782,"nom":"BUREAU DE SODECI","type":"sodeci","district_region":null,"departement_commune":null,"verifie":true,"name":"BUREAU DE SODECI","source":"Géoportail ANSTAT"}},{"type":"Feature","geometry":{"type":"Point","coordinates":[-6.765268999999932,8.05901300000005]},"properties":{"id":55785,"nom":"BUREAU DE SODECI DE KOUEDO","type":"sodeci","district_region":null,"departement_commune":null,"verifie":true,"name":"BUREAU DE SODECI DE KOUEDO","source":"Géoportail ANSTAT"}},{"type":"Feature","geometry":{"type":"Point","coordinates":[-4.821268999999972,7.639688000000035]},"properties":{"id":55786,"nom":"BUREAU SODECI","type":"sodeci","district_region":null,"departement_commune":null,"verifie":true,"name":"BUREAU SODECI","source":"Géoportail ANSTAT"}},{"type":"Feature","geometry":{"type":"Point","coordinates":[-3.350055999999938,9.811357000000044]},"properties":{"id":55788,"nom":"BUREAU SODECI DE BOUNA","type":"sodeci","district_region":null,"departement_commune":null,"verifie":true,"name":"BUREAU SODECI DE BOUNA","source":"Géoportail ANSTAT"}},{"type":"Feature","geometry":{"type":"Point","coordinates":[-3.532285999999942,8.458324000000061]},"properties":{"id":55789,"nom":"BUREAU DE LA SODECI","type":"sodeci","district_region":null,"departement_commune":null,"verifie":true,"name":"BUREAU DE LA SODECI","source":"Géoportail ANSTAT"}},{"type":"Feature","geometry":{"type":"Point","coordinates":[-6.151963999999964,6.679582000000039]},"properties":{"id":55791,"nom":"BUREAU DE SODECI","type":"sodeci","district_region":null,"departement_commune":null,"verifie":true,"name":"BUREAU DE SODECI","source":"Géoportail ANSTAT"}},{"type":"Feature","geometry":{"type":"Point","coordinates":[-6.414703999999972,9.891807000000028]},"properties":{"id":55792,"nom":"BUREAU DE LA SODECI","type":"sodeci","district_region":null,"departement_commune":null,"verifie":true,"name":"BUREAU DE LA SODECI","source":"Géoportail ANSTAT"}},{"type":"Feature","geometry":{"type":"Point","coordinates":[-6.408740999999964,10.48157600000008]},"properties":{"id":55793,"nom":"BUREAU SODECI DE TENGRELA","type":"sodeci","district_region":null,"departement_commune":null,"verifie":true,"name":"BUREAU SODECI DE TENGRELA","source":"Géoportail ANSTAT"}},{"type":"Feature","geometry":{"type":"Point","coordinates":[-7.488318999999933,10.22451800000005]},"properties":{"id":55794,"nom":"BUREAU DE LA SODECI DE TIENKO","type":"sodeci","district_region":null,"departement_commune":null,"verifie":true,"name":"BUREAU DE LA SODECI DE TIENKO","source":"Géoportail ANSTAT"}},{"type":"Feature","geometry":{"type":"Point","coordinates":[-3.408268999999962,6.075691000000063]},"properties":{"id":55795,"nom":"BUREAU DE LA SODECI DE BETTIE","type":"sodeci","district_region":null,"departement_commune":null,"verifie":true,"name":"BUREAU DE LA SODECI DE BETTIE","source":"Géoportail ANSTAT"}},{"type":"Feature","geometry":{"type":"Point","coordinates":[-7.563904999999977,9.82291600000002]},"properties":{"id":55796,"nom":"BUREAU DE LA SODECI DE SAMATIGUILA","type":"sodeci","district_region":null,"departement_commune":null,"verifie":true,"name":"BUREAU DE LA SODECI DE SAMATIGUILA","source":"Géoportail ANSTAT"}},{"type":"Feature","geometry":{"type":"Point","coordinates":[-4.426040999999941,8.361501000000032]},"properties":{"id":55797,"nom":"BUREAU DE LA SODECI DE DABAKALA","type":"sodeci","district_region":null,"departement_commune":null,"verifie":true,"name":"BUREAU DE LA SODECI DE DABAKALA","source":"Géoportail ANSTAT"}},{"type":"Feature","geometry":{"type":"Point","coordinates":[-3.646641999999929,6.186536000000046]},"properties":{"id":55798,"nom":"BUREAU SODECI","type":"sodeci","district_region":null,"departement_commune":null,"verifie":true,"name":"BUREAU SODECI","source":"Géoportail ANSTAT"}},{"type":"Feature","geometry":{"type":"Point","coordinates":[-5.625027999999929,10.19797100000005]},"properties":{"id":55800,"nom":"CENTRE SODECI ILOT  28","type":"sodeci","district_region":null,"departement_commune":null,"verifie":true,"name":"CENTRE SODECI ILOT  28","source":"Géoportail ANSTAT"}},{"type":"Feature","geometry":{"type":"Point","coordinates":[-5.224043999999935,7.158150000000035]},"properties":{"id":55801,"nom":"CENTRE SODECI DE TIEBISSOU","type":"sodeci","district_region":null,"departement_commune":null,"verifie":true,"name":"CENTRE SODECI DE TIEBISSOU","source":"Géoportail ANSTAT"}},{"type":"Feature","geometry":{"type":"Point","coordinates":[-4.678237999999965,7.34300200000007]},"properties":{"id":55802,"nom":"CENTRE SODECI DE KOUASSI KOUASSIKRO","type":"sodeci","district_region":null,"departement_commune":null,"verifie":true,"name":"CENTRE SODECI DE KOUASSI KOUASSIKRO","source":"Géoportail ANSTAT"}},{"type":"Feature","geometry":{"type":"Point","coordinates":[-3.20740399999994,7.135569000000032]},"properties":{"id":55803,"nom":"CENTRE SODECI DE AGNIBILEKRO","type":"sodeci","district_region":null,"departement_commune":null,"verifie":true,"name":"CENTRE SODECI DE AGNIBILEKRO","source":"Géoportail ANSTAT"}},{"type":"Feature","geometry":{"type":"Point","coordinates":[-5.243113999999935,6.806244000000049]},"properties":{"id":55806,"nom":"SODECI","type":"sodeci","district_region":null,"departement_commune":null,"verifie":true,"name":"SODECI","source":"Géoportail ANSTAT"}},{"type":"Feature","geometry":{"type":"Point","coordinates":[-5.614049999999963,10.20690700000006]},"properties":{"id":55873,"nom":"POSTE SODECI ILOT 229","type":"sodeci","district_region":null,"departement_commune":null,"verifie":true,"name":"POSTE SODECI ILOT 229","source":"Géoportail ANSTAT"}},{"type":"Feature","geometry":{"type":"Point","coordinates":[-6.53853399999997,6.113643000000025]},"properties":{"id":55895,"nom":"POSTE SODECI","type":"sodeci","district_region":null,"departement_commune":null,"verifie":true,"name":"POSTE SODECI","source":"Géoportail ANSTAT"}},{"type":"Feature","geometry":{"type":"Point","coordinates":[-7.503671999999938,4.919852000000049]},"properties":{"id":55896,"nom":"SODECI SA CENTRE DE GRABO","type":"sodeci","district_region":null,"departement_commune":null,"verifie":true,"name":"SODECI SA CENTRE DE GRABO","source":"Géoportail ANSTAT"}},{"type":"Feature","geometry":{"type":"Point","coordinates":[-5.631715999999926,9.454534000000024]},"properties":{"id":55905,"nom":"SODECI","type":"sodeci","district_region":null,"departement_commune":null,"verifie":true,"name":"SODECI","source":"Géoportail ANSTAT"}},{"type":"Feature","geometry":{"type":"Point","coordinates":[-5.429142999999954,9.33282200000002]},"properties":{"id":55915,"nom":"SODECI","type":"sodeci","district_region":null,"departement_commune":null,"verifie":true,"name":"SODECI","source":"Géoportail ANSTAT"}},{"type":"Feature","geometry":{"type":"Point","coordinates":[-5.376018999999928,9.578752000000064]},"properties":{"id":56002,"nom":"SODECI7","type":"sodeci","district_region":null,"departement_commune":null,"verifie":true,"name":"SODECI7","source":"Géoportail ANSTAT"}},{"type":"Feature","geometry":{"type":"Point","coordinates":[-5.385930999999971,9.586670000000026]},"properties":{"id":56136,"nom":"SODECI","type":"sodeci","district_region":null,"departement_commune":null,"verifie":true,"name":"SODECI","source":"Géoportail ANSTAT"}},{"type":"Feature","geometry":{"type":"Point","coordinates":[-7.490150999999969,7.012897000000066]},"properties":{"id":56137,"nom":"SODECI CIE","type":"sodeci","district_region":null,"departement_commune":null,"verifie":true,"name":"SODECI CIE","source":"Géoportail ANSTAT"}},{"type":"Feature","geometry":{"type":"Point","coordinates":[-7.345561999999973,6.741424000000052]},"properties":{"id":56170,"nom":"SODECI","type":"sodeci","district_region":null,"departement_commune":null,"verifie":true,"name":"SODECI","source":"Géoportail ANSTAT"}},{"type":"Feature","geometry":{"type":"Point","coordinates":[-6.173258999999973,6.238426000000061]},"properties":{"id":56244,"nom":"SODECI","type":"sodeci","district_region":null,"departement_commune":null,"verifie":true,"name":"SODECI","source":"Géoportail ANSTAT"}},{"type":"Feature","geometry":{"type":"Point","coordinates":[-5.932321999999942,6.314240000000041]},"properties":{"id":56247,"nom":"SODECI","type":"sodeci","district_region":null,"departement_commune":null,"verifie":true,"name":"SODECI","source":"Géoportail ANSTAT"}},{"type":"Feature","geometry":{"type":"Point","coordinates":[-5.019465999999966,6.554786000000036]},"properties":{"id":56256,"nom":"SODECI","type":"sodeci","district_region":null,"departement_commune":null,"verifie":true,"name":"SODECI","source":"Géoportail ANSTAT"}},{"type":"Feature","geometry":{"type":"Point","coordinates":[-5.112789999999961,6.468941000000029]},"properties":{"id":56267,"nom":"SODECI","type":"sodeci","district_region":null,"departement_commune":null,"verifie":true,"name":"SODECI","source":"Géoportail ANSTAT"}},{"type":"Feature","geometry":{"type":"Point","coordinates":[-4.206106999999975,5.319017000000031]},"properties":{"id":56478,"nom":"SODECI ADMINISTRATION SONGON KASSEMBLE","type":"sodeci","district_region":null,"departement_commune":null,"verifie":true,"name":"SODECI ADMINISTRATION SONGON KASSEMBLE","source":"Géoportail ANSTAT"}},{"type":"Feature","geometry":{"type":"Point","coordinates":[-4.186644999999942,5.464354000000071]},"properties":{"id":56489,"nom":"SODECI","type":"sodeci","district_region":null,"departement_commune":null,"verifie":true,"name":"SODECI","source":"Géoportail ANSTAT"}},{"type":"Feature","geometry":{"type":"Point","coordinates":[-6.673196999999959,7.963053000000059]},"properties":{"id":56491,"nom":"SODECI","type":"sodeci","district_region":null,"departement_commune":null,"verifie":true,"name":"SODECI","source":"Géoportail ANSTAT"}},{"type":"Feature","geometry":{"type":"Point","coordinates":[-6.052239999999927,6.925485000000037]},"properties":{"id":56506,"nom":"SODECI","type":"sodeci","district_region":null,"departement_commune":null,"verifie":true,"name":"SODECI","source":"Géoportail ANSTAT"}},{"type":"Feature","geometry":{"type":"Point","coordinates":[-6.054326999999944,7.432161000000065]},"properties":{"id":56507,"nom":"SODECI","type":"sodeci","district_region":null,"departement_commune":null,"verifie":true,"name":"SODECI","source":"Géoportail ANSTAT"}},{"type":"Feature","geometry":{"type":"Point","coordinates":[-4.821259999999938,7.639693000000022]},"properties":{"id":56508,"nom":"SODECI","type":"sodeci","district_region":null,"departement_commune":null,"verifie":true,"name":"SODECI","source":"Géoportail ANSTAT"}},{"type":"Feature","geometry":{"type":"Point","coordinates":[-5.292152999999928,7.443685000000073]},"properties":{"id":56512,"nom":"SODECI SAKASSOU","type":"sodeci","district_region":null,"departement_commune":null,"verifie":true,"name":"SODECI SAKASSOU","source":"Géoportail ANSTAT"}},{"type":"Feature","geometry":{"type":"Point","coordinates":[-2.996422999999936,9.271088000000075]},"properties":{"id":56518,"nom":"SODECI","type":"sodeci","district_region":null,"departement_commune":null,"verifie":true,"name":"SODECI","source":"Géoportail ANSTAT"}},{"type":"Feature","geometry":{"type":"Point","coordinates":[-4.502700999999945,7.064020000000028]},"properties":{"id":56525,"nom":"SODECI","type":"sodeci","district_region":null,"departement_commune":null,"verifie":true,"name":"SODECI","source":"Géoportail ANSTAT"}},{"type":"Feature","geometry":{"type":"Point","coordinates":[-7.44811599999997,5.871060000000057]},"properties":{"id":56526,"nom":"SODECI TAI","type":"sodeci","district_region":null,"departement_commune":null,"verifie":true,"name":"SODECI TAI","source":"Géoportail ANSTAT"}},{"type":"Feature","geometry":{"type":"Point","coordinates":[-8.410431999999957,6.580746000000033]},"properties":{"id":56529,"nom":"SODECI","type":"sodeci","district_region":null,"departement_commune":null,"verifie":true,"name":"SODECI","source":"Géoportail ANSTAT"}},{"type":"Feature","geometry":{"type":"Point","coordinates":[-6.860253999999941,6.767577000000074]},"properties":{"id":56532,"nom":"SODECI CENTRE DE ZOUKOUGBEU","type":"sodeci","district_region":null,"departement_commune":null,"verifie":true,"name":"SODECI CENTRE DE ZOUKOUGBEU","source":"Géoportail ANSTAT"}},{"type":"Feature","geometry":{"type":"Point","coordinates":[-4.074453999999946,5.64460500000007]},"properties":{"id":56534,"nom":"SODECI CENTRE AZAGUIE","type":"sodeci","district_region":null,"departement_commune":null,"verifie":true,"name":"SODECI CENTRE AZAGUIE","source":"Géoportail ANSTAT"}},{"type":"Feature","geometry":{"type":"Point","coordinates":[-7.684323999999947,8.283191000000045]},"properties":{"id":56535,"nom":"SODECI","type":"sodeci","district_region":null,"departement_commune":null,"verifie":true,"name":"SODECI","source":"Géoportail ANSTAT"}},{"type":"Feature","geometry":{"type":"Point","coordinates":[-5.681464999999946,5.853398000000027]},"properties":{"id":56540,"nom":"SODECI","type":"sodeci","district_region":null,"departement_commune":null,"verifie":true,"name":"SODECI","source":"Géoportail ANSTAT"}},{"type":"Feature","geometry":{"type":"Point","coordinates":[-6.259762999999964,8.951065000000028]},"properties":{"id":56541,"nom":"SODECI","type":"sodeci","district_region":null,"departement_commune":null,"verifie":true,"name":"SODECI","source":"Géoportail ANSTAT"}},{"type":"Feature","geometry":{"type":"Point","coordinates":[-7.201674999999966,10.01749500000005]},"properties":{"id":56543,"nom":"SODECI DE GOULIA","type":"sodeci","district_region":null,"departement_commune":null,"verifie":true,"name":"SODECI DE GOULIA","source":"Géoportail ANSTAT"}},{"type":"Feature","geometry":{"type":"Point","coordinates":[-3.49982099999994,6.730247000000077]},"properties":{"id":56566,"nom":"SODECI","type":"sodeci","district_region":null,"departement_commune":null,"verifie":true,"name":"SODECI","source":"Géoportail ANSTAT"}},{"type":"Feature","geometry":{"type":"Point","coordinates":[-7.317916999999966,9.54688900000002]},"properties":{"id":56578,"nom":"SODECI TIEME","type":"sodeci","district_region":null,"departement_commune":null,"verifie":true,"name":"SODECI TIEME","source":"Géoportail ANSTAT"}},{"type":"Feature","geometry":{"type":"Point","coordinates":[-3.737234999999941,5.213081000000045]},"properties":{"id":56589,"nom":"SODECI","type":"sodeci","district_region":null,"departement_commune":null,"verifie":true,"name":"SODECI","source":"Géoportail ANSTAT"}},{"type":"Feature","geometry":{"type":"Point","coordinates":[-5.161352999999963,9.07300600000002]},"properties":{"id":56596,"nom":"SODECI TAFIRE","type":"sodeci","district_region":null,"departement_commune":null,"verifie":true,"name":"SODECI TAFIRE","source":"Géoportail ANSTAT"}},{"type":"Feature","geometry":{"type":"Point","coordinates":[-5.098452999999949,8.139256000000046]},"properties":{"id":56599,"nom":"SODECI DE KATIOLA","type":"sodeci","district_region":null,"departement_commune":null,"verifie":true,"name":"SODECI DE KATIOLA","source":"Géoportail ANSTAT"}},{"type":"Feature","geometry":{"type":"Point","coordinates":[-4.364282999999944,7.899580000000071]},"properties":{"id":56600,"nom":"SODECI","type":"sodeci","district_region":null,"departement_commune":null,"verifie":true,"name":"SODECI","source":"Géoportail ANSTAT"}},{"type":"Feature","geometry":{"type":"Point","coordinates":[-7.618243999999947,7.740322000000049]},"properties":{"id":56601,"nom":"SODECI","type":"sodeci","district_region":null,"departement_commune":null,"verifie":true,"name":"SODECI","source":"Géoportail ANSTAT"}},{"type":"Feature","geometry":{"type":"Point","coordinates":[-3.970826999999929,7.055224000000067]},"properties":{"id":56602,"nom":"SODECI","type":"sodeci","district_region":null,"departement_commune":null,"verifie":true,"name":"SODECI","source":"Géoportail ANSTAT"}},{"type":"Feature","geometry":{"type":"Point","coordinates":[-4.073660999999959,5.342230000000029]},"properties":{"id":56608,"nom":"AGENCE SODECI YOPOUGON SAINT ANDRE","type":"sodeci","district_region":null,"departement_commune":null,"verifie":true,"name":"AGENCE SODECI YOPOUGON SAINT ANDRE","source":"Géoportail ANSTAT"}},{"type":"Feature","geometry":{"type":"Point","coordinates":[-3.969879999999932,5.286361000000056]},"properties":{"id":56624,"nom":"AGENCE SODECI  DECTEUR KOUMASSI","type":"sodeci","district_region":null,"departement_commune":null,"verifie":true,"name":"AGENCE SODECI  DECTEUR KOUMASSI","source":"Géoportail ANSTAT"}},{"type":"Feature","geometry":{"type":"Point","coordinates":[-3.986225999999931,5.384396000000038]},"properties":{"id":56626,"nom":"DEPARTEMENT AUDIT EXPLOITATION SODECI","type":"sodeci","district_region":null,"departement_commune":null,"verifie":true,"name":"DEPARTEMENT AUDIT EXPLOITATION SODECI","source":"Géoportail ANSTAT"}},{"type":"Feature","geometry":{"type":"Point","coordinates":[-4.013377999999932,5.438447000000053]},"properties":{"id":56631,"nom":"SODECI","type":"sodeci","district_region":null,"departement_commune":null,"verifie":true,"name":"SODECI","source":"Géoportail ANSTAT"}},{"type":"Feature","geometry":{"type":"Point","coordinates":[-3.991484999999955,5.397305000000074]},"properties":{"id":56642,"nom":"SODECI","type":"sodeci","district_region":null,"departement_commune":null,"verifie":true,"name":"SODECI","source":"Géoportail ANSTAT"}},{"type":"Feature","geometry":{"type":"Point","coordinates":[-3.926004999999975,5.359928000000025]},"properties":{"id":56646,"nom":"SODECI AGENCE ABATTA","type":"sodeci","district_region":null,"departement_commune":null,"verifie":true,"name":"SODECI AGENCE ABATTA","source":"Géoportail ANSTAT"}},{"type":"Feature","geometry":{"type":"Point","coordinates":[-4.003485999999953,5.337601000000063]},"properties":{"id":56647,"nom":"SODECI COCODY CENTRE","type":"sodeci","district_region":null,"departement_commune":null,"verifie":true,"name":"SODECI COCODY CENTRE","source":"Géoportail ANSTAT"}},{"type":"Feature","geometry":{"type":"Point","coordinates":[-3.976494999999943,5.350867000000051]},"properties":{"id":56648,"nom":"SODECI","type":"sodeci","district_region":null,"departement_commune":null,"verifie":true,"name":"SODECI","source":"Géoportail ANSTAT"}},{"type":"Feature","geometry":{"type":"Point","coordinates":[-3.953474999999969,5.32964000000004]},"properties":{"id":56653,"nom":"SODECI AGENCE MPOUTO","type":"sodeci","district_region":null,"departement_commune":null,"verifie":true,"name":"SODECI AGENCE MPOUTO","source":"Géoportail ANSTAT"}},{"type":"Feature","geometry":{"type":"Point","coordinates":[-4.061853999999926,5.333923000000027]},"properties":{"id":56665,"nom":"SODECI","type":"sodeci","district_region":null,"departement_commune":null,"verifie":true,"name":"SODECI","source":"Géoportail ANSTAT"}},{"type":"Feature","geometry":{"type":"Point","coordinates":[-4.030851999999925,5.355057000000045]},"properties":{"id":56677,"nom":"SODECI ADJAME","type":"sodeci","district_region":null,"departement_commune":null,"verifie":true,"name":"SODECI ADJAME","source":"Géoportail ANSTAT"}},{"type":"Feature","geometry":{"type":"Point","coordinates":[-4.024086999999952,5.332135000000051]},"properties":{"id":56679,"nom":"SODECI","type":"sodeci","district_region":null,"departement_commune":null,"verifie":true,"name":"SODECI","source":"Géoportail ANSTAT"}},{"type":"Feature","geometry":{"type":"Point","coordinates":[-4.000084999999956,5.293463000000031]},"properties":{"id":56681,"nom":"SODECI","type":"sodeci","district_region":null,"departement_commune":null,"verifie":true,"name":"SODECI","source":"Géoportail ANSTAT"}}],"metadata":{"dataset":"Sodeci — ANSTAT","source":"Géoportail ANSTAT","theme":"Eau & assainissement","verified":true,"apercu":"complet"}}