{"type":"FeatureCollection","features":[{"type":"Feature","geometry":{"type":"Point","coordinates":[-3.863460999999973,6.109569000000022]},"properties":{"id":36653,"nom":"COMMISSION DE JUSTICE","type":"cabinet d'hussier justice","district_region":null,"departement_commune":null,"verifie":true,"name":"COMMISSION DE JUSTICE","source":"Géoportail ANSTAT"}},{"type":"Feature","geometry":{"type":"Point","coordinates":[-3.207852999999943,5.469143000000031]},"properties":{"id":36987,"nom":"ETUDE DE MAITRE BOHUI ADRIEN","type":"cabinet d'hussier justice","district_region":null,"departement_commune":null,"verifie":true,"name":"ETUDE DE MAITRE BOHUI ADRIEN","source":"Géoportail ANSTAT"}},{"type":"Feature","geometry":{"type":"Point","coordinates":[-3.20786899999996,5.469177000000059]},"properties":{"id":36988,"nom":"ETUDE DE MAITRE BOHUI ANDRE","type":"cabinet d'hussier justice","district_region":null,"departement_commune":null,"verifie":true,"name":"ETUDE DE MAITRE BOHUI ANDRE","source":"Géoportail ANSTAT"}},{"type":"Feature","geometry":{"type":"Point","coordinates":[-5.951633999999956,6.142402000000061]},"properties":{"id":37426,"nom":"HUSSIER DE JUSTICE ETUDE DE MAITRE HORO MARTIN","type":"cabinet d'hussier justice","district_region":null,"departement_commune":null,"verifie":true,"name":"HUSSIER DE JUSTICE ETUDE DE MAITRE HORO MARTIN","source":"Géoportail ANSTAT"}},{"type":"Feature","geometry":{"type":"Point","coordinates":[-6.171296999999981,6.234719000000041]},"properties":{"id":37427,"nom":"HUSSIER DE JUSTICE MAITRE BLEMA GBOKOU PAUL","type":"cabinet d'hussier justice","district_region":null,"departement_commune":null,"verifie":true,"name":"HUSSIER DE JUSTICE MAITRE BLEMA GBOKOU PAUL","source":"Géoportail ANSTAT"}},{"type":"Feature","geometry":{"type":"Point","coordinates":[-2.788465999999971,8.046560000000056]},"properties":{"id":37428,"nom":"HUISSIER DE JUSTICE MAITRE SODJA KRA KOUASSI JEAN","type":"cabinet d'hussier justice","district_region":null,"departement_commune":null,"verifie":true,"name":"HUISSIER DE JUSTICE MAITRE SODJA KRA KOUASSI JEAN","source":"Géoportail ANSTAT"}},{"type":"Feature","geometry":{"type":"Point","coordinates":[-3.486033999999961,6.729212000000075]},"properties":{"id":37430,"nom":"HUISSIER DE JUSTICE","type":"cabinet d'hussier justice","district_region":null,"departement_commune":null,"verifie":true,"name":"HUISSIER DE JUSTICE","source":"Géoportail ANSTAT"}},{"type":"Feature","geometry":{"type":"Point","coordinates":[-7.553537999999946,7.399108000000069]},"properties":{"id":37431,"nom":"HUSSIER DE JUSTICE","type":"cabinet d'hussier justice","district_region":null,"departement_commune":null,"verifie":true,"name":"HUSSIER DE JUSTICE","source":"Géoportail ANSTAT"}},{"type":"Feature","geometry":{"type":"Point","coordinates":[-4.066523999999959,5.357967000000031]},"properties":{"id":39749,"nom":"COMMISSAIRE DE JUSTICE","type":"cabinet d'hussier justice","district_region":null,"departement_commune":null,"verifie":true,"name":"COMMISSAIRE DE JUSTICE","source":"Géoportail ANSTAT"}},{"type":"Feature","geometry":{"type":"Point","coordinates":[-3.88960899999995,5.355121000000054]},"properties":{"id":39999,"nom":"HUISSIER","type":"cabinet d'hussier justice","district_region":null,"departement_commune":null,"verifie":true,"name":"HUISSIER","source":"Géoportail ANSTAT"}}],"metadata":{"dataset":"Cabinet d'hussier justice — ANSTAT","source":"Géoportail ANSTAT","theme":"Justice","verified":true,"apercu":"complet"}}