{"type":"FeatureCollection","features":[{"type":"Feature","geometry":{"type":"Point","coordinates":[-7.61453599999993,7.738749000000041]},"properties":{"id":36940,"nom":"DISTRICT DE BIANKOUMA","type":"district","district_region":null,"departement_commune":null,"verifie":true,"name":"DISTRICT DE BIANKOUMA","source":"Géoportail ANSTAT"}},{"type":"Feature","geometry":{"type":"Point","coordinates":[-4.017740999999944,5.31864500000006]},"properties":{"id":39538,"nom":"BIBLIOTHEQUE DU DISTRICT D ABIDJAN","type":"district","district_region":null,"departement_commune":null,"verifie":true,"name":"BIBLIOTHEQUE DU DISTRICT D ABIDJAN","source":"Géoportail ANSTAT"}},{"type":"Feature","geometry":{"type":"Point","coordinates":[-4.032991999999979,5.416233000000034]},"properties":{"id":39861,"nom":"DON DU DISTRICT D ABIDJAN","type":"district","district_region":null,"departement_commune":null,"verifie":true,"name":"DON DU DISTRICT D ABIDJAN","source":"Géoportail ANSTAT"}},{"type":"Feature","geometry":{"type":"Point","coordinates":[-4.020182999999975,5.321085000000039]},"properties":{"id":39945,"nom":"DISTRICT D ABIDJAN","type":"district","district_region":null,"departement_commune":null,"verifie":true,"name":"DISTRICT D ABIDJAN","source":"Géoportail ANSTAT"}},{"type":"Feature","geometry":{"type":"Point","coordinates":[-4.019632999999942,5.307169000000044]},"properties":{"id":40037,"nom":"LAVAGE MODERNE DU DISTRICT D ABIDJAN","type":"district","district_region":null,"departement_commune":null,"verifie":true,"name":"LAVAGE MODERNE DU DISTRICT D ABIDJAN","source":"Géoportail ANSTAT"}},{"type":"Feature","geometry":{"type":"Point","coordinates":[-4.024424999999951,5.333165000000065]},"properties":{"id":40541,"nom":"SERVICE ENVIRONNEMENT DU DISTRICT D ABIDJAN","type":"district","district_region":null,"departement_commune":null,"verifie":true,"name":"SERVICE ENVIRONNEMENT DU DISTRICT D ABIDJAN","source":"Géoportail ANSTAT"}}],"metadata":{"dataset":"District — ANSTAT","source":"Géoportail ANSTAT","theme":"Administration","verified":true,"apercu":"complet"}}