{"type":"FeatureCollection","features":[{"type":"Feature","geometry":{"type":"Point","coordinates":[-7.707800999999961,6.861350000000073]},"properties":{"id":36689,"nom":"CORIDOR DES EAUX ET FORETS","type":"corridor eaux foret","district_region":null,"departement_commune":null,"verifie":true,"name":"CORIDOR DES EAUX ET FORETS","source":"Géoportail ANSTAT"}},{"type":"Feature","geometry":{"type":"Point","coordinates":[-4.795419999999979,5.282238000000063]},"properties":{"id":36691,"nom":"CORRIDOR EAUX ET FORETS IROBO","type":"corridor eaux foret","district_region":null,"departement_commune":null,"verifie":true,"name":"CORRIDOR EAUX ET FORETS IROBO","source":"Géoportail ANSTAT"}},{"type":"Feature","geometry":{"type":"Point","coordinates":[-8.108132999999953,7.510711000000072]},"properties":{"id":36786,"nom":"COORIDOR EAUX ET FORET","type":"corridor eaux foret","district_region":null,"departement_commune":null,"verifie":true,"name":"COORIDOR EAUX ET FORET","source":"Géoportail ANSTAT"}}],"metadata":{"dataset":"Corridor eaux foret — ANSTAT","source":"Géoportail ANSTAT","theme":"Environnement & forêts","verified":true,"apercu":"complet"}}