{"type":"FeatureCollection","features":[{"type":"Feature","geometry":{"type":"Point","coordinates":[-6.191732999999942,7.242223000000024]},"properties":{"id":187,"nom":"ONG  RPS","type":"ong region","district_region":null,"departement_commune":null,"verifie":true,"name":"ONG  RPS","source":"Géoportail ANSTAT"}},{"type":"Feature","geometry":{"type":"Point","coordinates":[-3.270793999999967,6.663437000000044]},"properties":{"id":218,"nom":"AHIKA BANK ONG COEURS UNIS POUR LA GLOIRE","type":"ong region","district_region":null,"departement_commune":null,"verifie":true,"name":"AHIKA BANK ONG COEURS UNIS POUR LA GLOIRE","source":"Géoportail ANSTAT"}},{"type":"Feature","geometry":{"type":"Point","coordinates":[-5.025848999999937,7.680896000000075]},"properties":{"id":324,"nom":"ONG BOUAKE EVEIL","type":"ong region","district_region":null,"departement_commune":null,"verifie":true,"name":"ONG BOUAKE EVEIL","source":"Géoportail ANSTAT"}},{"type":"Feature","geometry":{"type":"Point","coordinates":[-6.590736999999933,6.489393000000064]},"properties":{"id":343,"nom":"ONG VIF","type":"ong region","district_region":null,"departement_commune":null,"verifie":true,"name":"ONG VIF","source":"Géoportail ANSTAT"}},{"type":"Feature","geometry":{"type":"Point","coordinates":[-6.521129999999971,7.617341000000067]},"properties":{"id":656,"nom":"ONG ACID","type":"ong region","district_region":null,"departement_commune":null,"verifie":true,"name":"ONG ACID","source":"Géoportail ANSTAT"}},{"type":"Feature","geometry":{"type":"Point","coordinates":[-2.79803499999997,8.044742000000042]},"properties":{"id":1074,"nom":"BUREAU REGIONAL DE ONG GMF 3","type":"ong region","district_region":null,"departement_commune":null,"verifie":true,"name":"BUREAU REGIONAL DE ONG GMF 3","source":"Géoportail ANSTAT"}},{"type":"Feature","geometry":{"type":"Point","coordinates":[-6.728758999999968,4.756976000000066]},"properties":{"id":1304,"nom":"ONG IDEE","type":"ong region","district_region":null,"departement_commune":null,"verifie":true,"name":"ONG IDEE","source":"Géoportail ANSTAT"}},{"type":"Feature","geometry":{"type":"Point","coordinates":[-5.623395999999957,9.442766000000065]},"properties":{"id":1558,"nom":"ONG FESADE","type":"ong region","district_region":null,"departement_commune":null,"verifie":true,"name":"ONG FESADE","source":"Géoportail ANSTAT"}},{"type":"Feature","geometry":{"type":"Point","coordinates":[-5.047987999999975,7.682014000000038]},"properties":{"id":1563,"nom":"ONG MAISON DES ARTS ET DE LA FAMILLE","type":"ong region","district_region":null,"departement_commune":null,"verifie":true,"name":"ONG MAISON DES ARTS ET DE LA FAMILLE","source":"Géoportail ANSTAT"}},{"type":"Feature","geometry":{"type":"Point","coordinates":[-6.478721999999948,6.88504800000004]},"properties":{"id":1565,"nom":"ONG BADA","type":"ong region","district_region":null,"departement_commune":null,"verifie":true,"name":"ONG BADA","source":"Géoportail ANSTAT"}},{"type":"Feature","geometry":{"type":"Point","coordinates":[-5.090092999999968,8.132948000000056]},"properties":{"id":1567,"nom":"ONG PEKAN","type":"ong region","district_region":null,"departement_commune":null,"verifie":true,"name":"ONG PEKAN","source":"Géoportail ANSTAT"}},{"type":"Feature","geometry":{"type":"Point","coordinates":[-6.112099999999941,5.827293000000054]},"properties":{"id":1580,"nom":"ONG PRO SACOR","type":"ong region","district_region":null,"departement_commune":null,"verifie":true,"name":"ONG PRO SACOR","source":"Géoportail ANSTAT"}},{"type":"Feature","geometry":{"type":"Point","coordinates":[-6.187383999999952,6.648539000000028]},"properties":{"id":1581,"nom":"ONG COMUPASC","type":"ong region","district_region":null,"departement_commune":null,"verifie":true,"name":"ONG COMUPASC","source":"Géoportail ANSTAT"}},{"type":"Feature","geometry":{"type":"Point","coordinates":[-6.915186999999946,6.464257000000032]},"properties":{"id":1582,"nom":"ONG AMOOGNAN CI","type":"ong region","district_region":null,"departement_commune":null,"verifie":true,"name":"ONG AMOOGNAN CI","source":"Géoportail ANSTAT"}},{"type":"Feature","geometry":{"type":"Point","coordinates":[-5.87240799999995,6.303018000000066]},"properties":{"id":1793,"nom":"CAMP DE PRIERE ONG UFDCEM","type":"ong region","district_region":null,"departement_commune":null,"verifie":true,"name":"CAMP DE PRIERE ONG UFDCEM","source":"Géoportail ANSTAT"}},{"type":"Feature","geometry":{"type":"Point","coordinates":[-5.157334999999932,6.899702000000048]},"properties":{"id":4280,"nom":"KOAFEC SAEMAUL UNDONG","type":"ong region","district_region":null,"departement_commune":null,"verifie":true,"name":"KOAFEC SAEMAUL UNDONG","source":"Géoportail ANSTAT"}},{"type":"Feature","geometry":{"type":"Point","coordinates":[-5.029998999999975,7.678312000000062]},"properties":{"id":4338,"nom":"COORDINATION DES ONG OBC DE LA VALLEE DU BANDAMA EN LUTTE CONTRE LE SIDA  CAVABLSI","type":"ong region","district_region":null,"departement_commune":null,"verifie":true,"name":"COORDINATION DES ONG OBC DE LA VALLEE DU BANDAMA EN LUTTE CONTRE LE SIDA  CAVABLSI","source":"Géoportail ANSTAT"}},{"type":"Feature","geometry":{"type":"Point","coordinates":[-7.563167999999962,9.510118000000034]},"properties":{"id":4514,"nom":"DONG XIN MACHINERY SARL","type":"ong region","district_region":null,"departement_commune":null,"verifie":true,"name":"DONG XIN MACHINERY SARL","source":"Géoportail ANSTAT"}},{"type":"Feature","geometry":{"type":"Point","coordinates":[-3.286561999999947,5.137479000000042]},"properties":{"id":4517,"nom":"DON ONG ADAM ASSINIE MAFIA","type":"ong region","district_region":null,"departement_commune":null,"verifie":true,"name":"DON ONG ADAM ASSINIE MAFIA","source":"Géoportail ANSTAT"}},{"type":"Feature","geometry":{"type":"Point","coordinates":[-3.032026999999971,5.411738000000071]},"properties":{"id":19342,"nom":"HIFKE GNONG COIFFURE","type":"ong region","district_region":null,"departement_commune":null,"verifie":true,"name":"HIFKE GNONG COIFFURE","source":"Géoportail ANSTAT"}},{"type":"Feature","geometry":{"type":"Point","coordinates":[-6.450480999999968,5.239472000000035]},"properties":{"id":19352,"nom":"IST  ONG SANTE POUR TOUS","type":"ong region","district_region":null,"departement_commune":null,"verifie":true,"name":"IST  ONG SANTE POUR TOUS","source":"Géoportail ANSTAT"}},{"type":"Feature","geometry":{"type":"Point","coordinates":[-6.473919999999964,7.131003000000021]},"properties":{"id":19589,"nom":"LAFED ONG","type":"ong region","district_region":null,"departement_commune":null,"verifie":true,"name":"LAFED ONG","source":"Géoportail ANSTAT"}},{"type":"Feature","geometry":{"type":"Point","coordinates":[-4.219924999999932,5.928895000000068]},"properties":{"id":19601,"nom":"LAFED ONG","type":"ong region","district_region":null,"departement_commune":null,"verifie":true,"name":"LAFED ONG","source":"Géoportail ANSTAT"}},{"type":"Feature","geometry":{"type":"Point","coordinates":[-8.163669999999968,7.264896000000022]},"properties":{"id":19640,"nom":"LAFEED ONG","type":"ong region","district_region":null,"departement_commune":null,"verifie":true,"name":"LAFEED ONG","source":"Géoportail ANSTAT"}},{"type":"Feature","geometry":{"type":"Point","coordinates":[-6.653576999999927,4.776752000000045]},"properties":{"id":29943,"nom":"ONG ESPACE MAGIQUE  COTE DIVOIRE","type":"ong region","district_region":null,"departement_commune":null,"verifie":true,"name":"ONG ESPACE MAGIQUE  COTE DIVOIRE","source":"Géoportail ANSTAT"}},{"type":"Feature","geometry":{"type":"Point","coordinates":[-6.652708999999959,4.745587000000057]},"properties":{"id":29945,"nom":"ONG MOUVEMENT CHRETIEN D ASSISTANCE MEDICO SOCIALE DE COTE D IVOIRE","type":"ong region","district_region":null,"departement_commune":null,"verifie":true,"name":"ONG MOUVEMENT CHRETIEN D ASSISTANCE MEDICO SOCIALE DE COTE D IVOIRE","source":"Géoportail ANSTAT"}},{"type":"Feature","geometry":{"type":"Point","coordinates":[-6.664845999999955,4.780016000000046]},"properties":{"id":29949,"nom":"ONG","type":"ong region","district_region":null,"departement_commune":null,"verifie":true,"name":"ONG","source":"Géoportail ANSTAT"}},{"type":"Feature","geometry":{"type":"Point","coordinates":[-6.452301999999975,5.149308000000076]},"properties":{"id":29950,"nom":"ONG AOSCOMCI","type":"ong region","district_region":null,"departement_commune":null,"verifie":true,"name":"ONG AOSCOMCI","source":"Géoportail ANSTAT"}},{"type":"Feature","geometry":{"type":"Point","coordinates":[-6.643771999999956,4.98653100000007]},"properties":{"id":29951,"nom":"ONG IST","type":"ong region","district_region":null,"departement_commune":null,"verifie":true,"name":"ONG IST","source":"Géoportail ANSTAT"}},{"type":"Feature","geometry":{"type":"Point","coordinates":[-7.550910999999928,4.821551000000056]},"properties":{"id":29953,"nom":"ONG FEC","type":"ong region","district_region":null,"departement_commune":null,"verifie":true,"name":"ONG FEC","source":"Géoportail ANSTAT"}},{"type":"Feature","geometry":{"type":"Point","coordinates":[-6.343624999999975,4.909744000000046]},"properties":{"id":29954,"nom":"ONG INTERNATIONAL SANTE  POUR TOUS","type":"ong region","district_region":null,"departement_commune":null,"verifie":true,"name":"ONG INTERNATIONAL SANTE  POUR TOUS","source":"Géoportail ANSTAT"}},{"type":"Feature","geometry":{"type":"Point","coordinates":[-5.609464999999943,9.459990000000062]},"properties":{"id":29955,"nom":"ONG  YETI","type":"ong region","district_region":null,"departement_commune":null,"verifie":true,"name":"ONG  YETI","source":"Géoportail ANSTAT"}},{"type":"Feature","geometry":{"type":"Point","coordinates":[-5.598655999999949,9.44609200000002]},"properties":{"id":29956,"nom":"ONG ATP","type":"ong region","district_region":null,"departement_commune":null,"verifie":true,"name":"ONG ATP","source":"Géoportail ANSTAT"}},{"type":"Feature","geometry":{"type":"Point","coordinates":[-5.658149999999978,9.471797000000038]},"properties":{"id":29957,"nom":"ONG COMUPASC","type":"ong region","district_region":null,"departement_commune":null,"verifie":true,"name":"ONG COMUPASC","source":"Géoportail ANSTAT"}},{"type":"Feature","geometry":{"type":"Point","coordinates":[-5.637247999999943,9.355410000000065]},"properties":{"id":29959,"nom":"ONG FADE","type":"ong region","district_region":null,"departement_commune":null,"verifie":true,"name":"ONG FADE","source":"Géoportail ANSTAT"}},{"type":"Feature","geometry":{"type":"Point","coordinates":[-5.894541999999944,10.01192100000003]},"properties":{"id":29960,"nom":"ONG IDEAL SOUS BUREAU DE M BENGUE","type":"ong region","district_region":null,"departement_commune":null,"verifie":true,"name":"ONG IDEAL SOUS BUREAU DE M BENGUE","source":"Géoportail ANSTAT"}},{"type":"Feature","geometry":{"type":"Point","coordinates":[-5.392442999999957,9.582474000000047]},"properties":{"id":29961,"nom":"ONG  SOUNYEGNON","type":"ong region","district_region":null,"departement_commune":null,"verifie":true,"name":"ONG  SOUNYEGNON","source":"Géoportail ANSTAT"}},{"type":"Feature","geometry":{"type":"Point","coordinates":[-6.557510999999977,5.410522000000071]},"properties":{"id":29963,"nom":"ONG AIDC","type":"ong region","district_region":null,"departement_commune":null,"verifie":true,"name":"ONG AIDC","source":"Géoportail ANSTAT"}},{"type":"Feature","geometry":{"type":"Point","coordinates":[-6.419594999999958,5.843721000000073]},"properties":{"id":29965,"nom":"ONG ISSCI","type":"ong region","district_region":null,"departement_commune":null,"verifie":true,"name":"ONG ISSCI","source":"Géoportail ANSTAT"}},{"type":"Feature","geometry":{"type":"Point","coordinates":[-6.61908399999993,5.776968000000068]},"properties":{"id":29966,"nom":"ONG COEUR OUVERT","type":"ong region","district_region":null,"departement_commune":null,"verifie":true,"name":"ONG COEUR OUVERT","source":"Géoportail ANSTAT"}},{"type":"Feature","geometry":{"type":"Point","coordinates":[-6.620927999999935,5.771290000000022]},"properties":{"id":29967,"nom":"ONG FOASCOM ANTENNE DE GALEA","type":"ong region","district_region":null,"departement_commune":null,"verifie":true,"name":"ONG FOASCOM ANTENNE DE GALEA","source":"Géoportail ANSTAT"}},{"type":"Feature","geometry":{"type":"Point","coordinates":[-6.593346999999937,5.772723000000042]},"properties":{"id":29968,"nom":"ONG","type":"ong region","district_region":null,"departement_commune":null,"verifie":true,"name":"ONG","source":"Géoportail ANSTAT"}},{"type":"Feature","geometry":{"type":"Point","coordinates":[-6.595144999999945,5.780379000000039]},"properties":{"id":29969,"nom":"ONG","type":"ong region","district_region":null,"departement_commune":null,"verifie":true,"name":"ONG","source":"Géoportail ANSTAT"}},{"type":"Feature","geometry":{"type":"Point","coordinates":[-6.596706999999981,5.783027000000061]},"properties":{"id":29970,"nom":"ONG ASAPSU","type":"ong region","district_region":null,"departement_commune":null,"verifie":true,"name":"ONG ASAPSU","source":"Géoportail ANSTAT"}},{"type":"Feature","geometry":{"type":"Point","coordinates":[-6.592650999999933,5.790560000000028]},"properties":{"id":29974,"nom":"ONG ASUR","type":"ong region","district_region":null,"departement_commune":null,"verifie":true,"name":"ONG ASUR","source":"Géoportail ANSTAT"}},{"type":"Feature","geometry":{"type":"Point","coordinates":[-4.495499999999936,6.667945000000032]},"properties":{"id":29975,"nom":"ONG AGNITIENITCHE CDV ASSAHARA","type":"ong region","district_region":null,"departement_commune":null,"verifie":true,"name":"ONG AGNITIENITCHE CDV ASSAHARA","source":"Géoportail ANSTAT"}},{"type":"Feature","geometry":{"type":"Point","coordinates":[-4.191445999999928,6.652327000000071]},"properties":{"id":29976,"nom":"ONG FAMILLE POUR TOUS INTERNATIONALE","type":"ong region","district_region":null,"departement_commune":null,"verifie":true,"name":"ONG FAMILLE POUR TOUS INTERNATIONALE","source":"Géoportail ANSTAT"}},{"type":"Feature","geometry":{"type":"Point","coordinates":[-7.619981999999936,6.910280000000057]},"properties":{"id":29977,"nom":"ONG  UGEFOS","type":"ong region","district_region":null,"departement_commune":null,"verifie":true,"name":"ONG  UGEFOS","source":"Géoportail ANSTAT"}},{"type":"Feature","geometry":{"type":"Point","coordinates":[-7.347081999999943,6.736965000000055]},"properties":{"id":29978,"nom":"ONG INTERNATIONALE IRC","type":"ong region","district_region":null,"departement_commune":null,"verifie":true,"name":"ONG INTERNATIONALE IRC","source":"Géoportail ANSTAT"}},{"type":"Feature","geometry":{"type":"Point","coordinates":[-7.348994999999945,6.726772000000039]},"properties":{"id":29979,"nom":"ONG LES GRENIERS DU MONDE CI","type":"ong region","district_region":null,"departement_commune":null,"verifie":true,"name":"ONG LES GRENIERS DU MONDE CI","source":"Géoportail ANSTAT"}},{"type":"Feature","geometry":{"type":"Point","coordinates":[-7.358053999999981,6.750884000000042]},"properties":{"id":29980,"nom":"ONG BEDP","type":"ong region","district_region":null,"departement_commune":null,"verifie":true,"name":"ONG BEDP","source":"Géoportail ANSTAT"}},{"type":"Feature","geometry":{"type":"Point","coordinates":[-7.359348999999952,6.734919000000048]},"properties":{"id":29981,"nom":"ONG CONSCIENCE PROPRE ET COOP CA BOYA","type":"ong region","district_region":null,"departement_commune":null,"verifie":true,"name":"ONG CONSCIENCE PROPRE ET COOP CA BOYA","source":"Géoportail ANSTAT"}},{"type":"Feature","geometry":{"type":"Point","coordinates":[-7.359183999999971,6.728248000000065]},"properties":{"id":29982,"nom":"ONG DES GRENIERS DU MONDE","type":"ong region","district_region":null,"departement_commune":null,"verifie":true,"name":"ONG DES GRENIERS DU MONDE","source":"Géoportail ANSTAT"}},{"type":"Feature","geometry":{"type":"Point","coordinates":[-4.39104599999996,5.328423000000043]},"properties":{"id":29990,"nom":"ONG ARPA","type":"ong region","district_region":null,"departement_commune":null,"verifie":true,"name":"ONG ARPA","source":"Géoportail ANSTAT"}},{"type":"Feature","geometry":{"type":"Point","coordinates":[-4.379273999999953,5.326433000000065]},"properties":{"id":29991,"nom":"ONG COEUR MERE DE DABOU","type":"ong region","district_region":null,"departement_commune":null,"verifie":true,"name":"ONG COEUR MERE DE DABOU","source":"Géoportail ANSTAT"}},{"type":"Feature","geometry":{"type":"Point","coordinates":[-5.963914999999929,6.145975000000021]},"properties":{"id":29994,"nom":"ONG IMSA","type":"ong region","district_region":null,"departement_commune":null,"verifie":true,"name":"ONG IMSA","source":"Géoportail ANSTAT"}},{"type":"Feature","geometry":{"type":"Point","coordinates":[-6.100385999999958,5.935050000000047]},"properties":{"id":29995,"nom":"ONG","type":"ong region","district_region":null,"departement_commune":null,"verifie":true,"name":"ONG","source":"Géoportail ANSTAT"}},{"type":"Feature","geometry":{"type":"Point","coordinates":[-6.104248999999925,6.044973000000027]},"properties":{"id":29996,"nom":"ONG AIDC SANTE","type":"ong region","district_region":null,"departement_commune":null,"verifie":true,"name":"ONG AIDC SANTE","source":"Géoportail ANSTAT"}},{"type":"Feature","geometry":{"type":"Point","coordinates":[-6.057593999999938,5.836714000000029]},"properties":{"id":29997,"nom":"ONG PROSACOR","type":"ong region","district_region":null,"departement_commune":null,"verifie":true,"name":"ONG PROSACOR","source":"Géoportail ANSTAT"}},{"type":"Feature","geometry":{"type":"Point","coordinates":[-5.951408999999956,6.137262000000021]},"properties":{"id":29999,"nom":"ONG APSCI","type":"ong region","district_region":null,"departement_commune":null,"verifie":true,"name":"ONG APSCI","source":"Géoportail ANSTAT"}},{"type":"Feature","geometry":{"type":"Point","coordinates":[-6.194920999999965,6.268225000000029]},"properties":{"id":30000,"nom":"ONG COTE D IVORE SOLIDARITE","type":"ong region","district_region":null,"departement_commune":null,"verifie":true,"name":"ONG COTE D IVORE SOLIDARITE","source":"Géoportail ANSTAT"}},{"type":"Feature","geometry":{"type":"Point","coordinates":[-5.932288999999969,6.311841000000072]},"properties":{"id":30005,"nom":"ONG AFESFAC","type":"ong region","district_region":null,"departement_commune":null,"verifie":true,"name":"ONG AFESFAC","source":"Géoportail ANSTAT"}},{"type":"Feature","geometry":{"type":"Point","coordinates":[-5.932552999999928,6.30976000000004]},"properties":{"id":30006,"nom":"ONG ENVIRONEMENT SEIN VIE AGREABLE","type":"ong region","district_region":null,"departement_commune":null,"verifie":true,"name":"ONG ENVIRONEMENT SEIN VIE AGREABLE","source":"Géoportail ANSTAT"}},{"type":"Feature","geometry":{"type":"Point","coordinates":[-5.582791999999927,6.28512900000004]},"properties":{"id":30007,"nom":"ONG CERCLE DU REVEIL DE L AFRIQUE","type":"ong region","district_region":null,"departement_commune":null,"verifie":true,"name":"ONG CERCLE DU REVEIL DE L AFRIQUE","source":"Géoportail ANSTAT"}},{"type":"Feature","geometry":{"type":"Point","coordinates":[-6.380293999999935,4.953659000000073]},"properties":{"id":30009,"nom":"ONG BEREKIA","type":"ong region","district_region":null,"departement_commune":null,"verifie":true,"name":"ONG BEREKIA","source":"Géoportail ANSTAT"}},{"type":"Feature","geometry":{"type":"Point","coordinates":[-2.808402999999942,8.046579000000065]},"properties":{"id":30014,"nom":"ONG EMERGENCE RURALE","type":"ong region","district_region":null,"departement_commune":null,"verifie":true,"name":"ONG EMERGENCE RURALE","source":"Géoportail ANSTAT"}},{"type":"Feature","geometry":{"type":"Point","coordinates":[-2.794705999999962,8.039682000000028]},"properties":{"id":30015,"nom":"ONG LES FLAMBOYANTS ET LAFED","type":"ong region","district_region":null,"departement_commune":null,"verifie":true,"name":"ONG LES FLAMBOYANTS ET LAFED","source":"Géoportail ANSTAT"}},{"type":"Feature","geometry":{"type":"Point","coordinates":[-3.164446999999939,7.806609000000037]},"properties":{"id":30019,"nom":"ONG NOTRE GRENIER BUREAU DE TANDA","type":"ong region","district_region":null,"departement_commune":null,"verifie":true,"name":"ONG NOTRE GRENIER BUREAU DE TANDA","source":"Géoportail ANSTAT"}},{"type":"Feature","geometry":{"type":"Point","coordinates":[-6.682920999999965,7.95993100000004]},"properties":{"id":30024,"nom":"ONG ALFOSED","type":"ong region","district_region":null,"departement_commune":null,"verifie":true,"name":"ONG ALFOSED","source":"Géoportail ANSTAT"}},{"type":"Feature","geometry":{"type":"Point","coordinates":[-5.549231999999961,6.694598000000042]},"properties":{"id":30028,"nom":"ONG MEDICAL LA GRACE","type":"ong region","district_region":null,"departement_commune":null,"verifie":true,"name":"ONG MEDICAL LA GRACE","source":"Géoportail ANSTAT"}},{"type":"Feature","geometry":{"type":"Point","coordinates":[-5.018681999999956,7.725111000000027]},"properties":{"id":30030,"nom":"ONG MOFADP","type":"ong region","district_region":null,"departement_commune":null,"verifie":true,"name":"ONG MOFADP","source":"Géoportail ANSTAT"}},{"type":"Feature","geometry":{"type":"Point","coordinates":[-5.07141299999995,7.670884000000058]},"properties":{"id":30031,"nom":"ONG REMAR","type":"ong region","district_region":null,"departement_commune":null,"verifie":true,"name":"ONG REMAR","source":"Géoportail ANSTAT"}},{"type":"Feature","geometry":{"type":"Point","coordinates":[-5.039298999999971,7.704111000000069]},"properties":{"id":30034,"nom":"ONG AMEPHALUPARINT","type":"ong region","district_region":null,"departement_commune":null,"verifie":true,"name":"ONG AMEPHALUPARINT","source":"Géoportail ANSTAT"}},{"type":"Feature","geometry":{"type":"Point","coordinates":[-5.018553999999938,7.682406000000071]},"properties":{"id":30035,"nom":"ONG ASSOCIATION IVOIRIENNE POUR LE PROGRES","type":"ong region","district_region":null,"departement_commune":null,"verifie":true,"name":"ONG ASSOCIATION IVOIRIENNE POUR LE PROGRES","source":"Géoportail ANSTAT"}},{"type":"Feature","geometry":{"type":"Point","coordinates":[-5.025692999999933,7.680958000000032]},"properties":{"id":30036,"nom":"ONG BOUAKE EVEIL","type":"ong region","district_region":null,"departement_commune":null,"verifie":true,"name":"ONG BOUAKE EVEIL","source":"Géoportail ANSTAT"}},{"type":"Feature","geometry":{"type":"Point","coordinates":[-5.007239999999967,7.698876000000041]},"properties":{"id":30037,"nom":"ONG DE RIZ","type":"ong region","district_region":null,"departement_commune":null,"verifie":true,"name":"ONG DE RIZ","source":"Géoportail ANSTAT"}},{"type":"Feature","geometry":{"type":"Point","coordinates":[-5.039512999999943,7.678442000000075]},"properties":{"id":30038,"nom":"ONG INTERNATIONALE AMERICAINE SFP","type":"ong region","district_region":null,"departement_commune":null,"verifie":true,"name":"ONG INTERNATIONALE AMERICAINE SFP","source":"Géoportail ANSTAT"}},{"type":"Feature","geometry":{"type":"Point","coordinates":[-5.013018999999929,7.668043000000068]},"properties":{"id":30039,"nom":"ONG OIS AFRIQUE","type":"ong region","district_region":null,"departement_commune":null,"verifie":true,"name":"ONG OIS AFRIQUE","source":"Géoportail ANSTAT"}},{"type":"Feature","geometry":{"type":"Point","coordinates":[-5.070551999999964,7.520509000000061]},"properties":{"id":30040,"nom":"ONG AIDSCOM","type":"ong region","district_region":null,"departement_commune":null,"verifie":true,"name":"ONG AIDSCOM","source":"Géoportail ANSTAT"}},{"type":"Feature","geometry":{"type":"Point","coordinates":[-5.196491999999978,7.55474700000002]},"properties":{"id":30041,"nom":"ONG  MAISON  PAD","type":"ong region","district_region":null,"departement_commune":null,"verifie":true,"name":"ONG  MAISON  PAD","source":"Géoportail ANSTAT"}},{"type":"Feature","geometry":{"type":"Point","coordinates":[-2.999055999999939,9.27319700000004]},"properties":{"id":30043,"nom":"ONG LES FLAMBOYANTS","type":"ong region","district_region":null,"departement_commune":null,"verifie":true,"name":"ONG LES FLAMBOYANTS","source":"Géoportail ANSTAT"}},{"type":"Feature","geometry":{"type":"Point","coordinates":[-3.001266999999928,9.271960000000036]},"properties":{"id":30044,"nom":"ONG LETOILE DU BOUNKANI","type":"ong region","district_region":null,"departement_commune":null,"verifie":true,"name":"ONG LETOILE DU BOUNKANI","source":"Géoportail ANSTAT"}},{"type":"Feature","geometry":{"type":"Point","coordinates":[-4.496154999999931,7.066066000000035]},"properties":{"id":30045,"nom":"ONG AFA","type":"ong region","district_region":null,"departement_commune":null,"verifie":true,"name":"ONG AFA","source":"Géoportail ANSTAT"}},{"type":"Feature","geometry":{"type":"Point","coordinates":[-4.496087999999929,7.063632000000041]},"properties":{"id":30046,"nom":"ONG AFA","type":"ong region","district_region":null,"departement_commune":null,"verifie":true,"name":"ONG AFA","source":"Géoportail ANSTAT"}},{"type":"Feature","geometry":{"type":"Point","coordinates":[-4.49819999999994,7.066579000000047]},"properties":{"id":30047,"nom":"ONG APSA","type":"ong region","district_region":null,"departement_commune":null,"verifie":true,"name":"ONG APSA","source":"Géoportail ANSTAT"}},{"type":"Feature","geometry":{"type":"Point","coordinates":[-4.704168999999979,6.648621000000048]},"properties":{"id":30048,"nom":"ONG ENVIRONNEMENT","type":"ong region","district_region":null,"departement_commune":null,"verifie":true,"name":"ONG ENVIRONNEMENT","source":"Géoportail ANSTAT"}},{"type":"Feature","geometry":{"type":"Point","coordinates":[-7.489940999999931,6.223602000000028]},"properties":{"id":30049,"nom":"ONG NOTRE FORET NOTRE AVENIR","type":"ong region","district_region":null,"departement_commune":null,"verifie":true,"name":"ONG NOTRE FORET NOTRE AVENIR","source":"Géoportail ANSTAT"}},{"type":"Feature","geometry":{"type":"Point","coordinates":[-7.449435999999935,5.872914000000037]},"properties":{"id":30050,"nom":"ONG AJRC  ACTION JEUNESSE RURALE CAVALLY","type":"ong region","district_region":null,"departement_commune":null,"verifie":true,"name":"ONG AJRC  ACTION JEUNESSE RURALE CAVALLY","source":"Géoportail ANSTAT"}},{"type":"Feature","geometry":{"type":"Point","coordinates":[-7.497286999999972,6.538603000000023]},"properties":{"id":30052,"nom":"ONG ISMAVEO","type":"ong region","district_region":null,"departement_commune":null,"verifie":true,"name":"ONG ISMAVEO","source":"Géoportail ANSTAT"}},{"type":"Feature","geometry":{"type":"Point","coordinates":[-7.703423999999927,6.64655700000003]},"properties":{"id":30053,"nom":"ONG COMUPASC","type":"ong region","district_region":null,"departement_commune":null,"verifie":true,"name":"ONG COMUPASC","source":"Géoportail ANSTAT"}},{"type":"Feature","geometry":{"type":"Point","coordinates":[-7.728292999999951,6.46721400000007]},"properties":{"id":30054,"nom":"ONG COMUPAX","type":"ong region","district_region":null,"departement_commune":null,"verifie":true,"name":"ONG COMUPAX","source":"Géoportail ANSTAT"}},{"type":"Feature","geometry":{"type":"Point","coordinates":[-8.416852999999946,6.582710000000077]},"properties":{"id":30055,"nom":"ONG GDV","type":"ong region","district_region":null,"departement_commune":null,"verifie":true,"name":"ONG GDV","source":"Géoportail ANSTAT"}},{"type":"Feature","geometry":{"type":"Point","coordinates":[-8.307181999999955,6.566277000000071]},"properties":{"id":30056,"nom":"ONG DE PEHE","type":"ong region","district_region":null,"departement_commune":null,"verifie":true,"name":"ONG DE PEHE","source":"Géoportail ANSTAT"}},{"type":"Feature","geometry":{"type":"Point","coordinates":[-6.845849999999928,7.154540000000054]},"properties":{"id":30058,"nom":"ONG ADP","type":"ong region","district_region":null,"departement_commune":null,"verifie":true,"name":"ONG ADP","source":"Géoportail ANSTAT"}},{"type":"Feature","geometry":{"type":"Point","coordinates":[-6.847918999999933,7.14947200000006]},"properties":{"id":30059,"nom":"ONG GHA","type":"ong region","district_region":null,"departement_commune":null,"verifie":true,"name":"ONG GHA","source":"Géoportail ANSTAT"}},{"type":"Feature","geometry":{"type":"Point","coordinates":[-6.519263999999964,7.610524000000055]},"properties":{"id":30060,"nom":"ONG ADP SANTE","type":"ong region","district_region":null,"departement_commune":null,"verifie":true,"name":"ONG ADP SANTE","source":"Géoportail ANSTAT"}},{"type":"Feature","geometry":{"type":"Point","coordinates":[-6.789516999999933,7.484398000000056]},"properties":{"id":30061,"nom":"ONG ADP SANTE","type":"ong region","district_region":null,"departement_commune":null,"verifie":true,"name":"ONG ADP SANTE","source":"Géoportail ANSTAT"}},{"type":"Feature","geometry":{"type":"Point","coordinates":[-6.891561999999965,7.507022000000063]},"properties":{"id":30062,"nom":"ONG ADP SANTE","type":"ong region","district_region":null,"departement_commune":null,"verifie":true,"name":"ONG ADP SANTE","source":"Géoportail ANSTAT"}},{"type":"Feature","geometry":{"type":"Point","coordinates":[-6.946462999999937,6.73352600000004]},"properties":{"id":30064,"nom":"ONG IVOIRE SERVICE","type":"ong region","district_region":null,"departement_commune":null,"verifie":true,"name":"ONG IVOIRE SERVICE","source":"Géoportail ANSTAT"}},{"type":"Feature","geometry":{"type":"Point","coordinates":[-6.529585999999938,6.919819000000075]},"properties":{"id":30065,"nom":"ONG  OCJUD  COTE DIVOIRE","type":"ong region","district_region":null,"departement_commune":null,"verifie":true,"name":"ONG  OCJUD  COTE DIVOIRE","source":"Géoportail ANSTAT"}},{"type":"Feature","geometry":{"type":"Point","coordinates":[-6.423048999999935,6.859012000000064]},"properties":{"id":30068,"nom":"ONG BADA","type":"ong region","district_region":null,"departement_commune":null,"verifie":true,"name":"ONG BADA","source":"Géoportail ANSTAT"}},{"type":"Feature","geometry":{"type":"Point","coordinates":[-6.426434999999969,6.854442000000063]},"properties":{"id":30069,"nom":"ONG  RPS  LA COLOMBE ABATOIRE 2","type":"ong region","district_region":null,"departement_commune":null,"verifie":true,"name":"ONG  RPS  LA COLOMBE ABATOIRE 2","source":"Géoportail ANSTAT"}},{"type":"Feature","geometry":{"type":"Point","coordinates":[-6.423108999999954,6.855515000000025]},"properties":{"id":30070,"nom":"ONG OCJUD COTE D IVOIRE","type":"ong region","district_region":null,"departement_commune":null,"verifie":true,"name":"ONG OCJUD COTE D IVOIRE","source":"Géoportail ANSTAT"}},{"type":"Feature","geometry":{"type":"Point","coordinates":[-6.449058999999977,6.873088000000052]},"properties":{"id":30072,"nom":"ONG ACID POUR LE DEVELOPPEMENT SANITAIRE DES COMMUNAUTES DE BASE","type":"ong region","district_region":null,"departement_commune":null,"verifie":true,"name":"ONG ACID POUR LE DEVELOPPEMENT SANITAIRE DES COMMUNAUTES DE BASE","source":"Géoportail ANSTAT"}},{"type":"Feature","geometry":{"type":"Point","coordinates":[-6.448657999999966,6.876371000000063]},"properties":{"id":30073,"nom":"ONG MTDI","type":"ong region","district_region":null,"departement_commune":null,"verifie":true,"name":"ONG MTDI","source":"Géoportail ANSTAT"}},{"type":"Feature","geometry":{"type":"Point","coordinates":[-6.49626799999993,6.505589000000043]},"properties":{"id":30074,"nom":"ONG  AMOUR COMMUNE","type":"ong region","district_region":null,"departement_commune":null,"verifie":true,"name":"ONG  AMOUR COMMUNE","source":"Géoportail ANSTAT"}},{"type":"Feature","geometry":{"type":"Point","coordinates":[-6.590048999999965,6.485795000000053]},"properties":{"id":30075,"nom":"ONG AMOGNAN","type":"ong region","district_region":null,"departement_commune":null,"verifie":true,"name":"ONG AMOGNAN","source":"Géoportail ANSTAT"}},{"type":"Feature","geometry":{"type":"Point","coordinates":[-6.578078999999946,6.494571000000064]},"properties":{"id":30076,"nom":"ONG AMOOGNAN CI","type":"ong region","district_region":null,"departement_commune":null,"verifie":true,"name":"ONG AMOOGNAN CI","source":"Géoportail ANSTAT"}},{"type":"Feature","geometry":{"type":"Point","coordinates":[-4.56918399999995,5.668851000000075]},"properties":{"id":30079,"nom":"ONG MANCI","type":"ong region","district_region":null,"departement_commune":null,"verifie":true,"name":"ONG MANCI","source":"Géoportail ANSTAT"}},{"type":"Feature","geometry":{"type":"Point","coordinates":[-4.227000999999973,5.950356000000056]},"properties":{"id":30080,"nom":"ONG FEMMES EN ACTION","type":"ong region","district_region":null,"departement_commune":null,"verifie":true,"name":"ONG FEMMES EN ACTION","source":"Géoportail ANSTAT"}},{"type":"Feature","geometry":{"type":"Point","coordinates":[-4.219018999999946,5.924184000000025]},"properties":{"id":30081,"nom":"ONG MONDE NOUVEAU","type":"ong region","district_region":null,"departement_commune":null,"verifie":true,"name":"ONG MONDE NOUVEAU","source":"Géoportail ANSTAT"}},{"type":"Feature","geometry":{"type":"Point","coordinates":[-7.685630999999944,8.281927000000053]},"properties":{"id":30083,"nom":"ONG FARAFIN DENI JUNIOR","type":"ong region","district_region":null,"departement_commune":null,"verifie":true,"name":"ONG FARAFIN DENI JUNIOR","source":"Géoportail ANSTAT"}},{"type":"Feature","geometry":{"type":"Point","coordinates":[-7.68023299999993,7.949669000000029]},"properties":{"id":30084,"nom":"ONG RESCUE","type":"ong region","district_region":null,"departement_commune":null,"verifie":true,"name":"ONG RESCUE","source":"Géoportail ANSTAT"}},{"type":"Feature","geometry":{"type":"Point","coordinates":[-5.817665999999974,5.857844000000057]},"properties":{"id":30086,"nom":"ONG ADP DE LIGROHOIN","type":"ong region","district_region":null,"departement_commune":null,"verifie":true,"name":"ONG ADP DE LIGROHOIN","source":"Géoportail ANSTAT"}},{"type":"Feature","geometry":{"type":"Point","coordinates":[-5.815344999999979,5.85916700000007]},"properties":{"id":30087,"nom":"ONG AIDC","type":"ong region","district_region":null,"departement_commune":null,"verifie":true,"name":"ONG AIDC","source":"Géoportail ANSTAT"}},{"type":"Feature","geometry":{"type":"Point","coordinates":[-5.761140999999952,6.018882000000076]},"properties":{"id":30090,"nom":"ONG OBAMES CI","type":"ong region","district_region":null,"departement_commune":null,"verifie":true,"name":"ONG OBAMES CI","source":"Géoportail ANSTAT"}},{"type":"Feature","geometry":{"type":"Point","coordinates":[-5.323653999999976,5.935877000000062]},"properties":{"id":30091,"nom":"ONG COEUR POUR HUMANITE","type":"ong region","district_region":null,"departement_commune":null,"verifie":true,"name":"ONG COEUR POUR HUMANITE","source":"Géoportail ANSTAT"}},{"type":"Feature","geometry":{"type":"Point","coordinates":[-6.471284999999966,9.524541000000056]},"properties":{"id":30093,"nom":"ONG EICT","type":"ong region","district_region":null,"departement_commune":null,"verifie":true,"name":"ONG EICT","source":"Géoportail ANSTAT"}},{"type":"Feature","geometry":{"type":"Point","coordinates":[-5.521247999999957,8.124994000000072]},"properties":{"id":30095,"nom":"ONG AIDC","type":"ong region","district_region":null,"departement_commune":null,"verifie":true,"name":"ONG AIDC","source":"Géoportail ANSTAT"}},{"type":"Feature","geometry":{"type":"Point","coordinates":[-5.520941999999934,8.125928000000044]},"properties":{"id":30096,"nom":"ONG EPS","type":"ong region","district_region":null,"departement_commune":null,"verifie":true,"name":"ONG EPS","source":"Géoportail ANSTAT"}},{"type":"Feature","geometry":{"type":"Point","coordinates":[-6.187790999999947,8.050070000000062]},"properties":{"id":30098,"nom":"ONG ASAPSU","type":"ong region","district_region":null,"departement_commune":null,"verifie":true,"name":"ONG ASAPSU","source":"Géoportail ANSTAT"}},{"type":"Feature","geometry":{"type":"Point","coordinates":[-6.251627999999926,8.952477000000044]},"properties":{"id":30099,"nom":"ONG FAPEP  CI","type":"ong region","district_region":null,"departement_commune":null,"verifie":true,"name":"ONG FAPEP  CI","source":"Géoportail ANSTAT"}},{"type":"Feature","geometry":{"type":"Point","coordinates":[-3.491804999999943,6.724247000000048]},"properties":{"id":30101,"nom":"ONG CERAB","type":"ong region","district_region":null,"departement_commune":null,"verifie":true,"name":"ONG CERAB","source":"Géoportail ANSTAT"}},{"type":"Feature","geometry":{"type":"Point","coordinates":[-3.486808999999937,6.724650000000054]},"properties":{"id":30102,"nom":"ONG IVOIRE SEMENCES","type":"ong region","district_region":null,"departement_commune":null,"verifie":true,"name":"ONG IVOIRE SEMENCES","source":"Géoportail ANSTAT"}},{"type":"Feature","geometry":{"type":"Point","coordinates":[-3.486872999999946,6.73176600000005]},"properties":{"id":30103,"nom":"ONG LUTTE CONTRE LA CECITE","type":"ong region","district_region":null,"departement_commune":null,"verifie":true,"name":"ONG LUTTE CONTRE LA CECITE","source":"Géoportail ANSTAT"}},{"type":"Feature","geometry":{"type":"Point","coordinates":[-3.406956999999977,6.076331000000039]},"properties":{"id":30108,"nom":"ONG KFHI","type":"ong region","district_region":null,"departement_commune":null,"verifie":true,"name":"ONG KFHI","source":"Géoportail ANSTAT"}},{"type":"Feature","geometry":{"type":"Point","coordinates":[-3.657551999999953,5.498372000000074]},"properties":{"id":30110,"nom":"ONG IMA","type":"ong region","district_region":null,"departement_commune":null,"verifie":true,"name":"ONG IMA","source":"Géoportail ANSTAT"}},{"type":"Feature","geometry":{"type":"Point","coordinates":[-3.851996999999926,6.338054000000056]},"properties":{"id":30111,"nom":"ONG COMUPASC","type":"ong region","district_region":null,"departement_commune":null,"verifie":true,"name":"ONG COMUPASC","source":"Géoportail ANSTAT"}},{"type":"Feature","geometry":{"type":"Point","coordinates":[-5.526308999999969,8.76574800000003]},"properties":{"id":30116,"nom":"ONG AIME TON PROCHAIN","type":"ong region","district_region":null,"departement_commune":null,"verifie":true,"name":"ONG AIME TON PROCHAIN","source":"Géoportail ANSTAT"}},{"type":"Feature","geometry":{"type":"Point","coordinates":[-5.526278999999931,8.765754000000072]},"properties":{"id":30117,"nom":"ONG AIME TON PROCHAIN","type":"ong region","district_region":null,"departement_commune":null,"verifie":true,"name":"ONG AIME TON PROCHAIN","source":"Géoportail ANSTAT"}},{"type":"Feature","geometry":{"type":"Point","coordinates":[-5.168590999999935,9.157796000000076]},"properties":{"id":30118,"nom":"ONG LAVOIX DE L ISLAM","type":"ong region","district_region":null,"departement_commune":null,"verifie":true,"name":"ONG LAVOIX DE L ISLAM","source":"Géoportail ANSTAT"}},{"type":"Feature","geometry":{"type":"Point","coordinates":[-5.095136999999966,8.122052000000053]},"properties":{"id":30119,"nom":"ONG CENTRE DES ORPHELINS","type":"ong region","district_region":null,"departement_commune":null,"verifie":true,"name":"ONG CENTRE DES ORPHELINS","source":"Géoportail ANSTAT"}},{"type":"Feature","geometry":{"type":"Point","coordinates":[-5.098437999999931,8.14063200000004]},"properties":{"id":30120,"nom":"ONG CONVERGENCE   RAPPROCHER LES HOMMES PAR LA CULTURE","type":"ong region","district_region":null,"departement_commune":null,"verifie":true,"name":"ONG CONVERGENCE   RAPPROCHER LES HOMMES PAR LA CULTURE","source":"Géoportail ANSTAT"}},{"type":"Feature","geometry":{"type":"Point","coordinates":[-5.095588999999961,8.124655000000075]},"properties":{"id":30121,"nom":"ONG MEDECIN SANS FRONTIERE","type":"ong region","district_region":null,"departement_commune":null,"verifie":true,"name":"ONG MEDECIN SANS FRONTIERE","source":"Géoportail ANSTAT"}},{"type":"Feature","geometry":{"type":"Point","coordinates":[-7.54934099999997,7.428056000000026]},"properties":{"id":30126,"nom":"ONG ADP","type":"ong region","district_region":null,"departement_commune":null,"verifie":true,"name":"ONG ADP","source":"Géoportail ANSTAT"}},{"type":"Feature","geometry":{"type":"Point","coordinates":[-7.551443999999947,7.416048000000046]},"properties":{"id":30127,"nom":"ONG ADP","type":"ong region","district_region":null,"departement_commune":null,"verifie":true,"name":"ONG ADP","source":"Géoportail ANSTAT"}},{"type":"Feature","geometry":{"type":"Point","coordinates":[-7.550228999999945,7.405072000000075]},"properties":{"id":30128,"nom":"ONG IDE AFRIQUE CENTRE MEDICO SOCIAL MAN","type":"ong region","district_region":null,"departement_commune":null,"verifie":true,"name":"ONG IDE AFRIQUE CENTRE MEDICO SOCIAL MAN","source":"Géoportail ANSTAT"}},{"type":"Feature","geometry":{"type":"Point","coordinates":[-7.558333999999945,7.395208000000025]},"properties":{"id":30129,"nom":"ONG ODAFEM","type":"ong region","district_region":null,"departement_commune":null,"verifie":true,"name":"ONG ODAFEM","source":"Géoportail ANSTAT"}},{"type":"Feature","geometry":{"type":"Point","coordinates":[-7.604590999999971,7.290231000000063]},"properties":{"id":30130,"nom":"ONG LIKOLEH CI","type":"ong region","district_region":null,"departement_commune":null,"verifie":true,"name":"ONG LIKOLEH CI","source":"Géoportail ANSTAT"}},{"type":"Feature","geometry":{"type":"Point","coordinates":[-8.15471599999995,7.262770000000046]},"properties":{"id":30135,"nom":"ONG ESPACE AMI DES FEMMES DE DANANE","type":"ong region","district_region":null,"departement_commune":null,"verifie":true,"name":"ONG ESPACE AMI DES FEMMES DE DANANE","source":"Géoportail ANSTAT"}},{"type":"Feature","geometry":{"type":"Point","coordinates":[-7.924497999999971,7.219110000000057]},"properties":{"id":30136,"nom":"ONG ESPOIR PAR LA SANTE","type":"ong region","district_region":null,"departement_commune":null,"verifie":true,"name":"ONG ESPOIR PAR LA SANTE","source":"Géoportail ANSTAT"}},{"type":"Feature","geometry":{"type":"Point","coordinates":[-4.336121999999932,7.450582000000054]},"properties":{"id":30138,"nom":"ONG BELVIE","type":"ong region","district_region":null,"departement_commune":null,"verifie":true,"name":"ONG BELVIE","source":"Géoportail ANSTAT"}},{"type":"Feature","geometry":{"type":"Point","coordinates":[-5.209094999999934,9.587215000000072]},"properties":{"id":30143,"nom":"ONG SAVCOM","type":"ong region","district_region":null,"departement_commune":null,"verifie":true,"name":"ONG SAVCOM","source":"Géoportail ANSTAT"}},{"type":"Feature","geometry":{"type":"Point","coordinates":[-6.647244999999941,4.743245000000059]},"properties":{"id":30144,"nom":"ONG SPORT SANS SUDA","type":"ong region","district_region":null,"departement_commune":null,"verifie":true,"name":"ONG SPORT SANS SUDA","source":"Géoportail ANSTAT"}},{"type":"Feature","geometry":{"type":"Point","coordinates":[-6.833106999999927,5.195179000000053]},"properties":{"id":30145,"nom":"ONG SIFOKA","type":"ong region","district_region":null,"departement_commune":null,"verifie":true,"name":"ONG SIFOKA","source":"Géoportail ANSTAT"}},{"type":"Feature","geometry":{"type":"Point","coordinates":[-5.661283999999966,9.488913000000023]},"properties":{"id":30147,"nom":"ONG SADEMIR","type":"ong region","district_region":null,"departement_commune":null,"verifie":true,"name":"ONG SADEMIR","source":"Géoportail ANSTAT"}},{"type":"Feature","geometry":{"type":"Point","coordinates":[-4.195807999999943,6.650239000000056]},"properties":{"id":30152,"nom":"ONG TOUS POUR LE TAUKPE","type":"ong region","district_region":null,"departement_commune":null,"verifie":true,"name":"ONG TOUS POUR LE TAUKPE","source":"Géoportail ANSTAT"}},{"type":"Feature","geometry":{"type":"Point","coordinates":[-4.199297999999942,6.654506000000026]},"properties":{"id":30153,"nom":"ONG TOUS POUR LE TOUGBE","type":"ong region","district_region":null,"departement_commune":null,"verifie":true,"name":"ONG TOUS POUR LE TOUGBE","source":"Géoportail ANSTAT"}},{"type":"Feature","geometry":{"type":"Point","coordinates":[-7.36588699999993,6.747457000000054]},"properties":{"id":30154,"nom":"ONG ZONDEHE DE DUEKOUE","type":"ong region","district_region":null,"departement_commune":null,"verifie":true,"name":"ONG ZONDEHE DE DUEKOUE","source":"Géoportail ANSTAT"}},{"type":"Feature","geometry":{"type":"Point","coordinates":[-5.95902499999994,6.128211000000022]},"properties":{"id":30167,"nom":"ONG SAINT ROMAN","type":"ong region","district_region":null,"departement_commune":null,"verifie":true,"name":"ONG SAINT ROMAN","source":"Géoportail ANSTAT"}},{"type":"Feature","geometry":{"type":"Point","coordinates":[-5.96004499999998,6.131598000000054]},"properties":{"id":30168,"nom":"ONG USAA","type":"ong region","district_region":null,"departement_commune":null,"verifie":true,"name":"ONG USAA","source":"Géoportail ANSTAT"}},{"type":"Feature","geometry":{"type":"Point","coordinates":[-6.294302999999957,6.007354000000021]},"properties":{"id":30169,"nom":"ONG SANTE PUBLIQUE","type":"ong region","district_region":null,"departement_commune":null,"verifie":true,"name":"ONG SANTE PUBLIQUE","source":"Géoportail ANSTAT"}},{"type":"Feature","geometry":{"type":"Point","coordinates":[-6.288310999999965,6.008025000000032]},"properties":{"id":30170,"nom":"ONG SAUME","type":"ong region","district_region":null,"departement_commune":null,"verifie":true,"name":"ONG SAUME","source":"Géoportail ANSTAT"}},{"type":"Feature","geometry":{"type":"Point","coordinates":[-5.84088799999995,5.966714000000024]},"properties":{"id":30172,"nom":"ONG VISION SANTE PLUS","type":"ong region","district_region":null,"departement_commune":null,"verifie":true,"name":"ONG VISION SANTE PLUS","source":"Géoportail ANSTAT"}},{"type":"Feature","geometry":{"type":"Point","coordinates":[-5.23364799999996,7.155620000000056]},"properties":{"id":30175,"nom":"ONG SANTE ET DEVELOPPEMENT POUR TOUS","type":"ong region","district_region":null,"departement_commune":null,"verifie":true,"name":"ONG SANTE ET DEVELOPPEMENT POUR TOUS","source":"Géoportail ANSTAT"}},{"type":"Feature","geometry":{"type":"Point","coordinates":[-5.221862999999928,7.162384000000031]},"properties":{"id":30176,"nom":"ONG TECK IVOIR","type":"ong region","district_region":null,"departement_commune":null,"verifie":true,"name":"ONG TECK IVOIR","source":"Géoportail ANSTAT"}},{"type":"Feature","geometry":{"type":"Point","coordinates":[-5.225403999999969,7.159371000000021]},"properties":{"id":30177,"nom":"ONG TECKAVENIR","type":"ong region","district_region":null,"departement_commune":null,"verifie":true,"name":"ONG TECKAVENIR","source":"Géoportail ANSTAT"}},{"type":"Feature","geometry":{"type":"Point","coordinates":[-4.185346999999979,5.332333000000062]},"properties":{"id":30178,"nom":"ONG SEDOH AFRICA SANTE","type":"ong region","district_region":null,"departement_commune":null,"verifie":true,"name":"ONG SEDOH AFRICA SANTE","source":"Géoportail ANSTAT"}},{"type":"Feature","geometry":{"type":"Point","coordinates":[-2.805141999999933,8.034719000000052]},"properties":{"id":30179,"nom":"ONG SOLEIL LEVANT","type":"ong region","district_region":null,"departement_commune":null,"verifie":true,"name":"ONG SOLEIL LEVANT","source":"Géoportail ANSTAT"}},{"type":"Feature","geometry":{"type":"Point","coordinates":[-6.613774999999976,8.187172000000032]},"properties":{"id":30180,"nom":"ONG US A A","type":"ong region","district_region":null,"departement_commune":null,"verifie":true,"name":"ONG US A A","source":"Géoportail ANSTAT"}},{"type":"Feature","geometry":{"type":"Point","coordinates":[-5.007855999999947,7.681478000000027]},"properties":{"id":30182,"nom":"ONG SAVE THE CHILDREN","type":"ong region","district_region":null,"departement_commune":null,"verifie":true,"name":"ONG SAVE THE CHILDREN","source":"Géoportail ANSTAT"}},{"type":"Feature","geometry":{"type":"Point","coordinates":[-5.010872999999947,7.690004000000044]},"properties":{"id":30183,"nom":"ONG VIE HEUREUSE","type":"ong region","district_region":null,"departement_commune":null,"verifie":true,"name":"ONG VIE HEUREUSE","source":"Géoportail ANSTAT"}},{"type":"Feature","geometry":{"type":"Point","coordinates":[-7.454547999999932,5.875061000000073]},"properties":{"id":30185,"nom":"ONG VISION INTERNATIONAL","type":"ong region","district_region":null,"departement_commune":null,"verifie":true,"name":"ONG VISION INTERNATIONAL","source":"Géoportail ANSTAT"}},{"type":"Feature","geometry":{"type":"Point","coordinates":[-6.345374999999933,6.909979000000021]},"properties":{"id":30187,"nom":"ONG SAMSU","type":"ong region","district_region":null,"departement_commune":null,"verifie":true,"name":"ONG SAMSU","source":"Géoportail ANSTAT"}},{"type":"Feature","geometry":{"type":"Point","coordinates":[-6.433052999999973,6.849162000000035]},"properties":{"id":30188,"nom":"ONG RPS ESPOIR SANTE","type":"ong region","district_region":null,"departement_commune":null,"verifie":true,"name":"ONG RPS ESPOIR SANTE","source":"Géoportail ANSTAT"}},{"type":"Feature","geometry":{"type":"Point","coordinates":[-6.453462999999942,6.895073000000025]},"properties":{"id":30189,"nom":"ONG SANTE URBAINE ET RURALE","type":"ong region","district_region":null,"departement_commune":null,"verifie":true,"name":"ONG SANTE URBAINE ET RURALE","source":"Géoportail ANSTAT"}},{"type":"Feature","geometry":{"type":"Point","coordinates":[-6.470498999999961,6.888434000000075]},"properties":{"id":30190,"nom":"ONG UN AMOUR DE COMMUNE","type":"ong region","district_region":null,"departement_commune":null,"verifie":true,"name":"ONG UN AMOUR DE COMMUNE","source":"Géoportail ANSTAT"}},{"type":"Feature","geometry":{"type":"Point","coordinates":[-6.426257999999962,6.865972000000056]},"properties":{"id":30191,"nom":"ONG UN IVOIRIEN UN MEDECIN","type":"ong region","district_region":null,"departement_commune":null,"verifie":true,"name":"ONG UN IVOIRIEN UN MEDECIN","source":"Géoportail ANSTAT"}},{"type":"Feature","geometry":{"type":"Point","coordinates":[-7.696518999999967,8.279735000000073]},"properties":{"id":30201,"nom":"ONG RESCUE INTERNATIONAL","type":"ong region","district_region":null,"departement_commune":null,"verifie":true,"name":"ONG RESCUE INTERNATIONAL","source":"Géoportail ANSTAT"}},{"type":"Feature","geometry":{"type":"Point","coordinates":[-5.084916999999962,6.033368000000053]},"properties":{"id":30203,"nom":"ONG SANTE COMMUNAUTAIRE","type":"ong region","district_region":null,"departement_commune":null,"verifie":true,"name":"ONG SANTE COMMUNAUTAIRE","source":"Géoportail ANSTAT"}},{"type":"Feature","geometry":{"type":"Point","coordinates":[-5.214835999999934,6.080298000000028]},"properties":{"id":30204,"nom":"ONG SARUH CI","type":"ong region","district_region":null,"departement_commune":null,"verifie":true,"name":"ONG SARUH CI","source":"Géoportail ANSTAT"}},{"type":"Feature","geometry":{"type":"Point","coordinates":[-3.49430899999993,6.725249000000076]},"properties":{"id":30205,"nom":"ONG SANTE PERIPHERIQUE","type":"ong region","district_region":null,"departement_commune":null,"verifie":true,"name":"ONG SANTE PERIPHERIQUE","source":"Géoportail ANSTAT"}},{"type":"Feature","geometry":{"type":"Point","coordinates":[-7.562097999999935,9.49387100000007]},"properties":{"id":30207,"nom":"ONG SINIGNASSIGUI","type":"ong region","district_region":null,"departement_commune":null,"verifie":true,"name":"ONG SINIGNASSIGUI","source":"Géoportail ANSTAT"}},{"type":"Feature","geometry":{"type":"Point","coordinates":[-7.564497999999958,9.498444000000063]},"properties":{"id":30208,"nom":"ONG SOUTRA","type":"ong region","district_region":null,"departement_commune":null,"verifie":true,"name":"ONG SOUTRA","source":"Géoportail ANSTAT"}},{"type":"Feature","geometry":{"type":"Point","coordinates":[-3.856270999999936,6.107059000000049]},"properties":{"id":30209,"nom":"ONG SOS","type":"ong region","district_region":null,"departement_commune":null,"verifie":true,"name":"ONG SOS","source":"Géoportail ANSTAT"}},{"type":"Feature","geometry":{"type":"Point","coordinates":[-5.165657999999951,9.068141000000026]},"properties":{"id":30214,"nom":"ONG WOL WASSA","type":"ong region","district_region":null,"departement_commune":null,"verifie":true,"name":"ONG WOL WASSA","source":"Géoportail ANSTAT"}},{"type":"Feature","geometry":{"type":"Point","coordinates":[-5.100915999999927,8.139916000000028]},"properties":{"id":30215,"nom":"ONG SOS ART CULTURE ET PROMOTION DE L HOMME","type":"ong region","district_region":null,"departement_commune":null,"verifie":true,"name":"ONG SOS ART CULTURE ET PROMOTION DE L HOMME","source":"Géoportail ANSTAT"}},{"type":"Feature","geometry":{"type":"Point","coordinates":[-7.714251999999931,7.300561000000073]},"properties":{"id":30217,"nom":"ONG VIVRIER D AFRIQUE","type":"ong region","district_region":null,"departement_commune":null,"verifie":true,"name":"ONG VIVRIER D AFRIQUE","source":"Géoportail ANSTAT"}},{"type":"Feature","geometry":{"type":"Point","coordinates":[-8.131899999999973,7.265930000000026]},"properties":{"id":30219,"nom":"ONG SANTE CONTINENTAL","type":"ong region","district_region":null,"departement_commune":null,"verifie":true,"name":"ONG SANTE CONTINENTAL","source":"Géoportail ANSTAT"}},{"type":"Feature","geometry":{"type":"Point","coordinates":[-8.121642999999949,7.262815000000046]},"properties":{"id":30220,"nom":"ONG SANTE INFANTILE","type":"ong region","district_region":null,"departement_commune":null,"verifie":true,"name":"ONG SANTE INFANTILE","source":"Géoportail ANSTAT"}},{"type":"Feature","geometry":{"type":"Point","coordinates":[-5.379386999999952,5.805655000000058]},"properties":{"id":30889,"nom":"PUIT ONG BPCI","type":"ong region","district_region":null,"departement_commune":null,"verifie":true,"name":"PUIT ONG BPCI","source":"Géoportail ANSTAT"}},{"type":"Feature","geometry":{"type":"Point","coordinates":[-5.278144999999938,6.808428000000049]},"properties":{"id":30898,"nom":"ONG LA PITIE","type":"ong region","district_region":null,"departement_commune":null,"verifie":true,"name":"ONG LA PITIE","source":"Géoportail ANSTAT"}},{"type":"Feature","geometry":{"type":"Point","coordinates":[-4.823705999999959,5.889933000000042]},"properties":{"id":31162,"nom":"SIEGE ONG FEMME EGALE VIE","type":"ong region","district_region":null,"departement_commune":null,"verifie":true,"name":"SIEGE ONG FEMME EGALE VIE","source":"Géoportail ANSTAT"}},{"type":"Feature","geometry":{"type":"Point","coordinates":[-4.084121999999979,5.633405000000039]},"properties":{"id":31182,"nom":"SONG TAABA","type":"ong region","district_region":null,"departement_commune":null,"verifie":true,"name":"SONG TAABA","source":"Géoportail ANSTAT"}},{"type":"Feature","geometry":{"type":"Point","coordinates":[-3.500902999999937,6.743915000000072]},"properties":{"id":31207,"nom":"STRONG IBTP","type":"ong region","district_region":null,"departement_commune":null,"verifie":true,"name":"STRONG IBTP","source":"Géoportail ANSTAT"}},{"type":"Feature","geometry":{"type":"Point","coordinates":[-4.038038999999969,5.457022000000052]},"properties":{"id":31603,"nom":"ONG COMUPASC SANTE","type":"ong region","district_region":null,"departement_commune":null,"verifie":true,"name":"ONG COMUPASC SANTE","source":"Géoportail ANSTAT"}},{"type":"Feature","geometry":{"type":"Point","coordinates":[-4.022725999999977,5.439752000000055]},"properties":{"id":31608,"nom":"ONG LA GRACE DIVINE ETERNELLE","type":"ong region","district_region":null,"departement_commune":null,"verifie":true,"name":"ONG LA GRACE DIVINE ETERNELLE","source":"Géoportail ANSTAT"}},{"type":"Feature","geometry":{"type":"Point","coordinates":[-4.000579999999957,5.371653000000038]},"properties":{"id":31622,"nom":"ONG MANTHATTAN","type":"ong region","district_region":null,"departement_commune":null,"verifie":true,"name":"ONG MANTHATTAN","source":"Géoportail ANSTAT"}},{"type":"Feature","geometry":{"type":"Point","coordinates":[-3.994759999999928,5.386026000000072]},"properties":{"id":31623,"nom":"ONG FATIMAT Z P LEDUCATION","type":"ong region","district_region":null,"departement_commune":null,"verifie":true,"name":"ONG FATIMAT Z P LEDUCATION","source":"Géoportail ANSTAT"}},{"type":"Feature","geometry":{"type":"Point","coordinates":[-4.097246999999925,5.384657000000061]},"properties":{"id":31647,"nom":"ONG SANTE COTE D IVOIRE","type":"ong region","district_region":null,"departement_commune":null,"verifie":true,"name":"ONG SANTE COTE D IVOIRE","source":"Géoportail ANSTAT"}},{"type":"Feature","geometry":{"type":"Point","coordinates":[-4.087556999999947,5.345954000000063]},"properties":{"id":31659,"nom":"ONG SOLIDARITE","type":"ong region","district_region":null,"departement_commune":null,"verifie":true,"name":"ONG SOLIDARITE","source":"Géoportail ANSTAT"}},{"type":"Feature","geometry":{"type":"Point","coordinates":[-3.977967999999976,5.302390000000059]},"properties":{"id":31692,"nom":"ONG MISSION D AMOUR","type":"ong region","district_region":null,"departement_commune":null,"verifie":true,"name":"ONG MISSION D AMOUR","source":"Géoportail ANSTAT"}},{"type":"Feature","geometry":{"type":"Point","coordinates":[-3.96602699999994,5.307425000000023]},"properties":{"id":31694,"nom":"ONG SAVE THE MOTHERS TRUST","type":"ong region","district_region":null,"departement_commune":null,"verifie":true,"name":"ONG SAVE THE MOTHERS TRUST","source":"Géoportail ANSTAT"}},{"type":"Feature","geometry":{"type":"Point","coordinates":[-3.987932999999941,5.309139000000073]},"properties":{"id":31695,"nom":"ONG KENANI","type":"ong region","district_region":null,"departement_commune":null,"verifie":true,"name":"ONG KENANI","source":"Géoportail ANSTAT"}},{"type":"Feature","geometry":{"type":"Point","coordinates":[-4.000214999999969,5.302184000000068]},"properties":{"id":31696,"nom":"ONG BEDA CI","type":"ong region","district_region":null,"departement_commune":null,"verifie":true,"name":"ONG BEDA CI","source":"Géoportail ANSTAT"}},{"type":"Feature","geometry":{"type":"Point","coordinates":[-4.04711199999997,5.355601000000036]},"properties":{"id":31703,"nom":"ONG COMUPASC","type":"ong region","district_region":null,"departement_commune":null,"verifie":true,"name":"ONG COMUPASC","source":"Géoportail ANSTAT"}},{"type":"Feature","geometry":{"type":"Point","coordinates":[-3.917926999999963,5.246296000000029]},"properties":{"id":31713,"nom":"ONG MA PART DE SACRIFICE","type":"ong region","district_region":null,"departement_commune":null,"verifie":true,"name":"ONG MA PART DE SACRIFICE","source":"Géoportail ANSTAT"}},{"type":"Feature","geometry":{"type":"Point","coordinates":[-3.986239999999952,5.356964000000062]},"properties":{"id":31804,"nom":"CONFEDERATION DES UNIONS NATIONALES D ONG AFRICAINES","type":"ong region","district_region":null,"departement_commune":null,"verifie":true,"name":"CONFEDERATION DES UNIONS NATIONALES D ONG AFRICAINES","source":"Géoportail ANSTAT"}},{"type":"Feature","geometry":{"type":"Point","coordinates":[-3.977401999999927,5.405099000000064]},"properties":{"id":32397,"nom":"F D ONG E A D A L E DIFFICULTE","type":"ong region","district_region":null,"departement_commune":null,"verifie":true,"name":"F D ONG E A D A L E DIFFICULTE","source":"Géoportail ANSTAT"}},{"type":"Feature","geometry":{"type":"Point","coordinates":[-4.008432999999968,5.456481000000053]},"properties":{"id":33587,"nom":"GRANDE ONG MASSE DEZOD","type":"ong region","district_region":null,"departement_commune":null,"verifie":true,"name":"GRANDE ONG MASSE DEZOD","source":"Géoportail ANSTAT"}},{"type":"Feature","geometry":{"type":"Point","coordinates":[-3.941894999999931,5.338723000000073]},"properties":{"id":33630,"nom":"LAFED ONG","type":"ong region","district_region":null,"departement_commune":null,"verifie":true,"name":"LAFED ONG","source":"Géoportail ANSTAT"}},{"type":"Feature","geometry":{"type":"Point","coordinates":[-3.963776999999936,5.380856000000051]},"properties":{"id":33784,"nom":"ONG LA BIENFAISANCE","type":"ong region","district_region":null,"departement_commune":null,"verifie":true,"name":"ONG LA BIENFAISANCE","source":"Géoportail ANSTAT"}},{"type":"Feature","geometry":{"type":"Point","coordinates":[-4.031913999999972,5.465156000000036]},"properties":{"id":33799,"nom":"ONG ADP MARKAZ","type":"ong region","district_region":null,"departement_commune":null,"verifie":true,"name":"ONG ADP MARKAZ","source":"Géoportail ANSTAT"}},{"type":"Feature","geometry":{"type":"Point","coordinates":[-4.038880999999947,5.461350000000039]},"properties":{"id":33800,"nom":"ONG ANASCOSI","type":"ong region","district_region":null,"departement_commune":null,"verifie":true,"name":"ONG ANASCOSI","source":"Géoportail ANSTAT"}},{"type":"Feature","geometry":{"type":"Point","coordinates":[-4.02755099999996,5.468451000000073]},"properties":{"id":33801,"nom":"ONG OPSDS","type":"ong region","district_region":null,"departement_commune":null,"verifie":true,"name":"ONG OPSDS","source":"Géoportail ANSTAT"}},{"type":"Feature","geometry":{"type":"Point","coordinates":[-4.038033999999925,5.462149000000068]},"properties":{"id":33802,"nom":"ONG REGARD SANTE","type":"ong region","district_region":null,"departement_commune":null,"verifie":true,"name":"ONG REGARD SANTE","source":"Géoportail ANSTAT"}},{"type":"Feature","geometry":{"type":"Point","coordinates":[-4.083041999999978,5.452947000000052]},"properties":{"id":33839,"nom":"ONG LAFED","type":"ong region","district_region":null,"departement_commune":null,"verifie":true,"name":"ONG LAFED","source":"Géoportail ANSTAT"}},{"type":"Feature","geometry":{"type":"Point","coordinates":[-4.04364099999998,5.499443000000042]},"properties":{"id":33854,"nom":"ONG REMAR","type":"ong region","district_region":null,"departement_commune":null,"verifie":true,"name":"ONG REMAR","source":"Géoportail ANSTAT"}},{"type":"Feature","geometry":{"type":"Point","coordinates":[-4.06251199999997,5.497918000000027]},"properties":{"id":33868,"nom":"ONG FEMMES SOLIDAIRES DE COTE D IVOIRE","type":"ong region","district_region":null,"departement_commune":null,"verifie":true,"name":"ONG FEMMES SOLIDAIRES DE COTE D IVOIRE","source":"Géoportail ANSTAT"}},{"type":"Feature","geometry":{"type":"Point","coordinates":[-4.025118999999961,5.451531000000045]},"properties":{"id":33929,"nom":"ONG BAYEWA","type":"ong region","district_region":null,"departement_commune":null,"verifie":true,"name":"ONG BAYEWA","source":"Géoportail ANSTAT"}},{"type":"Feature","geometry":{"type":"Point","coordinates":[-4.027731999999958,5.447812000000056]},"properties":{"id":33930,"nom":"ONG SAUVIE","type":"ong region","district_region":null,"departement_commune":null,"verifie":true,"name":"ONG SAUVIE","source":"Géoportail ANSTAT"}},{"type":"Feature","geometry":{"type":"Point","coordinates":[-4.038043999999957,5.440745000000049]},"properties":{"id":33944,"nom":"ONG CHANGE HUMAN S LIFE","type":"ong region","district_region":null,"departement_commune":null,"verifie":true,"name":"ONG CHANGE HUMAN S LIFE","source":"Géoportail ANSTAT"}},{"type":"Feature","geometry":{"type":"Point","coordinates":[-4.055088999999953,5.442840000000047]},"properties":{"id":34003,"nom":"ONG COMUNPASC","type":"ong region","district_region":null,"departement_commune":null,"verifie":true,"name":"ONG COMUNPASC","source":"Géoportail ANSTAT"}},{"type":"Feature","geometry":{"type":"Point","coordinates":[-4.050567999999942,5.441119000000072]},"properties":{"id":34004,"nom":"ONG HELP FOR AFRICA PEOPLE","type":"ong region","district_region":null,"departement_commune":null,"verifie":true,"name":"ONG HELP FOR AFRICA PEOPLE","source":"Géoportail ANSTAT"}},{"type":"Feature","geometry":{"type":"Point","coordinates":[-4.072432999999933,5.437637000000052]},"properties":{"id":34005,"nom":"ONG SANTE POUR TOUS","type":"ong region","district_region":null,"departement_commune":null,"verifie":true,"name":"ONG SANTE POUR TOUS","source":"Géoportail ANSTAT"}},{"type":"Feature","geometry":{"type":"Point","coordinates":[-4.032576999999947,5.413392000000044]},"properties":{"id":34031,"nom":"ONG CIASPA","type":"ong region","district_region":null,"departement_commune":null,"verifie":true,"name":"ONG CIASPA","source":"Géoportail ANSTAT"}},{"type":"Feature","geometry":{"type":"Point","coordinates":[-4.011903999999959,5.437542000000064]},"properties":{"id":34086,"nom":"ONG EN CANCIEL","type":"ong region","district_region":null,"departement_commune":null,"verifie":true,"name":"ONG EN CANCIEL","source":"Géoportail ANSTAT"}},{"type":"Feature","geometry":{"type":"Point","coordinates":[-4.012520999999936,5.441238000000055]},"properties":{"id":34097,"nom":"ONG LAFED","type":"ong region","district_region":null,"departement_commune":null,"verifie":true,"name":"ONG LAFED","source":"Géoportail ANSTAT"}},{"type":"Feature","geometry":{"type":"Point","coordinates":[-3.994403999999975,5.428429000000051]},"properties":{"id":34147,"nom":"ONG COMUPASC","type":"ong region","district_region":null,"departement_commune":null,"verifie":true,"name":"ONG COMUPASC","source":"Géoportail ANSTAT"}},{"type":"Feature","geometry":{"type":"Point","coordinates":[-3.994799999999941,5.41453400000006]},"properties":{"id":34148,"nom":"ONG LABOFLORE","type":"ong region","district_region":null,"departement_commune":null,"verifie":true,"name":"ONG LABOFLORE","source":"Géoportail ANSTAT"}},{"type":"Feature","geometry":{"type":"Point","coordinates":[-4.007694999999956,5.40976900000004]},"properties":{"id":34193,"nom":"ONG FAISANT PLUS","type":"ong region","district_region":null,"departement_commune":null,"verifie":true,"name":"ONG FAISANT PLUS","source":"Géoportail ANSTAT"}},{"type":"Feature","geometry":{"type":"Point","coordinates":[-4.002602999999965,5.400164000000075]},"properties":{"id":34226,"nom":"ONG COMUPASC","type":"ong region","district_region":null,"departement_commune":null,"verifie":true,"name":"ONG COMUPASC","source":"Géoportail ANSTAT"}},{"type":"Feature","geometry":{"type":"Point","coordinates":[-4.008234999999956,5.399816000000044]},"properties":{"id":34227,"nom":"ONG LA BOUSSOLE DU DIABETIQUE","type":"ong region","district_region":null,"departement_commune":null,"verifie":true,"name":"ONG LA BOUSSOLE DU DIABETIQUE","source":"Géoportail ANSTAT"}},{"type":"Feature","geometry":{"type":"Point","coordinates":[-3.976553999999965,5.422863000000063]},"properties":{"id":34256,"nom":"ONG CDACI CI","type":"ong region","district_region":null,"departement_commune":null,"verifie":true,"name":"ONG CDACI CI","source":"Géoportail ANSTAT"}},{"type":"Feature","geometry":{"type":"Point","coordinates":[-3.985998999999936,5.399567000000047]},"properties":{"id":34257,"nom":"ONG REMAR","type":"ong region","district_region":null,"departement_commune":null,"verifie":true,"name":"ONG REMAR","source":"Géoportail ANSTAT"}},{"type":"Feature","geometry":{"type":"Point","coordinates":[-3.996318999999971,5.38075200000003]},"properties":{"id":34272,"nom":"ONG ESPACE CULTUREL","type":"ong region","district_region":null,"departement_commune":null,"verifie":true,"name":"ONG ESPACE CULTUREL","source":"Géoportail ANSTAT"}},{"type":"Feature","geometry":{"type":"Point","coordinates":[-3.98248899999993,5.375784000000067]},"properties":{"id":34280,"nom":"ONG FONDATION HIRONDELLE","type":"ong region","district_region":null,"departement_commune":null,"verifie":true,"name":"ONG FONDATION HIRONDELLE","source":"Géoportail ANSTAT"}},{"type":"Feature","geometry":{"type":"Point","coordinates":[-4.003050999999971,5.363519000000053]},"properties":{"id":34283,"nom":"ONG SERVIR","type":"ong region","district_region":null,"departement_commune":null,"verifie":true,"name":"ONG SERVIR","source":"Géoportail ANSTAT"}},{"type":"Feature","geometry":{"type":"Point","coordinates":[-3.98619999999994,5.355716000000029]},"properties":{"id":34309,"nom":"ONG FHI 360","type":"ong region","district_region":null,"departement_commune":null,"verifie":true,"name":"ONG FHI 360","source":"Géoportail ANSTAT"}},{"type":"Feature","geometry":{"type":"Point","coordinates":[-3.976389999999981,5.339233000000036]},"properties":{"id":34311,"nom":"ONG AL IMANE","type":"ong region","district_region":null,"departement_commune":null,"verifie":true,"name":"ONG AL IMANE","source":"Géoportail ANSTAT"}},{"type":"Feature","geometry":{"type":"Point","coordinates":[-3.895284999999944,5.356883000000039]},"properties":{"id":34386,"nom":"ONG SELF GIVEN","type":"ong region","district_region":null,"departement_commune":null,"verifie":true,"name":"ONG SELF GIVEN","source":"Géoportail ANSTAT"}},{"type":"Feature","geometry":{"type":"Point","coordinates":[-4.090636999999958,5.388348000000065]},"properties":{"id":34421,"nom":"ONG PAUVRETE ZERO","type":"ong region","district_region":null,"departement_commune":null,"verifie":true,"name":"ONG PAUVRETE ZERO","source":"Géoportail ANSTAT"}},{"type":"Feature","geometry":{"type":"Point","coordinates":[-4.106442999999956,5.327394000000027]},"properties":{"id":34517,"nom":"ONG ESPACE CONFIANCE","type":"ong region","district_region":null,"departement_commune":null,"verifie":true,"name":"ONG ESPACE CONFIANCE","source":"Géoportail ANSTAT"}},{"type":"Feature","geometry":{"type":"Point","coordinates":[-4.105240999999978,5.315704000000039]},"properties":{"id":34518,"nom":"ONG LAFED","type":"ong region","district_region":null,"departement_commune":null,"verifie":true,"name":"ONG LAFED","source":"Géoportail ANSTAT"}},{"type":"Feature","geometry":{"type":"Point","coordinates":[-4.08012199999996,5.343629000000021]},"properties":{"id":34616,"nom":"ONG ACTION VIE","type":"ong region","district_region":null,"departement_commune":null,"verifie":true,"name":"ONG ACTION VIE","source":"Géoportail ANSTAT"}},{"type":"Feature","geometry":{"type":"Point","coordinates":[-4.079807999999957,5.338113000000021]},"properties":{"id":34617,"nom":"ONG MINOGE CFAI","type":"ong region","district_region":null,"departement_commune":null,"verifie":true,"name":"ONG MINOGE CFAI","source":"Géoportail ANSTAT"}},{"type":"Feature","geometry":{"type":"Point","coordinates":[-4.068840999999964,5.337910000000022]},"properties":{"id":34618,"nom":"ONG PROTECTION SOCIALE","type":"ong region","district_region":null,"departement_commune":null,"verifie":true,"name":"ONG PROTECTION SOCIALE","source":"Géoportail ANSTAT"}},{"type":"Feature","geometry":{"type":"Point","coordinates":[-4.068405999999925,5.343870000000038]},"properties":{"id":34619,"nom":"ONG REMAR","type":"ong region","district_region":null,"departement_commune":null,"verifie":true,"name":"ONG REMAR","source":"Géoportail ANSTAT"}},{"type":"Feature","geometry":{"type":"Point","coordinates":[-4.06867399999993,5.344165000000032]},"properties":{"id":34620,"nom":"ONG SEP","type":"ong region","district_region":null,"departement_commune":null,"verifie":true,"name":"ONG SEP","source":"Géoportail ANSTAT"}},{"type":"Feature","geometry":{"type":"Point","coordinates":[-4.083824999999933,5.34099800000007]},"properties":{"id":34621,"nom":"ONG STOP DIABETE","type":"ong region","district_region":null,"departement_commune":null,"verifie":true,"name":"ONG STOP DIABETE","source":"Géoportail ANSTAT"}},{"type":"Feature","geometry":{"type":"Point","coordinates":[-4.097051999999962,5.318878000000041]},"properties":{"id":34688,"nom":"ONG ASRU","type":"ong region","district_region":null,"departement_commune":null,"verifie":true,"name":"ONG ASRU","source":"Géoportail ANSTAT"}},{"type":"Feature","geometry":{"type":"Point","coordinates":[-4.087121999999965,5.304699000000028]},"properties":{"id":34689,"nom":"ONG SECOURS DE LA VUE","type":"ong region","district_region":null,"departement_commune":null,"verifie":true,"name":"ONG SECOURS DE LA VUE","source":"Géoportail ANSTAT"}},{"type":"Feature","geometry":{"type":"Point","coordinates":[-4.069978999999933,5.330074000000025]},"properties":{"id":34730,"nom":"ONG TCHELE WOLE","type":"ong region","district_region":null,"departement_commune":null,"verifie":true,"name":"ONG TCHELE WOLE","source":"Géoportail ANSTAT"}},{"type":"Feature","geometry":{"type":"Point","coordinates":[-4.065515999999946,5.321389000000067]},"properties":{"id":34731,"nom":"ONG UCOSCIS","type":"ong region","district_region":null,"departement_commune":null,"verifie":true,"name":"ONG UCOSCIS","source":"Géoportail ANSTAT"}},{"type":"Feature","geometry":{"type":"Point","coordinates":[-4.058388999999977,5.339015000000074]},"properties":{"id":34869,"nom":"ONG CAPH CI","type":"ong region","district_region":null,"departement_commune":null,"verifie":true,"name":"ONG CAPH CI","source":"Géoportail ANSTAT"}},{"type":"Feature","geometry":{"type":"Point","coordinates":[-4.024775999999974,5.382987000000071]},"properties":{"id":34893,"nom":"ONG REGARD SANTE","type":"ong region","district_region":null,"departement_commune":null,"verifie":true,"name":"ONG REGARD SANTE","source":"Géoportail ANSTAT"}},{"type":"Feature","geometry":{"type":"Point","coordinates":[-4.019781999999964,5.379005000000063]},"properties":{"id":34907,"nom":"ONG ACID ANTENNE WILLIAMSVILLE","type":"ong region","district_region":null,"departement_commune":null,"verifie":true,"name":"ONG ACID ANTENNE WILLIAMSVILLE","source":"Géoportail ANSTAT"}},{"type":"Feature","geometry":{"type":"Point","coordinates":[-4.022085999999945,5.358990000000063]},"properties":{"id":34917,"nom":"ONG SALUBRITE PLUS","type":"ong region","district_region":null,"departement_commune":null,"verifie":true,"name":"ONG SALUBRITE PLUS","source":"Géoportail ANSTAT"}},{"type":"Feature","geometry":{"type":"Point","coordinates":[-4.018019999999979,5.352227000000028]},"properties":{"id":34973,"nom":"ONG CAVOEQUIVA DE COTE D IVOIRE","type":"ong region","district_region":null,"departement_commune":null,"verifie":true,"name":"ONG CAVOEQUIVA DE COTE D IVOIRE","source":"Géoportail ANSTAT"}},{"type":"Feature","geometry":{"type":"Point","coordinates":[-4.023932999999943,5.366464000000065]},"properties":{"id":34994,"nom":"ONG SOUMAYAT GNONGODEME","type":"ong region","district_region":null,"departement_commune":null,"verifie":true,"name":"ONG SOUMAYAT GNONGODEME","source":"Géoportail ANSTAT"}},{"type":"Feature","geometry":{"type":"Point","coordinates":[-3.99188799999996,5.304540000000031]},"properties":{"id":35010,"nom":"ONG KENEYA SIRA","type":"ong region","district_region":null,"departement_commune":null,"verifie":true,"name":"ONG KENEYA SIRA","source":"Géoportail ANSTAT"}},{"type":"Feature","geometry":{"type":"Point","coordinates":[-3.984932999999955,5.302472000000023]},"properties":{"id":35085,"nom":"ONG COMUPASC","type":"ong region","district_region":null,"departement_commune":null,"verifie":true,"name":"ONG COMUPASC","source":"Géoportail ANSTAT"}},{"type":"Feature","geometry":{"type":"Point","coordinates":[-4.000504999999976,5.303944000000058]},"properties":{"id":35091,"nom":"ONG M E S A D","type":"ong region","district_region":null,"departement_commune":null,"verifie":true,"name":"ONG M E S A D","source":"Géoportail ANSTAT"}},{"type":"Feature","geometry":{"type":"Point","coordinates":[-4.005057999999963,5.305832000000066]},"properties":{"id":35110,"nom":"ONG ACF","type":"ong region","district_region":null,"departement_commune":null,"verifie":true,"name":"ONG ACF","source":"Géoportail ANSTAT"}},{"type":"Feature","geometry":{"type":"Point","coordinates":[-4.007566999999938,5.304941000000042]},"properties":{"id":35111,"nom":"ONG LA PIERRE ANGULAIRE","type":"ong region","district_region":null,"departement_commune":null,"verifie":true,"name":"ONG LA PIERRE ANGULAIRE","source":"Géoportail ANSTAT"}},{"type":"Feature","geometry":{"type":"Point","coordinates":[-4.039917999999943,5.319601000000034]},"properties":{"id":35131,"nom":"ONG SOLIDARITE IMANYA ATTECOUBE","type":"ong region","district_region":null,"departement_commune":null,"verifie":true,"name":"ONG SOLIDARITE IMANYA ATTECOUBE","source":"Géoportail ANSTAT"}},{"type":"Feature","geometry":{"type":"Point","coordinates":[-4.041655999999932,5.319210000000055]},"properties":{"id":35136,"nom":"ONG SESAMPCI","type":"ong region","district_region":null,"departement_commune":null,"verifie":true,"name":"ONG SESAMPCI","source":"Géoportail ANSTAT"}},{"type":"Feature","geometry":{"type":"Point","coordinates":[-4.047777999999937,5.356455000000039]},"properties":{"id":35203,"nom":"ONG NIN MIN MONH","type":"ong region","district_region":null,"departement_commune":null,"verifie":true,"name":"ONG NIN MIN MONH","source":"Géoportail ANSTAT"}},{"type":"Feature","geometry":{"type":"Point","coordinates":[-3.963208999999949,5.261582000000033]},"properties":{"id":35374,"nom":"ONG LUEUR D ESPOIR","type":"ong region","district_region":null,"departement_commune":null,"verifie":true,"name":"ONG LUEUR D ESPOIR","source":"Géoportail ANSTAT"}},{"type":"Feature","geometry":{"type":"Point","coordinates":[-3.894840999999928,5.239404000000036]},"properties":{"id":35478,"nom":"ONG CENTRE OMECA INTERNATIONAL","type":"ong region","district_region":null,"departement_commune":null,"verifie":true,"name":"ONG CENTRE OMECA INTERNATIONAL","source":"Géoportail ANSTAT"}},{"type":"Feature","geometry":{"type":"Point","coordinates":[-3.896025999999949,5.242416000000048]},"properties":{"id":35479,"nom":"ONG ROQYA CORAN GUERIT CI","type":"ong region","district_region":null,"departement_commune":null,"verifie":true,"name":"ONG ROQYA CORAN GUERIT CI","source":"Géoportail ANSTAT"}},{"type":"Feature","geometry":{"type":"Point","coordinates":[-3.915016999999978,5.251830000000041]},"properties":{"id":35621,"nom":"ONG ANCFAS","type":"ong region","district_region":null,"departement_commune":null,"verifie":true,"name":"ONG ANCFAS","source":"Géoportail ANSTAT"}},{"type":"Feature","geometry":{"type":"Point","coordinates":[-3.915794999999946,5.256999000000064]},"properties":{"id":35622,"nom":"ONG COEUR DE FEMME","type":"ong region","district_region":null,"departement_commune":null,"verifie":true,"name":"ONG COEUR DE FEMME","source":"Géoportail ANSTAT"}},{"type":"Feature","geometry":{"type":"Point","coordinates":[-4.058476999999925,5.498447000000056]},"properties":{"id":35644,"nom":"SIEGE SOCIAL ONG 2ATCI","type":"ong region","district_region":null,"departement_commune":null,"verifie":true,"name":"SIEGE SOCIAL ONG 2ATCI","source":"Géoportail ANSTAT"}},{"type":"Feature","geometry":{"type":"Point","coordinates":[-4.046489999999949,5.306342000000029]},"properties":{"id":35725,"nom":"RONG CHANG","type":"ong region","district_region":null,"departement_commune":null,"verifie":true,"name":"RONG CHANG","source":"Géoportail ANSTAT"}}],"metadata":{"dataset":"Ong region — ANSTAT","source":"Géoportail ANSTAT","theme":"Social & Culture","verified":true,"apercu":"complet"}}