{"type":"FeatureCollection","features":[{"type":"Feature","geometry":{"type":"Point","coordinates":[-3.857159999999965,6.110231000000056]},"properties":{"id":36008,"nom":"1ER LEGION TERRITORIALE D ADZOPE","type":"legion","district_region":null,"departement_commune":null,"verifie":true,"name":"1ER LEGION TERRITORIALE D ADZOPE","source":"Géoportail ANSTAT"}},{"type":"Feature","geometry":{"type":"Point","coordinates":[-5.245424999999955,6.80130900000006]},"properties":{"id":39245,"nom":"6E LEGION TERRITORIALE","type":"legion","district_region":null,"departement_commune":null,"verifie":true,"name":"6E LEGION TERRITORIALE","source":"Géoportail ANSTAT"}},{"type":"Feature","geometry":{"type":"Point","coordinates":[-4.000002999999936,5.300044000000071]},"properties":{"id":40568,"nom":"PREMIERE  LEGION TERRITORIALE","type":"legion","district_region":null,"departement_commune":null,"verifie":true,"name":"PREMIERE  LEGION TERRITORIALE","source":"Géoportail ANSTAT"}}],"metadata":{"dataset":"Legion — ANSTAT","source":"Géoportail ANSTAT","theme":"Défense & Militaire","verified":true,"apercu":"complet"}}