{"type":"FeatureCollection","features":[{"type":"Feature","geometry":{"type":"Point","coordinates":[-5.242590999999948,6.804501000000073]},"properties":{"id":36031,"nom":"ETAT MAJOR 5E LEGION MOBILE DE YAMOUSSOUKRO","type":"etat major","district_region":null,"departement_commune":null,"verifie":true,"name":"ETAT MAJOR 5E LEGION MOBILE DE YAMOUSSOUKRO","source":"Géoportail ANSTAT"}},{"type":"Feature","geometry":{"type":"Point","coordinates":[-6.034281999999962,7.433657000000039]},"properties":{"id":36044,"nom":"ANCIEN CAMPS MILITAIRE","type":"etat major","district_region":null,"departement_commune":null,"verifie":true,"name":"ANCIEN CAMPS MILITAIRE","source":"Géoportail ANSTAT"}},{"type":"Feature","geometry":{"type":"Point","coordinates":[-5.32211099999995,5.645571000000075]},"properties":{"id":36052,"nom":"ANCIEN CAMP VERS LA TRIBUNE","type":"etat major","district_region":null,"departement_commune":null,"verifie":true,"name":"ANCIEN CAMP VERS LA TRIBUNE","source":"Géoportail ANSTAT"}},{"type":"Feature","geometry":{"type":"Point","coordinates":[-7.013975999999957,6.245584000000065]},"properties":{"id":36400,"nom":"CAMP  MILITAIRE DE BUYO","type":"etat major","district_region":null,"departement_commune":null,"verifie":true,"name":"CAMP  MILITAIRE DE BUYO","source":"Géoportail ANSTAT"}},{"type":"Feature","geometry":{"type":"Point","coordinates":[-6.929110999999978,4.646532000000036]},"properties":{"id":36423,"nom":"CAMP MILITAIRE DE GRAND BEREBY","type":"etat major","district_region":null,"departement_commune":null,"verifie":true,"name":"CAMP MILITAIRE DE GRAND BEREBY","source":"Géoportail ANSTAT"}},{"type":"Feature","geometry":{"type":"Point","coordinates":[-7.561038999999937,4.473571000000049]},"properties":{"id":36424,"nom":"CAMP MILITAIRE","type":"etat major","district_region":null,"departement_commune":null,"verifie":true,"name":"CAMP MILITAIRE","source":"Géoportail ANSTAT"}},{"type":"Feature","geometry":{"type":"Point","coordinates":[-7.193661999999961,6.888163000000077]},"properties":{"id":36431,"nom":"CAMP MILITAIRE DE BAGOHOUO","type":"etat major","district_region":null,"departement_commune":null,"verifie":true,"name":"CAMP MILITAIRE DE BAGOHOUO","source":"Géoportail ANSTAT"}},{"type":"Feature","geometry":{"type":"Point","coordinates":[-5.977457999999956,6.118550000000027]},"properties":{"id":36432,"nom":"CAMP DES FORCE ARMEES DE COTE D IVOIRE","type":"etat major","district_region":null,"departement_commune":null,"verifie":true,"name":"CAMP DES FORCE ARMEES DE COTE D IVOIRE","source":"Géoportail ANSTAT"}},{"type":"Feature","geometry":{"type":"Point","coordinates":[-5.977545999999961,6.118561000000057]},"properties":{"id":36433,"nom":"CAMP ONUCI","type":"etat major","district_region":null,"departement_commune":null,"verifie":true,"name":"CAMP ONUCI","source":"Géoportail ANSTAT"}},{"type":"Feature","geometry":{"type":"Point","coordinates":[-2.998584999999935,9.263586000000032]},"properties":{"id":36443,"nom":"CAMP MILITAIRE BOUNA","type":"etat major","district_region":null,"departement_commune":null,"verifie":true,"name":"CAMP MILITAIRE BOUNA","source":"Géoportail ANSTAT"}},{"type":"Feature","geometry":{"type":"Point","coordinates":[-7.487443999999925,6.216560000000072]},"properties":{"id":36444,"nom":"CAMP MILLITAIRE DE ZAGNE","type":"etat major","district_region":null,"departement_commune":null,"verifie":true,"name":"CAMP MILLITAIRE DE ZAGNE","source":"Géoportail ANSTAT"}},{"type":"Feature","geometry":{"type":"Point","coordinates":[-5.324337999999955,5.845181000000025]},"properties":{"id":36453,"nom":"CAMP ONUCI DIVO","type":"etat major","district_region":null,"departement_commune":null,"verifie":true,"name":"CAMP ONUCI DIVO","source":"Géoportail ANSTAT"}},{"type":"Feature","geometry":{"type":"Point","coordinates":[-5.384594999999933,5.830176000000051]},"properties":{"id":36454,"nom":"CAMPS CRS DIVO","type":"etat major","district_region":null,"departement_commune":null,"verifie":true,"name":"CAMPS CRS DIVO","source":"Géoportail ANSTAT"}},{"type":"Feature","geometry":{"type":"Point","coordinates":[-6.406173999999965,10.47736000000003]},"properties":{"id":36457,"nom":"CAMP MILLITAIRE","type":"etat major","district_region":null,"departement_commune":null,"verifie":true,"name":"CAMP MILLITAIRE","source":"Géoportail ANSTAT"}},{"type":"Feature","geometry":{"type":"Point","coordinates":[-7.198737999999935,10.01990300000006]},"properties":{"id":36460,"nom":"CAMP MILITAIRE GOULIA","type":"etat major","district_region":null,"departement_commune":null,"verifie":true,"name":"CAMP MILITAIRE GOULIA","source":"Géoportail ANSTAT"}},{"type":"Feature","geometry":{"type":"Point","coordinates":[-3.510387999999978,6.756375000000048]},"properties":{"id":36462,"nom":"CAMP MILITAIRE D ABENGOUROU","type":"etat major","district_region":null,"departement_commune":null,"verifie":true,"name":"CAMP MILITAIRE D ABENGOUROU","source":"Géoportail ANSTAT"}},{"type":"Feature","geometry":{"type":"Point","coordinates":[-3.870111999999949,6.090828000000045]},"properties":{"id":36466,"nom":"CAMP DES SAPEURS POMPIER","type":"etat major","district_region":null,"departement_commune":null,"verifie":true,"name":"CAMP DES SAPEURS POMPIER","source":"Géoportail ANSTAT"}},{"type":"Feature","geometry":{"type":"Point","coordinates":[-2.787304999999947,5.291087000000061]},"properties":{"id":36467,"nom":"CAMP MILITAIRE DE NOE","type":"etat major","district_region":null,"departement_commune":null,"verifie":true,"name":"CAMP MILITAIRE DE NOE","source":"Géoportail ANSTAT"}},{"type":"Feature","geometry":{"type":"Point","coordinates":[-3.211848999999972,5.471216000000027]},"properties":{"id":36468,"nom":"CAMP GENDARMERIE","type":"etat major","district_region":null,"departement_commune":null,"verifie":true,"name":"CAMP GENDARMERIE","source":"Géoportail ANSTAT"}},{"type":"Feature","geometry":{"type":"Point","coordinates":[-3.197351999999967,5.483469000000071]},"properties":{"id":36469,"nom":"CAMP MILITAIRE","type":"etat major","district_region":null,"departement_commune":null,"verifie":true,"name":"CAMP MILITAIRE","source":"Géoportail ANSTAT"}},{"type":"Feature","geometry":{"type":"Point","coordinates":[-4.377621999999974,7.516363000000069]},"properties":{"id":36476,"nom":"CAMP MILITAIRE DE OUOKOUKRO","type":"etat major","district_region":null,"departement_commune":null,"verifie":true,"name":"CAMP MILITAIRE DE OUOKOUKRO","source":"Géoportail ANSTAT"}},{"type":"Feature","geometry":{"type":"Point","coordinates":[-6.646300999999937,4.761638000000062]},"properties":{"id":36975,"nom":"ETAT MAJOR 5E LEGION DE SAN PEDRO","type":"etat major","district_region":null,"departement_commune":null,"verifie":true,"name":"ETAT MAJOR 5E LEGION DE SAN PEDRO","source":"Géoportail ANSTAT"}},{"type":"Feature","geometry":{"type":"Point","coordinates":[-5.640634999999975,9.44745800000004]},"properties":{"id":36978,"nom":"ETAT MAJOR 4EME LEGION MOBILE","type":"etat major","district_region":null,"departement_commune":null,"verifie":true,"name":"ETAT MAJOR 4EME LEGION MOBILE","source":"Géoportail ANSTAT"}},{"type":"Feature","geometry":{"type":"Point","coordinates":[-5.289383999999927,6.85166300000003]},"properties":{"id":38649,"nom":"CAMP ONUCI","type":"etat major","district_region":null,"departement_commune":null,"verifie":true,"name":"CAMP ONUCI","source":"Géoportail ANSTAT"}},{"type":"Feature","geometry":{"type":"Point","coordinates":[-5.289916999999946,6.819672000000025]},"properties":{"id":39155,"nom":"CAMP ONUCI","type":"etat major","district_region":null,"departement_commune":null,"verifie":true,"name":"CAMP ONUCI","source":"Géoportail ANSTAT"}},{"type":"Feature","geometry":{"type":"Point","coordinates":[-5.289883999999972,6.819679000000065]},"properties":{"id":39157,"nom":"CAMP ONUC","type":"etat major","district_region":null,"departement_commune":null,"verifie":true,"name":"CAMP ONUC","source":"Géoportail ANSTAT"}},{"type":"Feature","geometry":{"type":"Point","coordinates":[-5.29043299999995,6.828528000000063]},"properties":{"id":39189,"nom":"GARDE REPUBLICAINE","type":"etat major","district_region":null,"departement_commune":null,"verifie":true,"name":"GARDE REPUBLICAINE","source":"Géoportail ANSTAT"}},{"type":"Feature","geometry":{"type":"Point","coordinates":[-4.019317999999942,5.43517300000002]},"properties":{"id":39677,"nom":"CAMP COMAMDO ABOBO","type":"etat major","district_region":null,"departement_commune":null,"verifie":true,"name":"CAMP COMAMDO ABOBO","source":"Géoportail ANSTAT"}},{"type":"Feature","geometry":{"type":"Point","coordinates":[-4.00716099999994,5.333203000000026]},"properties":{"id":39707,"nom":"CAMP MILITAIRE","type":"etat major","district_region":null,"departement_commune":null,"verifie":true,"name":"CAMP MILITAIRE","source":"Géoportail ANSTAT"}},{"type":"Feature","geometry":{"type":"Point","coordinates":[-4.057919999999967,5.332336000000055]},"properties":{"id":39740,"nom":"CAMP BAE","type":"etat major","district_region":null,"departement_commune":null,"verifie":true,"name":"CAMP BAE","source":"Géoportail ANSTAT"}},{"type":"Feature","geometry":{"type":"Point","coordinates":[-3.986419999999953,5.293154000000072]},"properties":{"id":39798,"nom":"CAMP MILLITAIRE","type":"etat major","district_region":null,"departement_commune":null,"verifie":true,"name":"CAMP MILLITAIRE","source":"Géoportail ANSTAT"}},{"type":"Feature","geometry":{"type":"Point","coordinates":[-3.977422999999931,5.29260400000004]},"properties":{"id":39801,"nom":"CAMP MILITAIRE","type":"etat major","district_region":null,"departement_commune":null,"verifie":true,"name":"CAMP MILITAIRE","source":"Géoportail ANSTAT"}},{"type":"Feature","geometry":{"type":"Point","coordinates":[-3.965779999999938,5.282790000000034]},"properties":{"id":39834,"nom":"CAMP COMMANDO GENDARMERIE","type":"etat major","district_region":null,"departement_commune":null,"verifie":true,"name":"CAMP COMMANDO GENDARMERIE","source":"Géoportail ANSTAT"}}],"metadata":{"dataset":"Etat major — ANSTAT","source":"Géoportail ANSTAT","theme":"Défense & Militaire","verified":true,"apercu":"complet"}}