{"type":"FeatureCollection","features":[{"type":"Feature","geometry":{"type":"Point","coordinates":[-4.353730999999925,5.323583000000042]},"properties":{"id":36901,"nom":"DISTRICT DE POLICE DE DABOU","type":"district police","district_region":null,"departement_commune":null,"verifie":true,"name":"DISTRICT DE POLICE DE DABOU","source":"Géoportail ANSTAT"}},{"type":"Feature","geometry":{"type":"Point","coordinates":[-5.02671399999997,7.677697000000023]},"properties":{"id":36904,"nom":"DISTRICT DE POLICE DE BOUAKE","type":"district police","district_region":null,"departement_commune":null,"verifie":true,"name":"DISTRICT DE POLICE DE BOUAKE","source":"Géoportail ANSTAT"}},{"type":"Feature","geometry":{"type":"Point","coordinates":[-6.437607999999955,6.888459000000068]},"properties":{"id":36906,"nom":"DISTRICT DE POLICE DE DALOA","type":"district police","district_region":null,"departement_commune":null,"verifie":true,"name":"DISTRICT DE POLICE DE DALOA","source":"Géoportail ANSTAT"}},{"type":"Feature","geometry":{"type":"Point","coordinates":[-3.850543999999957,6.09953900000005]},"properties":{"id":36908,"nom":"DISTRICT DE POLICE DE ADZOPE","type":"district police","district_region":null,"departement_commune":null,"verifie":true,"name":"DISTRICT DE POLICE DE ADZOPE","source":"Géoportail ANSTAT"}},{"type":"Feature","geometry":{"type":"Point","coordinates":[-3.993026999999927,5.309820000000059]},"properties":{"id":39954,"nom":"DISTRICT DE POLICE DE MARCORY","type":"district police","district_region":null,"departement_commune":null,"verifie":true,"name":"DISTRICT DE POLICE DE MARCORY","source":"Géoportail ANSTAT"}}],"metadata":{"dataset":"District police — ANSTAT","source":"Géoportail ANSTAT","theme":"Sécurité","verified":true,"apercu":"complet"}}