{"type":"FeatureCollection","features":[{"type":"Feature","geometry":{"type":"Point","coordinates":[-5.35638199999994,5.843788000000075]},"properties":{"id":36874,"nom":"DIRECTION GENERALE DE L EQUIPEMENT ET DE L ENTRETIEN ROUTIER","type":"dir regional transport","district_region":null,"departement_commune":null,"verifie":true,"name":"DIRECTION GENERALE DE L EQUIPEMENT ET DE L ENTRETIEN ROUTIER","source":"Géoportail ANSTAT"}},{"type":"Feature","geometry":{"type":"Point","coordinates":[-7.561218999999937,9.498020000000054]},"properties":{"id":36880,"nom":"DIRECTION DE LEQUIPEMEMENT ET DE LENTRETIEN ROUTIER DU KABADOUGOU ET DU FOLON","type":"dir regional transport","district_region":null,"departement_commune":null,"verifie":true,"name":"DIRECTION DE LEQUIPEMEMENT ET DE LENTRETIEN ROUTIER DU KABADOUGOU ET DU FOLON","source":"Géoportail ANSTAT"}},{"type":"Feature","geometry":{"type":"Point","coordinates":[-4.427587999999957,8.359409000000028]},"properties":{"id":36886,"nom":"DIRECTON TERRITORIALE DES INFRASTRUCTURES ROUTIERES","type":"dir regional transport","district_region":null,"departement_commune":null,"verifie":true,"name":"DIRECTON TERRITORIALE DES INFRASTRUCTURES ROUTIERES","source":"Géoportail ANSTAT"}},{"type":"Feature","geometry":{"type":"Point","coordinates":[-3.96305499999994,7.067735000000027]},"properties":{"id":37689,"nom":"MINISTERE DE L EQUIPEMENT ET DE L ENTRETIEN ROUTIER","type":"dir regional transport","district_region":null,"departement_commune":null,"verifie":true,"name":"MINISTERE DE L EQUIPEMENT ET DE L ENTRETIEN ROUTIER","source":"Géoportail ANSTAT"}}],"metadata":{"dataset":"Dir regional transport — ANSTAT","source":"Géoportail ANSTAT","theme":"Transport & mobilité","verified":true,"apercu":"complet"}}