{"type":"FeatureCollection","features":[{"type":"Feature","geometry":{"type":"Point","coordinates":[-7.553660999999977,7.41865400000006]},"properties":{"id":3257,"nom":"CENTRE FOCOLARI ORPHELINAT","type":"orphelinat","district_region":null,"departement_commune":null,"verifie":true,"name":"CENTRE FOCOLARI ORPHELINAT","source":"Géoportail ANSTAT"}},{"type":"Feature","geometry":{"type":"Point","coordinates":[-6.56200999999993,5.411512000000073]},"properties":{"id":3351,"nom":"CENTRE HIDAYAT D ORPHELINAT","type":"orphelinat","district_region":null,"departement_commune":null,"verifie":true,"name":"CENTRE HIDAYAT D ORPHELINAT","source":"Géoportail ANSTAT"}},{"type":"Feature","geometry":{"type":"Point","coordinates":[-3.263204999999971,5.429786000000036]},"properties":{"id":4316,"nom":"COMITE DE DEVELOPPEMENT COMMUNAUTAIRE SOS VILLAGE DABOISSO","type":"orphelinat","district_region":null,"departement_commune":null,"verifie":true,"name":"COMITE DE DEVELOPPEMENT COMMUNAUTAIRE SOS VILLAGE DABOISSO","source":"Géoportail ANSTAT"}},{"type":"Feature","geometry":{"type":"Point","coordinates":[-6.593751999999938,5.772707000000025]},"properties":{"id":30148,"nom":"ORPHELINAT ESTHER DE SOUBRE","type":"orphelinat","district_region":null,"departement_commune":null,"verifie":true,"name":"ORPHELINAT ESTHER DE SOUBRE","source":"Géoportail ANSTAT"}},{"type":"Feature","geometry":{"type":"Point","coordinates":[-5.915830999999969,6.125523000000044]},"properties":{"id":30166,"nom":"ORPHELINAT EMMANUEL","type":"orphelinat","district_region":null,"departement_commune":null,"verifie":true,"name":"ORPHELINAT EMMANUEL","source":"Géoportail ANSTAT"}},{"type":"Feature","geometry":{"type":"Point","coordinates":[-5.110421999999971,6.470444000000043]},"properties":{"id":30174,"nom":"ORPHELINAT DJEKANOU","type":"orphelinat","district_region":null,"departement_commune":null,"verifie":true,"name":"ORPHELINAT DJEKANOU","source":"Géoportail ANSTAT"}},{"type":"Feature","geometry":{"type":"Point","coordinates":[-6.44404899999995,6.895554000000061]},"properties":{"id":30193,"nom":"ORPHELINAT TOMORROW S  HOPE","type":"orphelinat","district_region":null,"departement_commune":null,"verifie":true,"name":"ORPHELINAT TOMORROW S  HOPE","source":"Géoportail ANSTAT"}},{"type":"Feature","geometry":{"type":"Point","coordinates":[-3.200666999999953,7.124435000000062]},"properties":{"id":30206,"nom":"ORPHELINAT DIEU PEUT TOUT FAIRE","type":"orphelinat","district_region":null,"departement_commune":null,"verifie":true,"name":"ORPHELINAT DIEU PEUT TOUT FAIRE","source":"Géoportail ANSTAT"}},{"type":"Feature","geometry":{"type":"Point","coordinates":[-3.685588999999936,5.193438000000071]},"properties":{"id":30210,"nom":"ORPHELINAT","type":"orphelinat","district_region":null,"departement_commune":null,"verifie":true,"name":"ORPHELINAT","source":"Géoportail ANSTAT"}},{"type":"Feature","geometry":{"type":"Point","coordinates":[-3.73586899999998,5.196892000000048]},"properties":{"id":30211,"nom":"ORPHELINAT NATIONAL DES FILLES GRAND BASSAM","type":"orphelinat","district_region":null,"departement_commune":null,"verifie":true,"name":"ORPHELINAT NATIONAL DES FILLES GRAND BASSAM","source":"Géoportail ANSTAT"}},{"type":"Feature","geometry":{"type":"Point","coordinates":[-3.730093999999951,5.217066000000045]},"properties":{"id":30212,"nom":"ORPHELINAT PRIVE TERA ET VIE","type":"orphelinat","district_region":null,"departement_commune":null,"verifie":true,"name":"ORPHELINAT PRIVE TERA ET VIE","source":"Géoportail ANSTAT"}},{"type":"Feature","geometry":{"type":"Point","coordinates":[-3.887824999999964,5.360963000000027]},"properties":{"id":35691,"nom":"ORPHELINAT DE BINGERVILLE","type":"orphelinat","district_region":null,"departement_commune":null,"verifie":true,"name":"ORPHELINAT DE BINGERVILLE","source":"Géoportail ANSTAT"}}],"metadata":{"dataset":"Orphelinat — ANSTAT","source":"Géoportail ANSTAT","theme":"Social & Culture","verified":true,"apercu":"complet"}}