{"type":"FeatureCollection","features":[{"type":"Feature","geometry":{"type":"Point","coordinates":[-3.467812999999978,5.162984000000051]},"properties":{"id":36019,"nom":"A LA TRAVERSE","type":"debarcadere","district_region":null,"departement_commune":null,"verifie":true,"name":"A LA TRAVERSE","source":"Géoportail ANSTAT"}},{"type":"Feature","geometry":{"type":"Point","coordinates":[-3.466329999999971,5.160541000000023]},"properties":{"id":36829,"nom":"DEBACADERE DE ASSOUNDE VILLAGE","type":"debarcadere","district_region":null,"departement_commune":null,"verifie":true,"name":"DEBACADERE DE ASSOUNDE VILLAGE","source":"Géoportail ANSTAT"}},{"type":"Feature","geometry":{"type":"Point","coordinates":[-2.960099999999954,5.122818000000052]},"properties":{"id":36830,"nom":"DEBARCADERE DE FRAMBO","type":"debarcadere","district_region":null,"departement_commune":null,"verifie":true,"name":"DEBARCADERE DE FRAMBO","source":"Géoportail ANSTAT"}},{"type":"Feature","geometry":{"type":"Point","coordinates":[-3.167970999999966,5.607672000000036]},"properties":{"id":36831,"nom":"DEBARCADERE AYAME 1","type":"debarcadere","district_region":null,"departement_commune":null,"verifie":true,"name":"DEBARCADERE AYAME 1","source":"Géoportail ANSTAT"}},{"type":"Feature","geometry":{"type":"Point","coordinates":[-6.638741999999979,4.750911000000031]},"properties":{"id":36858,"nom":"DHL","type":"debarcadere","district_region":null,"departement_commune":null,"verifie":true,"name":"DHL","source":"Géoportail ANSTAT"}},{"type":"Feature","geometry":{"type":"Point","coordinates":[-6.662754999999947,4.772048000000041]},"properties":{"id":36948,"nom":"ENTREPOT DE DEPOT DE CABLE ELECTRIQUE","type":"debarcadere","district_region":null,"departement_commune":null,"verifie":true,"name":"ENTREPOT DE DEPOT DE CABLE ELECTRIQUE","source":"Géoportail ANSTAT"}},{"type":"Feature","geometry":{"type":"Point","coordinates":[-4.216516999999953,5.928156000000058]},"properties":{"id":36951,"nom":"ENTREPOT SITARAIL","type":"debarcadere","district_region":null,"departement_commune":null,"verifie":true,"name":"ENTREPOT SITARAIL","source":"Géoportail ANSTAT"}},{"type":"Feature","geometry":{"type":"Point","coordinates":[-4.008315999999979,5.280381000000034]},"properties":{"id":39605,"nom":"APM TERMINAL","type":"debarcadere","district_region":null,"departement_commune":null,"verifie":true,"name":"APM TERMINAL","source":"Géoportail ANSTAT"}},{"type":"Feature","geometry":{"type":"Point","coordinates":[-3.980692999999974,5.280726000000072]},"properties":{"id":40032,"nom":"LOGIS TRANSPORT ET LOGISTIQUE","type":"debarcadere","district_region":null,"departement_commune":null,"verifie":true,"name":"LOGIS TRANSPORT ET LOGISTIQUE","source":"Géoportail ANSTAT"}},{"type":"Feature","geometry":{"type":"Point","coordinates":[-3.973567999999943,5.303552000000025]},"properties":{"id":40298,"nom":"NEXSTEP SERVICE","type":"debarcadere","district_region":null,"departement_commune":null,"verifie":true,"name":"NEXSTEP SERVICE","source":"Géoportail ANSTAT"}}],"metadata":{"dataset":"Debarcadere — ANSTAT","source":"Géoportail ANSTAT","theme":"Transport & mobilité","verified":true,"apercu":"complet"}}