{"type":"FeatureCollection","features":[{"type":"Feature","geometry":{"type":"Point","coordinates":[-6.647792999999979,4.758253000000025]},"properties":{"id":131354,"nom":"CENTRE DE FORMATION PROFESSIONNELLE DE SAN PEDRO","type":"école professionnelle","district_region":"SAN-PEDRO","departement_commune":null,"verifie":true,"name":"CENTRE DE FORMATION PROFESSIONNELLE DE SAN PEDRO","nomreg":"SAN-PEDRO","codreg":9,"source":"Géoportail ANSTAT"}},{"type":"Feature","geometry":{"type":"Point","coordinates":[-6.647007999999971,4.739932000000067]},"properties":{"id":131355,"nom":"CENTRE DE FORMATION PROFESSIONNELLE MAURAT","type":"école professionnelle","district_region":"SAN-PEDRO","departement_commune":null,"verifie":true,"name":"CENTRE DE FORMATION PROFESSIONNELLE MAURAT","nomreg":"SAN-PEDRO","codreg":9,"source":"Géoportail ANSTAT"}},{"type":"Feature","geometry":{"type":"Point","coordinates":[-4.195486999999957,6.648007000000064]},"properties":{"id":131356,"nom":"CENTRE DE FORMATION PROFESSIONNELLE","type":"école professionnelle","district_region":"MORONOU","departement_commune":null,"verifie":true,"name":"CENTRE DE FORMATION PROFESSIONNELLE","nomreg":"MORONOU","codreg":33,"source":"Géoportail ANSTAT"}},{"type":"Feature","geometry":{"type":"Point","coordinates":[-4.195460999999966,6.647995000000037]},"properties":{"id":131357,"nom":"CENTRE DE FORMATION PROFESSIONNELLE","type":"école professionnelle","district_region":"MORONOU","departement_commune":null,"verifie":true,"name":"CENTRE DE FORMATION PROFESSIONNELLE","nomreg":"MORONOU","codreg":33,"source":"Géoportail ANSTAT"}},{"type":"Feature","geometry":{"type":"Point","coordinates":[-5.942015999999967,6.13676700000002]},"properties":{"id":131358,"nom":"CENTRE DE FORMATION PROFESSIONNELLE DE GAGNOA","type":"école professionnelle","district_region":"GOH","departement_commune":null,"verifie":true,"name":"CENTRE DE FORMATION PROFESSIONNELLE DE GAGNOA","nomreg":"GOH","codreg":17,"source":"Géoportail ANSTAT"}},{"type":"Feature","geometry":{"type":"Point","coordinates":[-2.807565999999952,8.03184200000004]},"properties":{"id":131359,"nom":"CENTRE DE FORMATION PROFESSIONNELLE DE BONDOUKOU","type":"école professionnelle","district_region":"GONTOUGO","departement_commune":null,"verifie":true,"name":"CENTRE DE FORMATION PROFESSIONNELLE DE BONDOUKOU","nomreg":"GONTOUGO","codreg":8,"source":"Géoportail ANSTAT"}},{"type":"Feature","geometry":{"type":"Point","coordinates":[-5.022553999999957,7.685535000000073]},"properties":{"id":131360,"nom":"CENTRE DE FORMATION PROFESSIONNELLE FEMININ","type":"école professionnelle","district_region":"GBEKE","departement_commune":null,"verifie":true,"name":"CENTRE DE FORMATION PROFESSIONNELLE FEMININ","nomreg":"GBEKE","codreg":4,"source":"Géoportail ANSTAT"}},{"type":"Feature","geometry":{"type":"Point","coordinates":[-8.408281999999929,6.589612000000045]},"properties":{"id":131361,"nom":"CENTRE DE FORMATION PROFESSIONNELLE DE TOULEPLEU","type":"école professionnelle","district_region":"CAVALLY","departement_commune":null,"verifie":true,"name":"CENTRE DE FORMATION PROFESSIONNELLE DE TOULEPLEU","nomreg":"CAVALLY","codreg":18,"source":"Géoportail ANSTAT"}},{"type":"Feature","geometry":{"type":"Point","coordinates":[-6.456037999999978,6.890275000000031]},"properties":{"id":131362,"nom":"CENTRE DE FORMATION PROFESSIONNELLE","type":"école professionnelle","district_region":"HAUT-SASSANDRA","departement_commune":null,"verifie":true,"name":"CENTRE DE FORMATION PROFESSIONNELLE","nomreg":"HAUT-SASSANDRA","codreg":2,"source":"Géoportail ANSTAT"}},{"type":"Feature","geometry":{"type":"Point","coordinates":[-7.562444999999968,9.498624000000063]},"properties":{"id":131363,"nom":"CENTRE DE FORMATION PROFESSIONNELLE D ODIENNE","type":"école professionnelle","district_region":"KABADOUGOU","departement_commune":null,"verifie":true,"name":"CENTRE DE FORMATION PROFESSIONNELLE D ODIENNE","nomreg":"KABADOUGOU","codreg":10,"source":"Géoportail ANSTAT"}},{"type":"Feature","geometry":{"type":"Point","coordinates":[-3.754026999999951,5.217108000000053]},"properties":{"id":131364,"nom":"CENTRE DE FORMATION PROFESSIONNELLE LA MAISON DE L APPRENTI","type":"école professionnelle","district_region":"SUD-COMOE","departement_commune":null,"verifie":true,"name":"CENTRE DE FORMATION PROFESSIONNELLE LA MAISON DE L APPRENTI","nomreg":"SUD-COMOE","codreg":13,"source":"Géoportail ANSTAT"}},{"type":"Feature","geometry":{"type":"Point","coordinates":[-5.292229999999961,6.831293000000073]},"properties":{"id":131365,"nom":"CENTRE DE FORMATION PROFESSIONNELLE","type":"école professionnelle","district_region":"YAMOUSSOUKRO","departement_commune":null,"verifie":true,"name":"CENTRE DE FORMATION PROFESSIONNELLE","nomreg":"YAMOUSSOUKRO","codreg":7,"source":"Géoportail ANSTAT"}}],"metadata":{"dataset":"École professionnelle — ANSTAT","source":"Géoportail ANSTAT","theme":"Éducation","verified":true,"apercu":"complet"}}