{"type":"FeatureCollection","features":[{"type":"Feature","geometry":{"type":"Point","coordinates":[-5.05113799999998,7.721179000000063]},"properties":{"id":36718,"nom":"COUR APPEL DE BOUAKE","type":"cour d'appel","district_region":null,"departement_commune":null,"verifie":true,"name":"COUR APPEL DE BOUAKE","source":"Géoportail ANSTAT"}},{"type":"Feature","geometry":{"type":"Point","coordinates":[-5.031451999999945,7.680641000000037]},"properties":{"id":36720,"nom":"COUR D APPEL DE BOUAKE","type":"cour d'appel","district_region":null,"departement_commune":null,"verifie":true,"name":"COUR D APPEL DE BOUAKE","source":"Géoportail ANSTAT"}},{"type":"Feature","geometry":{"type":"Point","coordinates":[-6.450241999999946,6.88717900000006]},"properties":{"id":36735,"nom":"COUR D APPEL DE DALOA","type":"cour d'appel","district_region":null,"departement_commune":null,"verifie":true,"name":"COUR D APPEL DE DALOA","source":"Géoportail ANSTAT"}},{"type":"Feature","geometry":{"type":"Point","coordinates":[-6.448987999999929,6.887684000000036]},"properties":{"id":36736,"nom":"COUR D APPEL DE DALOA","type":"cour d'appel","district_region":null,"departement_commune":null,"verifie":true,"name":"COUR D APPEL DE DALOA","source":"Géoportail ANSTAT"}},{"type":"Feature","geometry":{"type":"Point","coordinates":[-3.986155999999937,5.374002000000075]},"properties":{"id":39697,"nom":"COUR D APPEL DE  COMMERCE D ABIDJAN","type":"cour d'appel","district_region":null,"departement_commune":null,"verifie":true,"name":"COUR D APPEL DE  COMMERCE D ABIDJAN","source":"Géoportail ANSTAT"}},{"type":"Feature","geometry":{"type":"Point","coordinates":[-4.022890999999959,5.328954000000067]},"properties":{"id":39786,"nom":"COUR SUPREME PARQUET GENERAL","type":"cour d'appel","district_region":null,"departement_commune":null,"verifie":true,"name":"COUR SUPREME PARQUET GENERAL","source":"Géoportail ANSTAT"}},{"type":"Feature","geometry":{"type":"Point","coordinates":[-3.49826524499997,6.744452667000076]},"properties":{"id":103854,"nom":"TRIBUNAL DE PREMIERE INSTANCE","type":"cour d'appel","district_region":null,"departement_commune":null,"verifie":true,"name":"TRIBUNAL DE PREMIERE INSTANCE","source":"Géoportail ANSTAT"}},{"type":"Feature","geometry":{"type":"Point","coordinates":[-5.363579344999948,5.843755998000063]},"properties":{"id":103855,"nom":"TRIBUNAL DE PREMIERE INSTANCE","type":"cour d'appel","district_region":null,"departement_commune":null,"verifie":true,"name":"TRIBUNAL DE PREMIERE INSTANCE","source":"Géoportail ANSTAT"}},{"type":"Feature","geometry":{"type":"Point","coordinates":[-6.431492490999972,6.88221390800004]},"properties":{"id":103862,"nom":"TRIBUNAL DE PREMIERE INSTANCE","type":"cour d'appel","district_region":null,"departement_commune":null,"verifie":true,"name":"TRIBUNAL DE PREMIERE INSTANCE","source":"Géoportail ANSTAT"}},{"type":"Feature","geometry":{"type":"Point","coordinates":[-5.739235735999955,6.986261996000053]},"properties":{"id":103863,"nom":"TRIBUNAL DE PREMIERE INSTANCE","type":"cour d'appel","district_region":null,"departement_commune":null,"verifie":true,"name":"TRIBUNAL DE PREMIERE INSTANCE","source":"Géoportail ANSTAT"}}],"metadata":{"dataset":"Cour d'appel — ANSTAT","source":"Géoportail ANSTAT","theme":"Justice","verified":true,"apercu":"complet"}}