{"type":"FeatureCollection","features":[{"type":"Feature","geometry":{"type":"Point","coordinates":[-6.661628033999932,4.764026633000071]},"properties":{"id":131017,"nom":"GROUPE DES HAUTES ETUDES COMMERCIALES","type":"ets superieur","district_region":null,"departement_commune":null,"verifie":true,"name":"GROUPE DES HAUTES ETUDES COMMERCIALES","source":"Géoportail ANSTAT"}},{"type":"Feature","geometry":{"type":"Point","coordinates":[-4.376841497999976,5.325114548000045]},"properties":{"id":131018,"nom":"GROUPE CERIN","type":"ets superieur","district_region":null,"departement_commune":null,"verifie":true,"name":"GROUPE CERIN","source":"Géoportail ANSTAT"}},{"type":"Feature","geometry":{"type":"Point","coordinates":[-4.376841497999976,5.325114548000045]},"properties":{"id":131019,"nom":"ISAMAT","type":"ets superieur","district_region":null,"departement_commune":null,"verifie":true,"name":"ISAMAT","source":"Géoportail ANSTAT"}},{"type":"Feature","geometry":{"type":"Point","coordinates":[-4.092661488999966,5.317668369000046]},"properties":{"id":131020,"nom":"GIA","type":"ets superieur","district_region":null,"departement_commune":null,"verifie":true,"name":"GIA","source":"Géoportail ANSTAT"}},{"type":"Feature","geometry":{"type":"Point","coordinates":[-4.092661488999966,5.317668369000046]},"properties":{"id":131021,"nom":"INSTITUT SUPERIEUR ET TECHNIQUE SAINT PIERRE MARIE","type":"ets superieur","district_region":null,"departement_commune":null,"verifie":true,"name":"INSTITUT SUPERIEUR ET TECHNIQUE SAINT PIERRE MARIE","source":"Géoportail ANSTAT"}},{"type":"Feature","geometry":{"type":"Point","coordinates":[-4.092661488999966,5.317668369000046]},"properties":{"id":131022,"nom":"UNIVERSITE ISLAMIQUE","type":"ets superieur","district_region":null,"departement_commune":null,"verifie":true,"name":"UNIVERSITE ISLAMIQUE","source":"Géoportail ANSTAT"}},{"type":"Feature","geometry":{"type":"Point","coordinates":[-4.092661488999966,5.317668369000046]},"properties":{"id":131023,"nom":"GROUPE SUCCES FORMATION","type":"ets superieur","district_region":null,"departement_commune":null,"verifie":true,"name":"GROUPE SUCCES FORMATION","source":"Géoportail ANSTAT"}},{"type":"Feature","geometry":{"type":"Point","coordinates":[-4.092661488999966,5.317668369000046]},"properties":{"id":131024,"nom":"INSTITUT UNIVERSITAIRE POLYTECHNIQUE ABIDJAN","type":"ets superieur","district_region":null,"departement_commune":null,"verifie":true,"name":"INSTITUT UNIVERSITAIRE POLYTECHNIQUE ABIDJAN","source":"Géoportail ANSTAT"}},{"type":"Feature","geometry":{"type":"Point","coordinates":[-4.092661488999966,5.317668369000046]},"properties":{"id":131025,"nom":"INSTITUT ENSEIGNEMENT SUPERIEUR LE CAMPUS","type":"ets superieur","district_region":null,"departement_commune":null,"verifie":true,"name":"INSTITUT ENSEIGNEMENT SUPERIEUR LE CAMPUS","source":"Géoportail ANSTAT"}},{"type":"Feature","geometry":{"type":"Point","coordinates":[-4.092661488999966,5.317668369000046]},"properties":{"id":131026,"nom":"ESDE SUP","type":"ets superieur","district_region":null,"departement_commune":null,"verifie":true,"name":"ESDE SUP","source":"Géoportail ANSTAT"}},{"type":"Feature","geometry":{"type":"Point","coordinates":[-4.092661488999966,5.317668369000046]},"properties":{"id":131027,"nom":"INSTITUT SUPERIEUR JEAN PAUL 2","type":"ets superieur","district_region":null,"departement_commune":null,"verifie":true,"name":"INSTITUT SUPERIEUR JEAN PAUL 2","source":"Géoportail ANSTAT"}},{"type":"Feature","geometry":{"type":"Point","coordinates":[-4.092661488999966,5.317668369000046]},"properties":{"id":131028,"nom":"UNIVERSITE NORD SUD","type":"ets superieur","district_region":null,"departement_commune":null,"verifie":true,"name":"UNIVERSITE NORD SUD","source":"Géoportail ANSTAT"}},{"type":"Feature","geometry":{"type":"Point","coordinates":[-4.092661488999966,5.317668369000046]},"properties":{"id":131029,"nom":"GROUPE IDFOR","type":"ets superieur","district_region":null,"departement_commune":null,"verifie":true,"name":"GROUPE IDFOR","source":"Géoportail ANSTAT"}},{"type":"Feature","geometry":{"type":"Point","coordinates":[-4.007312276999926,5.294550547000028]},"properties":{"id":131030,"nom":"ESATIC","type":"ets superieur","district_region":null,"departement_commune":null,"verifie":true,"name":"ESATIC","source":"Géoportail ANSTAT"}},{"type":"Feature","geometry":{"type":"Point","coordinates":[-4.007312276999926,5.294550547000028]},"properties":{"id":131031,"nom":"ESTIC","type":"ets superieur","district_region":null,"departement_commune":null,"verifie":true,"name":"ESTIC","source":"Géoportail ANSTAT"}},{"type":"Feature","geometry":{"type":"Point","coordinates":[-4.007312276999926,5.294550547000028]},"properties":{"id":131032,"nom":"GROUPE ISIG","type":"ets superieur","district_region":null,"departement_commune":null,"verifie":true,"name":"GROUPE ISIG","source":"Géoportail ANSTAT"}},{"type":"Feature","geometry":{"type":"Point","coordinates":[-4.007312276999926,5.294550547000028]},"properties":{"id":131033,"nom":"CENTRE DE RECHERCHE EN ECOLOGIE","type":"ets superieur","district_region":null,"departement_commune":null,"verifie":true,"name":"CENTRE DE RECHERCHE EN ECOLOGIE","source":"Géoportail ANSTAT"}},{"type":"Feature","geometry":{"type":"Point","coordinates":[-3.963915807999967,5.37976681300006]},"properties":{"id":131034,"nom":"UNIVERSITE CATHOLIQUE DE L AFRIQUE DE L OUEST","type":"ets superieur","district_region":null,"departement_commune":null,"verifie":true,"name":"UNIVERSITE CATHOLIQUE DE L AFRIQUE DE L OUEST","source":"Géoportail ANSTAT"}},{"type":"Feature","geometry":{"type":"Point","coordinates":[-3.963915807999967,5.37976681300006]},"properties":{"id":131035,"nom":"OPEN DAY","type":"ets superieur","district_region":null,"departement_commune":null,"verifie":true,"name":"OPEN DAY","source":"Géoportail ANSTAT"}},{"type":"Feature","geometry":{"type":"Point","coordinates":[-3.963915807999967,5.37976681300006]},"properties":{"id":131036,"nom":"INHP","type":"ets superieur","district_region":null,"departement_commune":null,"verifie":true,"name":"INHP","source":"Géoportail ANSTAT"}},{"type":"Feature","geometry":{"type":"Point","coordinates":[-3.963915807999967,5.37976681300006]},"properties":{"id":131037,"nom":"CERAP","type":"ets superieur","district_region":null,"departement_commune":null,"verifie":true,"name":"CERAP","source":"Géoportail ANSTAT"}},{"type":"Feature","geometry":{"type":"Point","coordinates":[-3.963915807999967,5.37976681300006]},"properties":{"id":131038,"nom":"UNIVERSITE D ALLIANCE CHRETIENNE D ABIDJAN","type":"ets superieur","district_region":null,"departement_commune":null,"verifie":true,"name":"UNIVERSITE D ALLIANCE CHRETIENNE D ABIDJAN","source":"Géoportail ANSTAT"}},{"type":"Feature","geometry":{"type":"Point","coordinates":[-3.963915807999967,5.37976681300006]},"properties":{"id":131039,"nom":"UIPA  UNIVERSITE INTERNATIONALE PRIVE D ABIDJAN","type":"ets superieur","district_region":null,"departement_commune":null,"verifie":true,"name":"UIPA  UNIVERSITE INTERNATIONALE PRIVE D ABIDJAN","source":"Géoportail ANSTAT"}},{"type":"Feature","geometry":{"type":"Point","coordinates":[-3.963915807999967,5.37976681300006]},"properties":{"id":131040,"nom":"CENTRE UNIVERSITAIRE DE RECHERCHE","type":"ets superieur","district_region":null,"departement_commune":null,"verifie":true,"name":"CENTRE UNIVERSITAIRE DE RECHERCHE","source":"Géoportail ANSTAT"}},{"type":"Feature","geometry":{"type":"Point","coordinates":[-3.963915807999967,5.37976681300006]},"properties":{"id":131041,"nom":"UNIVERSITE CHARLE LOUIS DE MONTESQUEUX","type":"ets superieur","district_region":null,"departement_commune":null,"verifie":true,"name":"UNIVERSITE CHARLE LOUIS DE MONTESQUEUX","source":"Géoportail ANSTAT"}},{"type":"Feature","geometry":{"type":"Point","coordinates":[-3.963915807999967,5.37976681300006]},"properties":{"id":131042,"nom":"INSTITUT SUPERIEUR DE GESTION D ECONOMIE T DE MANAGEMENT","type":"ets superieur","district_region":null,"departement_commune":null,"verifie":true,"name":"INSTITUT SUPERIEUR DE GESTION D ECONOMIE T DE MANAGEMENT","source":"Géoportail ANSTAT"}},{"type":"Feature","geometry":{"type":"Point","coordinates":[-3.963915807999967,5.37976681300006]},"properties":{"id":131043,"nom":"CENTRE AFRICAIN DE  MANAGEMENT ET PERFECTIONNEMENT DES CADRES","type":"ets superieur","district_region":null,"departement_commune":null,"verifie":true,"name":"CENTRE AFRICAIN DE  MANAGEMENT ET PERFECTIONNEMENT DES CADRES","source":"Géoportail ANSTAT"}},{"type":"Feature","geometry":{"type":"Point","coordinates":[-3.963915807999967,5.37976681300006]},"properties":{"id":131044,"nom":"UNIVERSITE FELIX HOUPHOUET BOIGNY","type":"ets superieur","district_region":null,"departement_commune":null,"verifie":true,"name":"UNIVERSITE FELIX HOUPHOUET BOIGNY","source":"Géoportail ANSTAT"}},{"type":"Feature","geometry":{"type":"Point","coordinates":[-3.963915807999967,5.37976681300006]},"properties":{"id":131045,"nom":"UNIVERSITE METHODISTE DE COTE D IVOIRE","type":"ets superieur","district_region":null,"departement_commune":null,"verifie":true,"name":"UNIVERSITE METHODISTE DE COTE D IVOIRE","source":"Géoportail ANSTAT"}},{"type":"Feature","geometry":{"type":"Point","coordinates":[-3.963915807999967,5.37976681300006]},"properties":{"id":131046,"nom":"SUP MANAGEMENT","type":"ets superieur","district_region":null,"departement_commune":null,"verifie":true,"name":"SUP MANAGEMENT","source":"Géoportail ANSTAT"}},{"type":"Feature","geometry":{"type":"Point","coordinates":[-3.963915807999967,5.37976681300006]},"properties":{"id":131047,"nom":"ESMA","type":"ets superieur","district_region":null,"departement_commune":null,"verifie":true,"name":"ESMA","source":"Géoportail ANSTAT"}},{"type":"Feature","geometry":{"type":"Point","coordinates":[-3.963915807999967,5.37976681300006]},"properties":{"id":131048,"nom":"UNIVERCITE VITUELLE DE COTE D IVOIRE","type":"ets superieur","district_region":null,"departement_commune":null,"verifie":true,"name":"UNIVERCITE VITUELLE DE COTE D IVOIRE","source":"Géoportail ANSTAT"}},{"type":"Feature","geometry":{"type":"Point","coordinates":[-3.963915807999967,5.37976681300006]},"properties":{"id":131049,"nom":"INOVA","type":"ets superieur","district_region":null,"departement_commune":null,"verifie":true,"name":"INOVA","source":"Géoportail ANSTAT"}},{"type":"Feature","geometry":{"type":"Point","coordinates":[-3.963915807999967,5.37976681300006]},"properties":{"id":131050,"nom":"GROUPE IHEM SO","type":"ets superieur","district_region":null,"departement_commune":null,"verifie":true,"name":"GROUPE IHEM SO","source":"Géoportail ANSTAT"}},{"type":"Feature","geometry":{"type":"Point","coordinates":[-3.963915807999967,5.37976681300006]},"properties":{"id":131051,"nom":"XC","type":"ets superieur","district_region":null,"departement_commune":null,"verifie":true,"name":"XC","source":"Géoportail ANSTAT"}},{"type":"Feature","geometry":{"type":"Point","coordinates":[-3.963915807999967,5.37976681300006]},"properties":{"id":131052,"nom":"WEST AFRICA UNIVERSTY","type":"ets superieur","district_region":null,"departement_commune":null,"verifie":true,"name":"WEST AFRICA UNIVERSTY","source":"Géoportail ANSTAT"}},{"type":"Feature","geometry":{"type":"Point","coordinates":[-3.963915807999967,5.37976681300006]},"properties":{"id":131053,"nom":"UNIVERSITE INTER CLAIREFONTAINE","type":"ets superieur","district_region":null,"departement_commune":null,"verifie":true,"name":"UNIVERSITE INTER CLAIREFONTAINE","source":"Géoportail ANSTAT"}},{"type":"Feature","geometry":{"type":"Point","coordinates":[-3.963915807999967,5.37976681300006]},"properties":{"id":131054,"nom":"UNIVERSITE CANADIENNE","type":"ets superieur","district_region":null,"departement_commune":null,"verifie":true,"name":"UNIVERSITE CANADIENNE","source":"Géoportail ANSTAT"}},{"type":"Feature","geometry":{"type":"Point","coordinates":[-3.963915807999967,5.37976681300006]},"properties":{"id":131055,"nom":"UNIVERDITE NORD SUD","type":"ets superieur","district_region":null,"departement_commune":null,"verifie":true,"name":"UNIVERDITE NORD SUD","source":"Géoportail ANSTAT"}},{"type":"Feature","geometry":{"type":"Point","coordinates":[-3.963915807999967,5.37976681300006]},"properties":{"id":131056,"nom":"UNIVERSITE DES LAGUNES","type":"ets superieur","district_region":null,"departement_commune":null,"verifie":true,"name":"UNIVERSITE DES LAGUNES","source":"Géoportail ANSTAT"}},{"type":"Feature","geometry":{"type":"Point","coordinates":[-3.963915807999967,5.37976681300006]},"properties":{"id":131057,"nom":"ISFIA","type":"ets superieur","district_region":null,"departement_commune":null,"verifie":true,"name":"ISFIA","source":"Géoportail ANSTAT"}},{"type":"Feature","geometry":{"type":"Point","coordinates":[-3.963915807999967,5.37976681300006]},"properties":{"id":131058,"nom":"CENTRE DE FORMATION EN MICROFINANCE","type":"ets superieur","district_region":null,"departement_commune":null,"verifie":true,"name":"CENTRE DE FORMATION EN MICROFINANCE","source":"Géoportail ANSTAT"}},{"type":"Feature","geometry":{"type":"Point","coordinates":[-3.963915807999967,5.37976681300006]},"properties":{"id":131059,"nom":"EISIT","type":"ets superieur","district_region":null,"departement_commune":null,"verifie":true,"name":"EISIT","source":"Géoportail ANSTAT"}},{"type":"Feature","geometry":{"type":"Point","coordinates":[-3.963915807999967,5.37976681300006]},"properties":{"id":131060,"nom":"ASTC","type":"ets superieur","district_region":null,"departement_commune":null,"verifie":true,"name":"ASTC","source":"Géoportail ANSTAT"}},{"type":"Feature","geometry":{"type":"Point","coordinates":[-3.963915807999967,5.37976681300006]},"properties":{"id":131061,"nom":"CIFC","type":"ets superieur","district_region":null,"departement_commune":null,"verifie":true,"name":"CIFC","source":"Géoportail ANSTAT"}},{"type":"Feature","geometry":{"type":"Point","coordinates":[-3.963915807999967,5.37976681300006]},"properties":{"id":131062,"nom":"DENING EXCELLENTE INSTITULE","type":"ets superieur","district_region":null,"departement_commune":null,"verifie":true,"name":"DENING EXCELLENTE INSTITULE","source":"Géoportail ANSTAT"}},{"type":"Feature","geometry":{"type":"Point","coordinates":[-3.963915807999967,5.37976681300006]},"properties":{"id":131063,"nom":"UNIVERSITE DU MAGHREB","type":"ets superieur","district_region":null,"departement_commune":null,"verifie":true,"name":"UNIVERSITE DU MAGHREB","source":"Géoportail ANSTAT"}},{"type":"Feature","geometry":{"type":"Point","coordinates":[-3.963915807999967,5.37976681300006]},"properties":{"id":131064,"nom":"GROUPE DISTRIPHARM","type":"ets superieur","district_region":null,"departement_commune":null,"verifie":true,"name":"GROUPE DISTRIPHARM","source":"Géoportail ANSTAT"}},{"type":"Feature","geometry":{"type":"Point","coordinates":[-3.963915807999967,5.37976681300006]},"properties":{"id":131065,"nom":"UNIVERSITE INTERNATIONALE","type":"ets superieur","district_region":null,"departement_commune":null,"verifie":true,"name":"UNIVERSITE INTERNATIONALE","source":"Géoportail ANSTAT"}},{"type":"Feature","geometry":{"type":"Point","coordinates":[-3.963915807999967,5.37976681300006]},"properties":{"id":131066,"nom":"INSTITUT UNIVERSITAIRE POLYTECHNIQUE D ABIDJAN","type":"ets superieur","district_region":null,"departement_commune":null,"verifie":true,"name":"INSTITUT UNIVERSITAIRE POLYTECHNIQUE D ABIDJAN","source":"Géoportail ANSTAT"}},{"type":"Feature","geometry":{"type":"Point","coordinates":[-3.963915807999967,5.37976681300006]},"properties":{"id":131067,"nom":"AGITEL FORMATION","type":"ets superieur","district_region":null,"departement_commune":null,"verifie":true,"name":"AGITEL FORMATION","source":"Géoportail ANSTAT"}},{"type":"Feature","geometry":{"type":"Point","coordinates":[-3.963915807999967,5.37976681300006]},"properties":{"id":131068,"nom":"ESYM","type":"ets superieur","district_region":null,"departement_commune":null,"verifie":true,"name":"ESYM","source":"Géoportail ANSTAT"}},{"type":"Feature","geometry":{"type":"Point","coordinates":[-3.963915807999967,5.37976681300006]},"properties":{"id":131069,"nom":"UNIVERSITE INTERNATIONALE DABIDJAN","type":"ets superieur","district_region":null,"departement_commune":null,"verifie":true,"name":"UNIVERSITE INTERNATIONALE DABIDJAN","source":"Géoportail ANSTAT"}},{"type":"Feature","geometry":{"type":"Point","coordinates":[-3.963915807999967,5.37976681300006]},"properties":{"id":131070,"nom":"INSTITUT SUPERIEURE AFRICAIN DASSURANCES BANNQUE ET BOURSE","type":"ets superieur","district_region":null,"departement_commune":null,"verifie":true,"name":"INSTITUT SUPERIEURE AFRICAIN DASSURANCES BANNQUE ET BOURSE","source":"Géoportail ANSTAT"}},{"type":"Feature","geometry":{"type":"Point","coordinates":[-3.963915807999967,5.37976681300006]},"properties":{"id":131071,"nom":"INSTITUT UNIVERSITAIRE D ABIDJAN FACULTE DES SCIENCES","type":"ets superieur","district_region":null,"departement_commune":null,"verifie":true,"name":"INSTITUT UNIVERSITAIRE D ABIDJAN FACULTE DES SCIENCES","source":"Géoportail ANSTAT"}},{"type":"Feature","geometry":{"type":"Point","coordinates":[-3.963915807999967,5.37976681300006]},"properties":{"id":131072,"nom":"I U A","type":"ets superieur","district_region":null,"departement_commune":null,"verifie":true,"name":"I U A","source":"Géoportail ANSTAT"}},{"type":"Feature","geometry":{"type":"Point","coordinates":[-3.963915807999967,5.37976681300006]},"properties":{"id":131073,"nom":"INSTITUE  UNIVERSITAIRE D ABIDJAN IUA","type":"ets superieur","district_region":null,"departement_commune":null,"verifie":true,"name":"INSTITUE  UNIVERSITAIRE D ABIDJAN IUA","source":"Géoportail ANSTAT"}},{"type":"Feature","geometry":{"type":"Point","coordinates":[-3.963915807999967,5.37976681300006]},"properties":{"id":131074,"nom":"U S T C I","type":"ets superieur","district_region":null,"departement_commune":null,"verifie":true,"name":"U S T C I","source":"Géoportail ANSTAT"}},{"type":"Feature","geometry":{"type":"Point","coordinates":[-3.963915807999967,5.37976681300006]},"properties":{"id":131075,"nom":"F U P A","type":"ets superieur","district_region":null,"departement_commune":null,"verifie":true,"name":"F U P A","source":"Géoportail ANSTAT"}},{"type":"Feature","geometry":{"type":"Point","coordinates":[-3.963915807999967,5.37976681300006]},"properties":{"id":131076,"nom":"GRADUATE SCHOOL OF MANAGEMENT","type":"ets superieur","district_region":null,"departement_commune":null,"verifie":true,"name":"GRADUATE SCHOOL OF MANAGEMENT","source":"Géoportail ANSTAT"}},{"type":"Feature","geometry":{"type":"Point","coordinates":[-3.963915807999967,5.37976681300006]},"properties":{"id":131077,"nom":"IUA INSTITUT UNIVERSITE D ABIDJAN","type":"ets superieur","district_region":null,"departement_commune":null,"verifie":true,"name":"IUA INSTITUT UNIVERSITE D ABIDJAN","source":"Géoportail ANSTAT"}},{"type":"Feature","geometry":{"type":"Point","coordinates":[-3.963915807999967,5.37976681300006]},"properties":{"id":131078,"nom":"TAHARQA SARE  EX  UNIVERSITE HAMPATE BA  E T  ISID","type":"ets superieur","district_region":null,"departement_commune":null,"verifie":true,"name":"TAHARQA SARE  EX  UNIVERSITE HAMPATE BA  E T  ISID","source":"Géoportail ANSTAT"}},{"type":"Feature","geometry":{"type":"Point","coordinates":[-3.963915807999967,5.37976681300006]},"properties":{"id":131079,"nom":"ACADEMIX","type":"ets superieur","district_region":null,"departement_commune":null,"verifie":true,"name":"ACADEMIX","source":"Géoportail ANSTAT"}},{"type":"Feature","geometry":{"type":"Point","coordinates":[-3.963915807999967,5.37976681300006]},"properties":{"id":131080,"nom":"IES LE CAMPUCE","type":"ets superieur","district_region":null,"departement_commune":null,"verifie":true,"name":"IES LE CAMPUCE","source":"Géoportail ANSTAT"}},{"type":"Feature","geometry":{"type":"Point","coordinates":[-3.963915807999967,5.37976681300006]},"properties":{"id":131081,"nom":"H E P  AFRIQUE  A G O S O F T","type":"ets superieur","district_region":null,"departement_commune":null,"verifie":true,"name":"H E P  AFRIQUE  A G O S O F T","source":"Géoportail ANSTAT"}},{"type":"Feature","geometry":{"type":"Point","coordinates":[-3.963915807999967,5.37976681300006]},"properties":{"id":131082,"nom":"I U DABIDJAN","type":"ets superieur","district_region":null,"departement_commune":null,"verifie":true,"name":"I U DABIDJAN","source":"Géoportail ANSTAT"}},{"type":"Feature","geometry":{"type":"Point","coordinates":[-3.963915807999967,5.37976681300006]},"properties":{"id":131083,"nom":"SCM","type":"ets superieur","district_region":null,"departement_commune":null,"verifie":true,"name":"SCM","source":"Géoportail ANSTAT"}},{"type":"Feature","geometry":{"type":"Point","coordinates":[-3.963915807999967,5.37976681300006]},"properties":{"id":131084,"nom":"IUTA","type":"ets superieur","district_region":null,"departement_commune":null,"verifie":true,"name":"IUTA","source":"Géoportail ANSTAT"}},{"type":"Feature","geometry":{"type":"Point","coordinates":[-3.963915807999967,5.37976681300006]},"properties":{"id":131085,"nom":"BERYL UNIVERITY","type":"ets superieur","district_region":null,"departement_commune":null,"verifie":true,"name":"BERYL UNIVERITY","source":"Géoportail ANSTAT"}},{"type":"Feature","geometry":{"type":"Point","coordinates":[-3.963915807999967,5.37976681300006]},"properties":{"id":131086,"nom":"INSTITUT FAMAH","type":"ets superieur","district_region":null,"departement_commune":null,"verifie":true,"name":"INSTITUT FAMAH","source":"Géoportail ANSTAT"}},{"type":"Feature","geometry":{"type":"Point","coordinates":[-3.963915807999967,5.37976681300006]},"properties":{"id":131087,"nom":"INSTITUT DE FORMATION SAINTE MARIE","type":"ets superieur","district_region":null,"departement_commune":null,"verifie":true,"name":"INSTITUT DE FORMATION SAINTE MARIE","source":"Géoportail ANSTAT"}},{"type":"Feature","geometry":{"type":"Point","coordinates":[-3.963915807999967,5.37976681300006]},"properties":{"id":131088,"nom":"TOGET","type":"ets superieur","district_region":null,"departement_commune":null,"verifie":true,"name":"TOGET","source":"Géoportail ANSTAT"}},{"type":"Feature","geometry":{"type":"Point","coordinates":[-3.963915807999967,5.37976681300006]},"properties":{"id":131089,"nom":"INSTITU SUPERIEUR DES CSIENCE APPLIQUES","type":"ets superieur","district_region":null,"departement_commune":null,"verifie":true,"name":"INSTITU SUPERIEUR DES CSIENCE APPLIQUES","source":"Géoportail ANSTAT"}},{"type":"Feature","geometry":{"type":"Point","coordinates":[-3.963915807999967,5.37976681300006]},"properties":{"id":131090,"nom":"GLOBAL NUMERIK","type":"ets superieur","district_region":null,"departement_commune":null,"verifie":true,"name":"GLOBAL NUMERIK","source":"Géoportail ANSTAT"}},{"type":"Feature","geometry":{"type":"Point","coordinates":[-3.963915807999967,5.37976681300006]},"properties":{"id":131091,"nom":"RICHTER UNIVERSITY ET COLLEGE","type":"ets superieur","district_region":null,"departement_commune":null,"verifie":true,"name":"RICHTER UNIVERSITY ET COLLEGE","source":"Géoportail ANSTAT"}},{"type":"Feature","geometry":{"type":"Point","coordinates":[-3.963915807999967,5.37976681300006]},"properties":{"id":131092,"nom":"ISFCG","type":"ets superieur","district_region":null,"departement_commune":null,"verifie":true,"name":"ISFCG","source":"Géoportail ANSTAT"}},{"type":"Feature","geometry":{"type":"Point","coordinates":[-3.963915807999967,5.37976681300006]},"properties":{"id":131093,"nom":"I I H E","type":"ets superieur","district_region":null,"departement_commune":null,"verifie":true,"name":"I I H E","source":"Géoportail ANSTAT"}},{"type":"Feature","geometry":{"type":"Point","coordinates":[-3.963915807999967,5.37976681300006]},"properties":{"id":131094,"nom":"E SCHOOL","type":"ets superieur","district_region":null,"departement_commune":null,"verifie":true,"name":"E SCHOOL","source":"Géoportail ANSTAT"}},{"type":"Feature","geometry":{"type":"Point","coordinates":[-3.963915807999967,5.37976681300006]},"properties":{"id":131095,"nom":"INTERNATIONAL AKANJI","type":"ets superieur","district_region":null,"departement_commune":null,"verifie":true,"name":"INTERNATIONAL AKANJI","source":"Géoportail ANSTAT"}},{"type":"Feature","geometry":{"type":"Point","coordinates":[-3.963915807999967,5.37976681300006]},"properties":{"id":131096,"nom":"UNIVERSITE INTERNATIONAL AKANJI","type":"ets superieur","district_region":null,"departement_commune":null,"verifie":true,"name":"UNIVERSITE INTERNATIONAL AKANJI","source":"Géoportail ANSTAT"}},{"type":"Feature","geometry":{"type":"Point","coordinates":[-3.963915807999967,5.37976681300006]},"properties":{"id":131097,"nom":"EDUCATION BRETANNIQUE INTERNATIONALE","type":"ets superieur","district_region":null,"departement_commune":null,"verifie":true,"name":"EDUCATION BRETANNIQUE INTERNATIONALE","source":"Géoportail ANSTAT"}},{"type":"Feature","geometry":{"type":"Point","coordinates":[-3.963915807999967,5.37976681300006]},"properties":{"id":131098,"nom":"UNIVERSITE DE MAN","type":"ets superieur","district_region":null,"departement_commune":null,"verifie":true,"name":"UNIVERSITE DE MAN","source":"Géoportail ANSTAT"}},{"type":"Feature","geometry":{"type":"Point","coordinates":[-3.963915807999967,5.37976681300006]},"properties":{"id":131099,"nom":"ADONAI","type":"ets superieur","district_region":null,"departement_commune":null,"verifie":true,"name":"ADONAI","source":"Géoportail ANSTAT"}},{"type":"Feature","geometry":{"type":"Point","coordinates":[-3.963915807999967,5.37976681300006]},"properties":{"id":131100,"nom":"UNIVERSITE JESUITES","type":"ets superieur","district_region":null,"departement_commune":null,"verifie":true,"name":"UNIVERSITE JESUITES","source":"Géoportail ANSTAT"}},{"type":"Feature","geometry":{"type":"Point","coordinates":[-4.021453253999937,5.327046559000053]},"properties":{"id":131101,"nom":"UNIVERSITE UMA","type":"ets superieur","district_region":null,"departement_commune":null,"verifie":true,"name":"UNIVERSITE UMA","source":"Géoportail ANSTAT"}},{"type":"Feature","geometry":{"type":"Point","coordinates":[-4.021453253999937,5.327046559000053]},"properties":{"id":131102,"nom":"COURS CASTAING","type":"ets superieur","district_region":null,"departement_commune":null,"verifie":true,"name":"COURS CASTAING","source":"Géoportail ANSTAT"}},{"type":"Feature","geometry":{"type":"Point","coordinates":[-4.021453253999937,5.327046559000053]},"properties":{"id":131103,"nom":"UNIVERSITE DES METIERS PIGIER","type":"ets superieur","district_region":null,"departement_commune":null,"verifie":true,"name":"UNIVERSITE DES METIERS PIGIER","source":"Géoportail ANSTAT"}},{"type":"Feature","geometry":{"type":"Point","coordinates":[-3.979055097999947,5.297753574000069]},"properties":{"id":131104,"nom":"HEC","type":"ets superieur","district_region":null,"departement_commune":null,"verifie":true,"name":"HEC","source":"Géoportail ANSTAT"}},{"type":"Feature","geometry":{"type":"Point","coordinates":[-3.979055097999947,5.297753574000069]},"properties":{"id":131105,"nom":"INSTITUT LE PROGRES GROUPE LOKO","type":"ets superieur","district_region":null,"departement_commune":null,"verifie":true,"name":"INSTITUT LE PROGRES GROUPE LOKO","source":"Géoportail ANSTAT"}},{"type":"Feature","geometry":{"type":"Point","coordinates":[-3.979055097999947,5.297753574000069]},"properties":{"id":131106,"nom":"UNIVERSITE TERTIAIRE ET TECHNOLOGIQUE UTT LOKO","type":"ets superieur","district_region":null,"departement_commune":null,"verifie":true,"name":"UNIVERSITE TERTIAIRE ET TECHNOLOGIQUE UTT LOKO","source":"Géoportail ANSTAT"}},{"type":"Feature","geometry":{"type":"Point","coordinates":[-3.979055097999947,5.297753574000069]},"properties":{"id":131107,"nom":"EUROF","type":"ets superieur","district_region":null,"departement_commune":null,"verifie":true,"name":"EUROF","source":"Géoportail ANSTAT"}},{"type":"Feature","geometry":{"type":"Point","coordinates":[-3.979055097999947,5.297753574000069]},"properties":{"id":131108,"nom":"ECG","type":"ets superieur","district_region":null,"departement_commune":null,"verifie":true,"name":"ECG","source":"Géoportail ANSTAT"}},{"type":"Feature","geometry":{"type":"Point","coordinates":[-3.979055097999947,5.297753574000069]},"properties":{"id":131109,"nom":"INSTITUT SUPERIEURE LA FONTAINE","type":"ets superieur","district_region":null,"departement_commune":null,"verifie":true,"name":"INSTITUT SUPERIEURE LA FONTAINE","source":"Géoportail ANSTAT"}},{"type":"Feature","geometry":{"type":"Point","coordinates":[-3.979055097999947,5.297753574000069]},"properties":{"id":131110,"nom":"GROUPE ITA INGENIERIE SA","type":"ets superieur","district_region":null,"departement_commune":null,"verifie":true,"name":"GROUPE ITA INGENIERIE SA","source":"Géoportail ANSTAT"}},{"type":"Feature","geometry":{"type":"Point","coordinates":[-3.979055097999947,5.297753574000069]},"properties":{"id":131111,"nom":"E S T LOKO BLOC 1","type":"ets superieur","district_region":null,"departement_commune":null,"verifie":true,"name":"E S T LOKO BLOC 1","source":"Géoportail ANSTAT"}},{"type":"Feature","geometry":{"type":"Point","coordinates":[-3.954408489999935,5.296672646000047]},"properties":{"id":131112,"nom":"INSTITUT SUPERIEUR TECHNIQUE SAINTE THERESE","type":"ets superieur","district_region":null,"departement_commune":null,"verifie":true,"name":"INSTITUT SUPERIEUR TECHNIQUE SAINTE THERESE","source":"Géoportail ANSTAT"}},{"type":"Feature","geometry":{"type":"Point","coordinates":[-4.028022624999949,5.448098150000021]},"properties":{"id":131113,"nom":"UNIVERSITE ADAMA SANOGO","type":"ets superieur","district_region":null,"departement_commune":null,"verifie":true,"name":"UNIVERSITE ADAMA SANOGO","source":"Géoportail ANSTAT"}},{"type":"Feature","geometry":{"type":"Point","coordinates":[-4.028022624999949,5.448098150000021]},"properties":{"id":131114,"nom":"UNIVERSITE NANGUI ABROGOUA CENTRE DE FORMATION CONTINUE","type":"ets superieur","district_region":null,"departement_commune":null,"verifie":true,"name":"UNIVERSITE NANGUI ABROGOUA CENTRE DE FORMATION CONTINUE","source":"Géoportail ANSTAT"}},{"type":"Feature","geometry":{"type":"Point","coordinates":[-4.028022624999949,5.448098150000021]},"properties":{"id":131115,"nom":"ISP INSTITUT SUPERIEUR PROFESSIONNEL","type":"ets superieur","district_region":null,"departement_commune":null,"verifie":true,"name":"ISP INSTITUT SUPERIEUR PROFESSIONNEL","source":"Géoportail ANSTAT"}},{"type":"Feature","geometry":{"type":"Point","coordinates":[-4.028022624999949,5.448098150000021]},"properties":{"id":131116,"nom":"LES PETIT ANGE GUIGNOL","type":"ets superieur","district_region":null,"departement_commune":null,"verifie":true,"name":"LES PETIT ANGE GUIGNOL","source":"Géoportail ANSTAT"}},{"type":"Feature","geometry":{"type":"Point","coordinates":[-4.028022624999949,5.448098150000021]},"properties":{"id":131117,"nom":"UNIVERSITE ISLAMIQUE DE LA DJIBI","type":"ets superieur","district_region":null,"departement_commune":null,"verifie":true,"name":"UNIVERSITE ISLAMIQUE DE LA DJIBI","source":"Géoportail ANSTAT"}},{"type":"Feature","geometry":{"type":"Point","coordinates":[-3.886501979999935,5.365910494000047]},"properties":{"id":131118,"nom":"UPB","type":"ets superieur","district_region":null,"departement_commune":null,"verifie":true,"name":"UPB","source":"Géoportail ANSTAT"}},{"type":"Feature","geometry":{"type":"Point","coordinates":[-3.886501979999935,5.365910494000047]},"properties":{"id":131119,"nom":"CONCORDET","type":"ets superieur","district_region":null,"departement_commune":null,"verifie":true,"name":"CONCORDET","source":"Géoportail ANSTAT"}},{"type":"Feature","geometry":{"type":"Point","coordinates":[-3.886501979999935,5.365910494000047]},"properties":{"id":131120,"nom":"UNIVERSITE FELIX HOUPHOUET BOIGNY POLE SCIENTIFIQUE ET D INNOVATION","type":"ets superieur","district_region":null,"departement_commune":null,"verifie":true,"name":"UNIVERSITE FELIX HOUPHOUET BOIGNY POLE SCIENTIFIQUE ET D INNOVATION","source":"Géoportail ANSTAT"}},{"type":"Feature","geometry":{"type":"Point","coordinates":[-3.886501979999935,5.365910494000047]},"properties":{"id":131121,"nom":"UNIVERSITE INTERNATIONALE DE BINGERVILLE","type":"ets superieur","district_region":null,"departement_commune":null,"verifie":true,"name":"UNIVERSITE INTERNATIONALE DE BINGERVILLE","source":"Géoportail ANSTAT"}},{"type":"Feature","geometry":{"type":"Point","coordinates":[-4.050466780999955,5.379482046000021]},"properties":{"id":131122,"nom":"ECOLE  CONFESSIONNELLE ISLAMIQUE SABINE FALAH","type":"ets superieur","district_region":null,"departement_commune":null,"verifie":true,"name":"ECOLE  CONFESSIONNELLE ISLAMIQUE SABINE FALAH","source":"Géoportail ANSTAT"}},{"type":"Feature","geometry":{"type":"Point","coordinates":[-4.021149352999942,5.368341801000042]},"properties":{"id":131123,"nom":"UNIVERSITE NANGUI ABROGOUA","type":"ets superieur","district_region":null,"departement_commune":null,"verifie":true,"name":"UNIVERSITE NANGUI ABROGOUA","source":"Géoportail ANSTAT"}},{"type":"Feature","geometry":{"type":"Point","coordinates":[-2.80170181699998,8.037221812000041]},"properties":{"id":131124,"nom":"UNIVERSITE DE BONDOUKOU","type":"ets superieur","district_region":null,"departement_commune":null,"verifie":true,"name":"UNIVERSITE DE BONDOUKOU","source":"Géoportail ANSTAT"}},{"type":"Feature","geometry":{"type":"Point","coordinates":[-6.431492490999972,6.88221390800004]},"properties":{"id":131125,"nom":"CITE KHALILOU","type":"ets superieur","district_region":null,"departement_commune":null,"verifie":true,"name":"CITE KHALILOU","source":"Géoportail ANSTAT"}},{"type":"Feature","geometry":{"type":"Point","coordinates":[-6.431492490999972,6.88221390800004]},"properties":{"id":131126,"nom":"UNIVERSITE DE DALOA","type":"ets superieur","district_region":null,"departement_commune":null,"verifie":true,"name":"UNIVERSITE DE DALOA","source":"Géoportail ANSTAT"}},{"type":"Feature","geometry":{"type":"Point","coordinates":[-3.753449285999977,5.219013964000055]},"properties":{"id":131127,"nom":"INTERNATIONAL UNIVERSITY OF GRAND BASSAM","type":"ets superieur","district_region":null,"departement_commune":null,"verifie":true,"name":"INTERNATIONAL UNIVERSITY OF GRAND BASSAM","source":"Géoportail ANSTAT"}},{"type":"Feature","geometry":{"type":"Point","coordinates":[-5.034382764999975,7.698620592000054]},"properties":{"id":131128,"nom":"UNIVERSITE ALASSANE OUATTARA","type":"ets superieur","district_region":null,"departement_commune":null,"verifie":true,"name":"UNIVERSITE ALASSANE OUATTARA","source":"Géoportail ANSTAT"}},{"type":"Feature","geometry":{"type":"Point","coordinates":[-5.034382764999975,7.698620592000054]},"properties":{"id":131129,"nom":"ESCT","type":"ets superieur","district_region":null,"departement_commune":null,"verifie":true,"name":"ESCT","source":"Géoportail ANSTAT"}},{"type":"Feature","geometry":{"type":"Point","coordinates":[-5.034382764999975,7.698620592000054]},"properties":{"id":131130,"nom":"UNIVERSITE DE L ATLANTIQUE","type":"ets superieur","district_region":null,"departement_commune":null,"verifie":true,"name":"UNIVERSITE DE L ATLANTIQUE","source":"Géoportail ANSTAT"}},{"type":"Feature","geometry":{"type":"Point","coordinates":[-5.034382764999975,7.698620592000054]},"properties":{"id":131131,"nom":"UNIVERSITE ALLASANE OUATTARA","type":"ets superieur","district_region":null,"departement_commune":null,"verifie":true,"name":"UNIVERSITE ALLASANE OUATTARA","source":"Géoportail ANSTAT"}},{"type":"Feature","geometry":{"type":"Point","coordinates":[-5.034382764999975,7.698620592000054]},"properties":{"id":131132,"nom":"UNIVERSITE ALASSANE OUATTARA UFR SCIENCE MEDICALE","type":"ets superieur","district_region":null,"departement_commune":null,"verifie":true,"name":"UNIVERSITE ALASSANE OUATTARA UFR SCIENCE MEDICALE","source":"Géoportail ANSTAT"}},{"type":"Feature","geometry":{"type":"Point","coordinates":[-5.63852105999996,9.45234679300006]},"properties":{"id":131133,"nom":"UNIVERSITE PEREFOLO GON DE KORHOGO","type":"ets superieur","district_region":null,"departement_commune":null,"verifie":true,"name":"UNIVERSITE PEREFOLO GON DE KORHOGO","source":"Géoportail ANSTAT"}},{"type":"Feature","geometry":{"type":"Point","coordinates":[-4.025244470999951,5.32506233600003]},"properties":{"id":131134,"nom":"CAFOP D’ABIDJAN","type":"ets superieur","district_region":null,"departement_commune":null,"verifie":true,"name":"CAFOP D’ABIDJAN","source":"Géoportail ANSTAT"}},{"type":"Feature","geometry":{"type":"Point","coordinates":[-3.189004815999965,5.473632860000066]},"properties":{"id":131135,"nom":"CAFOP D’ABOISSO","type":"ets superieur","district_region":null,"departement_commune":null,"verifie":true,"name":"CAFOP D’ABOISSO","source":"Géoportail ANSTAT"}},{"type":"Feature","geometry":{"type":"Point","coordinates":[-3.745319547999941,5.216612086000055]},"properties":{"id":131136,"nom":"CAFOP DE BASSAM","type":"ets superieur","district_region":null,"departement_commune":null,"verifie":true,"name":"CAFOP DE BASSAM","source":"Géoportail ANSTAT"}},{"type":"Feature","geometry":{"type":"Point","coordinates":[-4.365960362999942,5.325458980000064]},"properties":{"id":131137,"nom":"CAFOP DE DABOU","type":"ets superieur","district_region":null,"departement_commune":null,"verifie":true,"name":"CAFOP DE DABOU","source":"Géoportail ANSTAT"}},{"type":"Feature","geometry":{"type":"Point","coordinates":[-3.494950991999929,6.744075674000044]},"properties":{"id":131138,"nom":"CAFOP D’ABENGOUROU","type":"ets superieur","district_region":null,"departement_commune":null,"verifie":true,"name":"CAFOP D’ABENGOUROU","source":"Géoportail ANSTAT"}},{"type":"Feature","geometry":{"type":"Point","coordinates":[-5.916945215999931,6.106674399000042]},"properties":{"id":131139,"nom":"CAFOP DE GAGNOA","type":"ets superieur","district_region":null,"departement_commune":null,"verifie":true,"name":"CAFOP DE GAGNOA","source":"Géoportail ANSTAT"}},{"type":"Feature","geometry":{"type":"Point","coordinates":[-6.458412320999969,6.891097014000025]},"properties":{"id":131140,"nom":"CAFOP DE DALOA","type":"ets superieur","district_region":null,"departement_commune":null,"verifie":true,"name":"CAFOP DE DALOA","source":"Géoportail ANSTAT"}},{"type":"Feature","geometry":{"type":"Point","coordinates":[-6.637482592999959,4.814514527000028]},"properties":{"id":131141,"nom":"CAFOP DE SAN-PEDRO","type":"ets superieur","district_region":null,"departement_commune":null,"verifie":true,"name":"CAFOP DE SAN-PEDRO","source":"Géoportail ANSTAT"}},{"type":"Feature","geometry":{"type":"Point","coordinates":[-7.557068891999961,7.394910287000073]},"properties":{"id":131142,"nom":"CAFOP DE MAN","type":"ets superieur","district_region":null,"departement_commune":null,"verifie":true,"name":"CAFOP DE MAN","source":"Géoportail ANSTAT"}},{"type":"Feature","geometry":{"type":"Point","coordinates":[-7.549841959999981,9.499069505000024]},"properties":{"id":131143,"nom":"CAFOP D’ODIENNE","type":"ets superieur","district_region":null,"departement_commune":null,"verifie":true,"name":"CAFOP D’ODIENNE","source":"Géoportail ANSTAT"}},{"type":"Feature","geometry":{"type":"Point","coordinates":[-5.639888310999936,9.452061325000043]},"properties":{"id":131144,"nom":"CAFOP DE KOROGHO","type":"ets superieur","district_region":null,"departement_commune":null,"verifie":true,"name":"CAFOP DE KOROGHO","source":"Géoportail ANSTAT"}},{"type":"Feature","geometry":{"type":"Point","coordinates":[-5.092261004999955,8.110358701000052]},"properties":{"id":131145,"nom":"CAFOP DE KATIOLA","type":"ets superieur","district_region":null,"departement_commune":null,"verifie":true,"name":"CAFOP DE KATIOLA","source":"Géoportail ANSTAT"}},{"type":"Feature","geometry":{"type":"Point","coordinates":[-2.813140681999926,8.058915368000044]},"properties":{"id":131146,"nom":"CAFOP DE BONDOUKOU","type":"ets superieur","district_region":null,"departement_commune":null,"verifie":true,"name":"CAFOP DE BONDOUKOU","source":"Géoportail ANSTAT"}},{"type":"Feature","geometry":{"type":"Point","coordinates":[-5.279754529999934,6.862106219000054]},"properties":{"id":131147,"nom":"CAFOP DE YAMOUSSOUKRO","type":"ets superieur","district_region":null,"departement_commune":null,"verifie":true,"name":"CAFOP DE YAMOUSSOUKRO","source":"Géoportail ANSTAT"}},{"type":"Feature","geometry":{"type":"Point","coordinates":[-5.033076231999928,7.702211917000056]},"properties":{"id":131148,"nom":"CAFOP DE BOUAKE","type":"ets superieur","district_region":null,"departement_commune":null,"verifie":true,"name":"CAFOP DE BOUAKE","source":"Géoportail ANSTAT"}},{"type":"Feature","geometry":{"type":"Point","coordinates":[-5.033261846999949,7.679935216000047]},"properties":{"id":131149,"nom":"CAFOP ENI BOUAKE 2","type":"ets superieur","district_region":null,"departement_commune":null,"verifie":true,"name":"CAFOP ENI BOUAKE 2","source":"Géoportail ANSTAT"}},{"type":"Feature","geometry":{"type":"Point","coordinates":[-3.985161804999962,5.34176016400005]},"properties":{"id":131150,"nom":"ECOLE NORMALE SUPERIEURE (ENS)","type":"ets superieur","district_region":null,"departement_commune":null,"verifie":true,"name":"ECOLE NORMALE SUPERIEURE (ENS)","source":"Géoportail ANSTAT"}},{"type":"Feature","geometry":{"type":"Point","coordinates":[-3.981214876999957,5.308974110000065]},"properties":{"id":131151,"nom":"INJS MARCORY -INSTITUT NATIONAL DE LA JEUNESSE ET DES SPORTS","type":"ets superieur","district_region":null,"departement_commune":null,"verifie":true,"name":"INJS MARCORY -INSTITUT NATIONAL DE LA JEUNESSE ET DES SPORTS","source":"Géoportail ANSTAT"}}],"metadata":{"dataset":"Ets superieur — ANSTAT","source":"Géoportail ANSTAT","theme":"Éducation","verified":true,"apercu":"complet"}}