{"type":"FeatureCollection","features":[{"type":"Feature","geometry":{"type":"Point","coordinates":[-5.753135999999927,5.652974000000029]},"properties":{"id":36550,"nom":"CHATEAUX","type":"poste  eaux foret","district_region":null,"departement_commune":null,"verifie":true,"name":"CHATEAUX","source":"Géoportail ANSTAT"}},{"type":"Feature","geometry":{"type":"Point","coordinates":[-6.631258999999943,4.75096300000007]},"properties":{"id":36910,"nom":"EAUX ET FORETS","type":"poste  eaux foret","district_region":null,"departement_commune":null,"verifie":true,"name":"EAUX ET FORETS","source":"Géoportail ANSTAT"}},{"type":"Feature","geometry":{"type":"Point","coordinates":[-7.353296999999941,4.419603000000052]},"properties":{"id":36913,"nom":"EAUX ET FORET","type":"poste  eaux foret","district_region":null,"departement_commune":null,"verifie":true,"name":"EAUX ET FORET","source":"Géoportail ANSTAT"}},{"type":"Feature","geometry":{"type":"Point","coordinates":[-7.343351999999925,6.74179300000003]},"properties":{"id":36916,"nom":"EAUX ET FORET DE DUEKOUE","type":"poste  eaux foret","district_region":null,"departement_commune":null,"verifie":true,"name":"EAUX ET FORET DE DUEKOUE","source":"Géoportail ANSTAT"}},{"type":"Feature","geometry":{"type":"Point","coordinates":[-4.79679299999998,5.295859000000064]},"properties":{"id":36918,"nom":"EAUX FORETS IROBO","type":"poste  eaux foret","district_region":null,"departement_commune":null,"verifie":true,"name":"EAUX FORETS IROBO","source":"Géoportail ANSTAT"}},{"type":"Feature","geometry":{"type":"Point","coordinates":[-6.28774999999996,6.293117000000052]},"properties":{"id":36919,"nom":"EAUX ET FORETS","type":"poste  eaux foret","district_region":null,"departement_commune":null,"verifie":true,"name":"EAUX ET FORETS","source":"Géoportail ANSTAT"}},{"type":"Feature","geometry":{"type":"Point","coordinates":[-5.112404999999967,6.469384000000048]},"properties":{"id":36920,"nom":"EAUX ET FORETS","type":"poste  eaux foret","district_region":null,"departement_commune":null,"verifie":true,"name":"EAUX ET FORETS","source":"Géoportail ANSTAT"}},{"type":"Feature","geometry":{"type":"Point","coordinates":[-2.960169999999948,8.289590000000032]},"properties":{"id":36922,"nom":"EAUX ET FORETS","type":"poste  eaux foret","district_region":null,"departement_commune":null,"verifie":true,"name":"EAUX ET FORETS","source":"Géoportail ANSTAT"}},{"type":"Feature","geometry":{"type":"Point","coordinates":[-5.757515999999953,6.994038000000046]},"properties":{"id":36923,"nom":"EAUX ET FORETS","type":"poste  eaux foret","district_region":null,"departement_commune":null,"verifie":true,"name":"EAUX ET FORETS","source":"Géoportail ANSTAT"}},{"type":"Feature","geometry":{"type":"Point","coordinates":[-6.04906399999993,7.429081000000053]},"properties":{"id":36924,"nom":"EAUX ET FORETS","type":"poste  eaux foret","district_region":null,"departement_commune":null,"verifie":true,"name":"EAUX ET FORETS","source":"Géoportail ANSTAT"}},{"type":"Feature","geometry":{"type":"Point","coordinates":[-6.270236999999952,6.484267000000045]},"properties":{"id":36926,"nom":"EAUX ET FORETS DE SAIOUA","type":"poste  eaux foret","district_region":null,"departement_commune":null,"verifie":true,"name":"EAUX ET FORETS DE SAIOUA","source":"Géoportail ANSTAT"}},{"type":"Feature","geometry":{"type":"Point","coordinates":[-3.15798499999994,5.607264000000043]},"properties":{"id":36932,"nom":"EAUX ET FORETS","type":"poste  eaux foret","district_region":null,"departement_commune":null,"verifie":true,"name":"EAUX ET FORETS","source":"Géoportail ANSTAT"}},{"type":"Feature","geometry":{"type":"Point","coordinates":[-7.551699999999926,7.115805000000023]},"properties":{"id":36935,"nom":"EAUX ET FORET","type":"poste  eaux foret","district_region":null,"departement_commune":null,"verifie":true,"name":"EAUX ET FORET","source":"Géoportail ANSTAT"}},{"type":"Feature","geometry":{"type":"Point","coordinates":[-7.937927999999943,7.224610000000041]},"properties":{"id":36936,"nom":"EAUX ET FORETS CI","type":"poste  eaux foret","district_region":null,"departement_commune":null,"verifie":true,"name":"EAUX ET FORETS CI","source":"Géoportail ANSTAT"}},{"type":"Feature","geometry":{"type":"Point","coordinates":[-4.335778999999945,7.447027000000048]},"properties":{"id":36937,"nom":"EAUX ET FORET","type":"poste  eaux foret","district_region":null,"departement_commune":null,"verifie":true,"name":"EAUX ET FORET","source":"Géoportail ANSTAT"}},{"type":"Feature","geometry":{"type":"Point","coordinates":[-4.256937999999934,7.282502000000022]},"properties":{"id":36938,"nom":"EAUX ET FORETS","type":"poste  eaux foret","district_region":null,"departement_commune":null,"verifie":true,"name":"EAUX ET FORETS","source":"Géoportail ANSTAT"}},{"type":"Feature","geometry":{"type":"Point","coordinates":[-5.588889999999935,9.29530600000004]},"properties":{"id":38408,"nom":"POSTE DES EAUX ET FORETS DE NAPIE","type":"poste  eaux foret","district_region":null,"departement_commune":null,"verifie":true,"name":"POSTE DES EAUX ET FORETS DE NAPIE","source":"Géoportail ANSTAT"}},{"type":"Feature","geometry":{"type":"Point","coordinates":[-6.481591999999978,5.343142000000057]},"properties":{"id":38409,"nom":"POSTE EAUX ET FORETS","type":"poste  eaux foret","district_region":null,"departement_commune":null,"verifie":true,"name":"POSTE EAUX ET FORETS","source":"Géoportail ANSTAT"}},{"type":"Feature","geometry":{"type":"Point","coordinates":[-6.358146999999974,5.997130000000027]},"properties":{"id":38410,"nom":"POSTE FORESTIER DE LILIYO","type":"poste  eaux foret","district_region":null,"departement_commune":null,"verifie":true,"name":"POSTE FORESTIER DE LILIYO","source":"Géoportail ANSTAT"}},{"type":"Feature","geometry":{"type":"Point","coordinates":[-6.038544999999942,5.546691000000067]},"properties":{"id":38417,"nom":"POSTE DES EAUX ET FORETS","type":"poste  eaux foret","district_region":null,"departement_commune":null,"verifie":true,"name":"POSTE DES EAUX ET FORETS","source":"Géoportail ANSTAT"}},{"type":"Feature","geometry":{"type":"Point","coordinates":[-4.363801999999964,6.475854000000027]},"properties":{"id":38420,"nom":"POSTE DE EAUX ET FORET","type":"poste  eaux foret","district_region":null,"departement_commune":null,"verifie":true,"name":"POSTE DE EAUX ET FORET","source":"Géoportail ANSTAT"}},{"type":"Feature","geometry":{"type":"Point","coordinates":[-4.121467999999936,6.688451000000043]},"properties":{"id":38422,"nom":"POSTE FORESTIER KOTOBI","type":"poste  eaux foret","district_region":null,"departement_commune":null,"verifie":true,"name":"POSTE FORESTIER KOTOBI","source":"Géoportail ANSTAT"}},{"type":"Feature","geometry":{"type":"Point","coordinates":[-4.300560999999959,6.635064000000057]},"properties":{"id":38424,"nom":"POSTE DES EAUX ET FORETS DE N GUESSANKRO","type":"poste  eaux foret","district_region":null,"departement_commune":null,"verifie":true,"name":"POSTE DES EAUX ET FORETS DE N GUESSANKRO","source":"Géoportail ANSTAT"}},{"type":"Feature","geometry":{"type":"Point","coordinates":[-4.624424999999974,6.492111000000023]},"properties":{"id":38428,"nom":"POSTE FORESTIER DE TIEMELEKRO","type":"poste  eaux foret","district_region":null,"departement_commune":null,"verifie":true,"name":"POSTE FORESTIER DE TIEMELEKRO","source":"Géoportail ANSTAT"}},{"type":"Feature","geometry":{"type":"Point","coordinates":[-7.121489999999937,6.739330000000052]},"properties":{"id":38430,"nom":"POSTE DE EAUX ET FORETS DE GUEZON","type":"poste  eaux foret","district_region":null,"departement_commune":null,"verifie":true,"name":"POSTE DE EAUX ET FORETS DE GUEZON","source":"Géoportail ANSTAT"}},{"type":"Feature","geometry":{"type":"Point","coordinates":[-7.162782999999934,6.478864000000044]},"properties":{"id":38432,"nom":"POSTE FORESTIER","type":"poste  eaux foret","district_region":null,"departement_commune":null,"verifie":true,"name":"POSTE FORESTIER","source":"Géoportail ANSTAT"}},{"type":"Feature","geometry":{"type":"Point","coordinates":[-4.880661999999973,5.640492000000052]},"properties":{"id":38436,"nom":"POSTE DES EAUX ET FORETS DE BACANDA","type":"poste  eaux foret","district_region":null,"departement_commune":null,"verifie":true,"name":"POSTE DES EAUX ET FORETS DE BACANDA","source":"Géoportail ANSTAT"}},{"type":"Feature","geometry":{"type":"Point","coordinates":[-6.292753999999945,6.005200000000059]},"properties":{"id":38445,"nom":"POSTE DES EAUX ET FORETS GALEBRE","type":"poste  eaux foret","district_region":null,"departement_commune":null,"verifie":true,"name":"POSTE DES EAUX ET FORETS GALEBRE","source":"Géoportail ANSTAT"}},{"type":"Feature","geometry":{"type":"Point","coordinates":[-5.961697999999956,6.465434000000073]},"properties":{"id":38446,"nom":"POSTE DES EAUX ET FORETS DE BAYOTA","type":"poste  eaux foret","district_region":null,"departement_commune":null,"verifie":true,"name":"POSTE DES EAUX ET FORETS DE BAYOTA","source":"Géoportail ANSTAT"}},{"type":"Feature","geometry":{"type":"Point","coordinates":[-5.209760999999958,6.543305000000032]},"properties":{"id":38452,"nom":"POSTE DE CONTROLE GENDARMERIE POLICE EAUX ET FORETS","type":"poste  eaux foret","district_region":null,"departement_commune":null,"verifie":true,"name":"POSTE DE CONTROLE GENDARMERIE POLICE EAUX ET FORETS","source":"Géoportail ANSTAT"}},{"type":"Feature","geometry":{"type":"Point","coordinates":[-2.873552999999959,7.898405000000025]},"properties":{"id":38455,"nom":"POSTE DES EAUX ET FORETS DAPPIMADOUM","type":"poste  eaux foret","district_region":null,"departement_commune":null,"verifie":true,"name":"POSTE DES EAUX ET FORETS DAPPIMADOUM","source":"Géoportail ANSTAT"}},{"type":"Feature","geometry":{"type":"Point","coordinates":[-3.685604999999953,8.115002000000061]},"properties":{"id":38457,"nom":"POSTE DES EAUX ET FORETS DE YOROBODI","type":"poste  eaux foret","district_region":null,"departement_commune":null,"verifie":true,"name":"POSTE DES EAUX ET FORETS DE YOROBODI","source":"Géoportail ANSTAT"}},{"type":"Feature","geometry":{"type":"Point","coordinates":[-2.708917999999926,8.171824000000072]},"properties":{"id":38459,"nom":"POSTE FORESTIER DE SOROBANGO","type":"poste  eaux foret","district_region":null,"departement_commune":null,"verifie":true,"name":"POSTE FORESTIER DE SOROBANGO","source":"Géoportail ANSTAT"}},{"type":"Feature","geometry":{"type":"Point","coordinates":[-3.138190999999949,7.171309000000065]},"properties":{"id":38460,"nom":"POSTE FORESTIER","type":"poste  eaux foret","district_region":null,"departement_commune":null,"verifie":true,"name":"POSTE FORESTIER","source":"Géoportail ANSTAT"}},{"type":"Feature","geometry":{"type":"Point","coordinates":[-2.97413199999994,7.704139000000055]},"properties":{"id":38471,"nom":"POSTE DES EAUX ET FORETS D ASSUEFRY","type":"poste  eaux foret","district_region":null,"departement_commune":null,"verifie":true,"name":"POSTE DES EAUX ET FORETS D ASSUEFRY","source":"Géoportail ANSTAT"}},{"type":"Feature","geometry":{"type":"Point","coordinates":[-6.927146999999934,7.982431000000076]},"properties":{"id":38472,"nom":"POSTE FORESTIER DE SIFIE","type":"poste  eaux foret","district_region":null,"departement_commune":null,"verifie":true,"name":"POSTE FORESTIER DE SIFIE","source":"Géoportail ANSTAT"}},{"type":"Feature","geometry":{"type":"Point","coordinates":[-6.443316999999979,7.899363000000051]},"properties":{"id":38474,"nom":"POSTE FORETIER DE MASSALA","type":"poste  eaux foret","district_region":null,"departement_commune":null,"verifie":true,"name":"POSTE FORETIER DE MASSALA","source":"Géoportail ANSTAT"}},{"type":"Feature","geometry":{"type":"Point","coordinates":[-6.037735999999938,6.928335000000061]},"properties":{"id":38476,"nom":"POSTE DES EAUX ET FORETS DE BONON","type":"poste  eaux foret","district_region":null,"departement_commune":null,"verifie":true,"name":"POSTE DES EAUX ET FORETS DE BONON","source":"Géoportail ANSTAT"}},{"type":"Feature","geometry":{"type":"Point","coordinates":[-5.608398999999963,6.64887600000003]},"properties":{"id":38478,"nom":"POSTE FORESTIER DE KONONFLA","type":"poste  eaux foret","district_region":null,"departement_commune":null,"verifie":true,"name":"POSTE FORESTIER DE KONONFLA","source":"Géoportail ANSTAT"}},{"type":"Feature","geometry":{"type":"Point","coordinates":[-5.071809999999971,7.513563000000033]},"properties":{"id":38485,"nom":"POSTE EAUX ET FORETS DJEBONOUA","type":"poste  eaux foret","district_region":null,"departement_commune":null,"verifie":true,"name":"POSTE EAUX ET FORETS DJEBONOUA","source":"Géoportail ANSTAT"}},{"type":"Feature","geometry":{"type":"Point","coordinates":[-5.598443999999972,7.381735000000049]},"properties":{"id":38487,"nom":"POSTE FORESTIER","type":"poste  eaux foret","district_region":null,"departement_commune":null,"verifie":true,"name":"POSTE FORESTIER","source":"Géoportail ANSTAT"}},{"type":"Feature","geometry":{"type":"Point","coordinates":[-3.173335999999949,9.023326000000054]},"properties":{"id":38493,"nom":"POSTE FORESTIER DE BANIA","type":"poste  eaux foret","district_region":null,"departement_commune":null,"verifie":true,"name":"POSTE FORESTIER DE BANIA","source":"Géoportail ANSTAT"}},{"type":"Feature","geometry":{"type":"Point","coordinates":[-3.91451799999993,8.623573000000022]},"properties":{"id":38496,"nom":"POSTE FORESTIER DE GANSE","type":"poste  eaux foret","district_region":null,"departement_commune":null,"verifie":true,"name":"POSTE FORESTIER DE GANSE","source":"Géoportail ANSTAT"}},{"type":"Feature","geometry":{"type":"Point","coordinates":[-4.143280999999945,9.76762800000006]},"properties":{"id":38497,"nom":"POSTE FORESTIER","type":"poste  eaux foret","district_region":null,"departement_commune":null,"verifie":true,"name":"POSTE FORESTIER","source":"Géoportail ANSTAT"}},{"type":"Feature","geometry":{"type":"Point","coordinates":[-3.46996299999995,8.454273000000057]},"properties":{"id":38499,"nom":"POSTE FORESTIER DE NASSIAN","type":"poste  eaux foret","district_region":null,"departement_commune":null,"verifie":true,"name":"POSTE FORESTIER DE NASSIAN","source":"Géoportail ANSTAT"}},{"type":"Feature","geometry":{"type":"Point","coordinates":[-4.50268699999998,7.063215000000071]},"properties":{"id":38502,"nom":"POSTE EAUX ET FORETS","type":"poste  eaux foret","district_region":null,"departement_commune":null,"verifie":true,"name":"POSTE EAUX ET FORETS","source":"Géoportail ANSTAT"}},{"type":"Feature","geometry":{"type":"Point","coordinates":[-6.993362999999931,7.445366000000035]},"properties":{"id":38510,"nom":"POSTE EAUX ET FORET DE VAOU","type":"poste  eaux foret","district_region":null,"departement_commune":null,"verifie":true,"name":"POSTE EAUX ET FORET DE VAOU","source":"Géoportail ANSTAT"}},{"type":"Feature","geometry":{"type":"Point","coordinates":[-6.304673999999977,7.168911000000037]},"properties":{"id":38516,"nom":"POSTE EAUX ET FORETS BEDIALA","type":"poste  eaux foret","district_region":null,"departement_commune":null,"verifie":true,"name":"POSTE EAUX ET FORETS BEDIALA","source":"Géoportail ANSTAT"}},{"type":"Feature","geometry":{"type":"Point","coordinates":[-4.935438999999974,6.168628000000069]},"properties":{"id":38521,"nom":"POSTE EAUX ET FORETS","type":"poste  eaux foret","district_region":null,"departement_commune":null,"verifie":true,"name":"POSTE EAUX ET FORETS","source":"Géoportail ANSTAT"}},{"type":"Feature","geometry":{"type":"Point","coordinates":[-4.772234999999966,5.870605000000069]},"properties":{"id":38522,"nom":"POSTE DES EAUX ET FORETS DE N DOUCI","type":"poste  eaux foret","district_region":null,"departement_commune":null,"verifie":true,"name":"POSTE DES EAUX ET FORETS DE N DOUCI","source":"Géoportail ANSTAT"}},{"type":"Feature","geometry":{"type":"Point","coordinates":[-4.445218999999952,5.725912000000051]},"properties":{"id":38523,"nom":"POSTE FORESTIER DE GOMON","type":"poste  eaux foret","district_region":null,"departement_commune":null,"verifie":true,"name":"POSTE FORESTIER DE GOMON","source":"Géoportail ANSTAT"}},{"type":"Feature","geometry":{"type":"Point","coordinates":[-4.822419999999966,5.897079000000076]},"properties":{"id":38524,"nom":"POSTE FORESTIER DE TIASSALE","type":"poste  eaux foret","district_region":null,"departement_commune":null,"verifie":true,"name":"POSTE FORESTIER DE TIASSALE","source":"Géoportail ANSTAT"}},{"type":"Feature","geometry":{"type":"Point","coordinates":[-4.144894999999963,5.799293000000034]},"properties":{"id":38527,"nom":"POSTE FORESTIER DE YAPO","type":"poste  eaux foret","district_region":null,"departement_commune":null,"verifie":true,"name":"POSTE FORESTIER DE YAPO","source":"Géoportail ANSTAT"}},{"type":"Feature","geometry":{"type":"Point","coordinates":[-4.317655999999943,6.073041000000046]},"properties":{"id":38529,"nom":"POSTE FORESTIER DE RUBINO","type":"poste  eaux foret","district_region":null,"departement_commune":null,"verifie":true,"name":"POSTE FORESTIER DE RUBINO","source":"Géoportail ANSTAT"}},{"type":"Feature","geometry":{"type":"Point","coordinates":[-4.07108599999998,5.644507000000033]},"properties":{"id":38530,"nom":"POSTE DES EAUX ET FORETS D AZAGUIE","type":"poste  eaux foret","district_region":null,"departement_commune":null,"verifie":true,"name":"POSTE DES EAUX ET FORETS D AZAGUIE","source":"Géoportail ANSTAT"}},{"type":"Feature","geometry":{"type":"Point","coordinates":[-7.664109999999937,8.301135000000045]},"properties":{"id":38531,"nom":"POSTE DE GENDARMERIE   POLICE   EAUX ET FORET   DOUANE","type":"poste  eaux foret","district_region":null,"departement_commune":null,"verifie":true,"name":"POSTE DE GENDARMERIE   POLICE   EAUX ET FORET   DOUANE","source":"Géoportail ANSTAT"}},{"type":"Feature","geometry":{"type":"Point","coordinates":[-7.86002899999994,8.240466000000026]},"properties":{"id":38533,"nom":"POSTE EAUX ET FORET","type":"poste  eaux foret","district_region":null,"departement_commune":null,"verifie":true,"name":"POSTE EAUX ET FORET","source":"Géoportail ANSTAT"}},{"type":"Feature","geometry":{"type":"Point","coordinates":[-7.461607999999956,8.557229000000063]},"properties":{"id":38537,"nom":"POSTE DES EAUX ET FORETS DE KORO","type":"poste  eaux foret","district_region":null,"departement_commune":null,"verifie":true,"name":"POSTE DES EAUX ET FORETS DE KORO","source":"Géoportail ANSTAT"}},{"type":"Feature","geometry":{"type":"Point","coordinates":[-7.314011999999934,8.288873000000024]},"properties":{"id":38538,"nom":"POSTE EAUX ET FORET","type":"poste  eaux foret","district_region":null,"departement_commune":null,"verifie":true,"name":"POSTE EAUX ET FORET","source":"Géoportail ANSTAT"}},{"type":"Feature","geometry":{"type":"Point","coordinates":[-7.676600999999948,7.946626000000037]},"properties":{"id":38539,"nom":"POSTE EAUX ET FORETS","type":"poste  eaux foret","district_region":null,"departement_commune":null,"verifie":true,"name":"POSTE EAUX ET FORETS","source":"Géoportail ANSTAT"}},{"type":"Feature","geometry":{"type":"Point","coordinates":[-7.676595999999961,7.946672000000035]},"properties":{"id":38540,"nom":"POSTE EAUX ET FORETS","type":"poste  eaux foret","district_region":null,"departement_commune":null,"verifie":true,"name":"POSTE EAUX ET FORETS","source":"Géoportail ANSTAT"}},{"type":"Feature","geometry":{"type":"Point","coordinates":[-5.70276999999993,6.06588400000004]},"properties":{"id":38541,"nom":"POSTE DE EAUX ET FORET DE ZIKISSO","type":"poste  eaux foret","district_region":null,"departement_commune":null,"verifie":true,"name":"POSTE DE EAUX ET FORET DE ZIKISSO","source":"Géoportail ANSTAT"}},{"type":"Feature","geometry":{"type":"Point","coordinates":[-5.702762999999948,6.065875000000062]},"properties":{"id":38542,"nom":"POSTE DES EAUX ET FORET","type":"poste  eaux foret","district_region":null,"departement_commune":null,"verifie":true,"name":"POSTE DES EAUX ET FORET","source":"Géoportail ANSTAT"}},{"type":"Feature","geometry":{"type":"Point","coordinates":[-5.755837999999926,5.651777000000038]},"properties":{"id":38543,"nom":"POSTE DES EAUX ET FORETS DE NIAMBEZARIA","type":"poste  eaux foret","district_region":null,"departement_commune":null,"verifie":true,"name":"POSTE DES EAUX ET FORETS DE NIAMBEZARIA","source":"Géoportail ANSTAT"}},{"type":"Feature","geometry":{"type":"Point","coordinates":[-5.297148999999933,6.188083000000063]},"properties":{"id":38544,"nom":"POSTE DES EAUX ET FORETS DE HIRE","type":"poste  eaux foret","district_region":null,"departement_commune":null,"verifie":true,"name":"POSTE DES EAUX ET FORETS DE HIRE","source":"Géoportail ANSTAT"}},{"type":"Feature","geometry":{"type":"Point","coordinates":[-5.107975999999951,5.270504000000074]},"properties":{"id":38545,"nom":"POSTE DES EAUX ET FORET DE YOCOBOUE","type":"poste  eaux foret","district_region":null,"departement_commune":null,"verifie":true,"name":"POSTE DES EAUX ET FORET DE YOCOBOUE","source":"Géoportail ANSTAT"}},{"type":"Feature","geometry":{"type":"Point","coordinates":[-6.233106999999961,10.35735400000004]},"properties":{"id":38552,"nom":"POSTE EAUX ET FORETS DE KANAKONO","type":"poste  eaux foret","district_region":null,"departement_commune":null,"verifie":true,"name":"POSTE EAUX ET FORETS DE KANAKONO","source":"Géoportail ANSTAT"}},{"type":"Feature","geometry":{"type":"Point","coordinates":[-6.168184999999937,8.414461000000074]},"properties":{"id":38554,"nom":"POSTE DES EAU ET FORET","type":"poste  eaux foret","district_region":null,"departement_commune":null,"verifie":true,"name":"POSTE DES EAU ET FORET","source":"Géoportail ANSTAT"}},{"type":"Feature","geometry":{"type":"Point","coordinates":[-6.253731999999957,8.952764000000059]},"properties":{"id":38557,"nom":"POSTE FORESTIER DE DIANRA","type":"poste  eaux foret","district_region":null,"departement_commune":null,"verifie":true,"name":"POSTE FORESTIER DE DIANRA","source":"Géoportail ANSTAT"}},{"type":"Feature","geometry":{"type":"Point","coordinates":[-3.355192999999929,6.174950000000024]},"properties":{"id":38567,"nom":"POSTE DES EAUX FORETS DE AKA COMOEKRO","type":"poste  eaux foret","district_region":null,"departement_commune":null,"verifie":true,"name":"POSTE DES EAUX FORETS DE AKA COMOEKRO","source":"Géoportail ANSTAT"}},{"type":"Feature","geometry":{"type":"Point","coordinates":[-6.941178999999977,9.611655000000042]},"properties":{"id":38571,"nom":"POSTE DES EAUX ET FORETS","type":"poste  eaux foret","district_region":null,"departement_commune":null,"verifie":true,"name":"POSTE DES EAUX ET FORETS","source":"Géoportail ANSTAT"}},{"type":"Feature","geometry":{"type":"Point","coordinates":[-7.240187999999932,8.979191000000071]},"properties":{"id":38574,"nom":"POSTE DES EAUX ET FORET","type":"poste  eaux foret","district_region":null,"departement_commune":null,"verifie":true,"name":"POSTE DES EAUX ET FORET","source":"Géoportail ANSTAT"}},{"type":"Feature","geometry":{"type":"Point","coordinates":[-7.240148999999974,8.979134000000045]},"properties":{"id":38575,"nom":"POSTE EAU ET FORETS","type":"poste  eaux foret","district_region":null,"departement_commune":null,"verifie":true,"name":"POSTE EAU ET FORETS","source":"Géoportail ANSTAT"}},{"type":"Feature","geometry":{"type":"Point","coordinates":[-7.612312999999972,9.140408000000036]},"properties":{"id":38576,"nom":"POSTE DES EAUX ET FORETS","type":"poste  eaux foret","district_region":null,"departement_commune":null,"verifie":true,"name":"POSTE DES EAUX ET FORETS","source":"Géoportail ANSTAT"}},{"type":"Feature","geometry":{"type":"Point","coordinates":[-3.293774999999926,5.135108000000059]},"properties":{"id":38584,"nom":"POSTE FORESTIER DE ASSINIE MAFIA","type":"poste  eaux foret","district_region":null,"departement_commune":null,"verifie":true,"name":"POSTE FORESTIER DE ASSINIE MAFIA","source":"Géoportail ANSTAT"}},{"type":"Feature","geometry":{"type":"Point","coordinates":[-3.195273999999927,6.020664000000068]},"properties":{"id":38596,"nom":"POSTE FORESTIER DE BIANOUAN","type":"poste  eaux foret","district_region":null,"departement_commune":null,"verifie":true,"name":"POSTE FORESTIER DE BIANOUAN","source":"Géoportail ANSTAT"}},{"type":"Feature","geometry":{"type":"Point","coordinates":[-5.172171999999932,9.063519000000042]},"properties":{"id":38598,"nom":"POSTE DES EAUX ET FORET DE TAFIRE","type":"poste  eaux foret","district_region":null,"departement_commune":null,"verifie":true,"name":"POSTE DES EAUX ET FORET DE TAFIRE","source":"Géoportail ANSTAT"}},{"type":"Feature","geometry":{"type":"Point","coordinates":[-5.68217599999997,8.764049000000057]},"properties":{"id":38600,"nom":"POSTE DES EAUX ET FORETS DE TORTIYA","type":"poste  eaux foret","district_region":null,"departement_commune":null,"verifie":true,"name":"POSTE DES EAUX ET FORETS DE TORTIYA","source":"Géoportail ANSTAT"}},{"type":"Feature","geometry":{"type":"Point","coordinates":[-4.715471999999977,8.374152000000038]},"properties":{"id":38602,"nom":"POSTE EAUX ET FORETS DE BONIEREDOUGOU","type":"poste  eaux foret","district_region":null,"departement_commune":null,"verifie":true,"name":"POSTE EAUX ET FORETS DE BONIEREDOUGOU","source":"Géoportail ANSTAT"}},{"type":"Feature","geometry":{"type":"Point","coordinates":[-7.155925999999965,7.806141000000025]},"properties":{"id":38612,"nom":"POSTE DES EAUX ET FORETS","type":"poste  eaux foret","district_region":null,"departement_commune":null,"verifie":true,"name":"POSTE DES EAUX ET FORETS","source":"Géoportail ANSTAT"}},{"type":"Feature","geometry":{"type":"Point","coordinates":[-3.761368999999945,7.258159000000035]},"properties":{"id":38616,"nom":"POSTE FORESTIER ETTROKRO","type":"poste  eaux foret","district_region":null,"departement_commune":null,"verifie":true,"name":"POSTE FORESTIER ETTROKRO","source":"Géoportail ANSTAT"}}],"metadata":{"dataset":"Poste  eaux foret — ANSTAT","source":"Géoportail ANSTAT","theme":"Environnement & forêts","verified":true,"apercu":"complet"}}