{"type":"FeatureCollection","features":[{"type":"Feature","geometry":{"type":"Point","coordinates":[-5.085978999999952,7.991615000000024]},"properties":{"id":36053,"nom":"ANCIENNE GARE FERROVIAIRE DE TOURO","type":"gare ferroviaire","district_region":null,"departement_commune":null,"verifie":true,"name":"ANCIENNE GARE FERROVIAIRE DE TOURO","source":"Géoportail ANSTAT"}},{"type":"Feature","geometry":{"type":"Point","coordinates":[-4.685832999999946,7.016478000000063]},"properties":{"id":36080,"nom":"GARE DE TERRAIN YASSUIKRO","type":"gare ferroviaire","district_region":null,"departement_commune":null,"verifie":true,"name":"GARE DE TERRAIN YASSUIKRO","source":"Géoportail ANSTAT"}},{"type":"Feature","geometry":{"type":"Point","coordinates":[-4.706039999999973,6.645201000000043]},"properties":{"id":36950,"nom":"ENTREPOT SITARAIL","type":"gare ferroviaire","district_region":null,"departement_commune":null,"verifie":true,"name":"ENTREPOT SITARAIL","source":"Géoportail ANSTAT"}},{"type":"Feature","geometry":{"type":"Point","coordinates":[-4.524969999999939,6.317723000000058]},"properties":{"id":37048,"nom":"GARE DE TRAIN ANOUMABA","type":"gare ferroviaire","district_region":null,"departement_commune":null,"verifie":true,"name":"GARE DE TRAIN ANOUMABA","source":"Géoportail ANSTAT"}},{"type":"Feature","geometry":{"type":"Point","coordinates":[-4.622971999999947,6.492611000000068]},"properties":{"id":37059,"nom":"GARE FERROVIAIRE DE TIEMELEKRO","type":"gare ferroviaire","district_region":null,"departement_commune":null,"verifie":true,"name":"GARE FERROVIAIRE DE TIEMELEKRO","source":"Géoportail ANSTAT"}},{"type":"Feature","geometry":{"type":"Point","coordinates":[-4.815953999999977,7.23880900000006]},"properties":{"id":37098,"nom":"GARE SITARAIL","type":"gare ferroviaire","district_region":null,"departement_commune":null,"verifie":true,"name":"GARE SITARAIL","source":"Géoportail ANSTAT"}},{"type":"Feature","geometry":{"type":"Point","coordinates":[-5.075439999999958,7.820398000000068]},"properties":{"id":37148,"nom":"GARE DE BOMORO","type":"gare ferroviaire","district_region":null,"departement_commune":null,"verifie":true,"name":"GARE DE BOMORO","source":"Géoportail ANSTAT"}},{"type":"Feature","geometry":{"type":"Point","coordinates":[-4.961882999999943,7.569958000000042]},"properties":{"id":37149,"nom":"GARE SITARAIL DE AKPESSE","type":"gare ferroviaire","district_region":null,"departement_commune":null,"verifie":true,"name":"GARE SITARAIL DE AKPESSE","source":"Géoportail ANSTAT"}},{"type":"Feature","geometry":{"type":"Point","coordinates":[-4.412469999999928,6.238830000000064]},"properties":{"id":37197,"nom":"GARE FERROVIAIRE DE CECHI","type":"gare ferroviaire","district_region":null,"departement_commune":null,"verifie":true,"name":"GARE FERROVIAIRE DE CECHI","source":"Géoportail ANSTAT"}},{"type":"Feature","geometry":{"type":"Point","coordinates":[-4.302386999999953,6.070627000000059]},"properties":{"id":37203,"nom":"GARE SITARAIL RUBINO","type":"gare ferroviaire","district_region":null,"departement_commune":null,"verifie":true,"name":"GARE SITARAIL RUBINO","source":"Géoportail ANSTAT"}},{"type":"Feature","geometry":{"type":"Point","coordinates":[-4.086244999999963,5.629771000000062]},"properties":{"id":37204,"nom":"GARE FERROVIERE  D AZAGUIE","type":"gare ferroviaire","district_region":null,"departement_commune":null,"verifie":true,"name":"GARE FERROVIERE  D AZAGUIE","source":"Géoportail ANSTAT"}},{"type":"Feature","geometry":{"type":"Point","coordinates":[-5.130403999999942,8.679283000000055]},"properties":{"id":37275,"nom":"GARE DE LOHO","type":"gare ferroviaire","district_region":null,"departement_commune":null,"verifie":true,"name":"GARE DE LOHO","source":"Géoportail ANSTAT"}},{"type":"Feature","geometry":{"type":"Point","coordinates":[-5.221985999999958,9.37604200000004]},"properties":{"id":37278,"nom":"GARE FERROVIAIRE DE KOUROUKOUNA GARE","type":"gare ferroviaire","district_region":null,"departement_commune":null,"verifie":true,"name":"GARE FERROVIAIRE DE KOUROUKOUNA GARE","source":"Géoportail ANSTAT"}},{"type":"Feature","geometry":{"type":"Point","coordinates":[-5.174608999999975,9.063898000000052]},"properties":{"id":37279,"nom":"GARE DE TRAIN","type":"gare ferroviaire","district_region":null,"departement_commune":null,"verifie":true,"name":"GARE DE TRAIN","source":"Géoportail ANSTAT"}},{"type":"Feature","geometry":{"type":"Point","coordinates":[-5.107471999999973,8.139300000000048]},"properties":{"id":37282,"nom":"GARE DE TRAIN","type":"gare ferroviaire","district_region":null,"departement_commune":null,"verifie":true,"name":"GARE DE TRAIN","source":"Géoportail ANSTAT"}},{"type":"Feature","geometry":{"type":"Point","coordinates":[-5.35599099999996,5.853007000000048]},"properties":{"id":37463,"nom":"LA GARE D HIRE","type":"gare ferroviaire","district_region":null,"departement_commune":null,"verifie":true,"name":"LA GARE D HIRE","source":"Géoportail ANSTAT"}},{"type":"Feature","geometry":{"type":"Point","coordinates":[-5.164510999999948,8.80869400000006]},"properties":{"id":37897,"nom":"NIANBGO","type":"gare ferroviaire","district_region":null,"departement_commune":null,"verifie":true,"name":"NIANBGO","source":"Géoportail ANSTAT"}},{"type":"Feature","geometry":{"type":"Point","coordinates":[-3.315879999999936,5.141720000000021]},"properties":{"id":38306,"nom":"PARKING 18 ET DEMI","type":"gare ferroviaire","district_region":null,"departement_commune":null,"verifie":true,"name":"PARKING 18 ET DEMI","source":"Géoportail ANSTAT"}},{"type":"Feature","geometry":{"type":"Point","coordinates":[-5.066342999999961,7.740695000000073]},"properties":{"id":38486,"nom":"POMPIER DE LA SODEXAM AEROPORT","type":"gare ferroviaire","district_region":null,"departement_commune":null,"verifie":true,"name":"POMPIER DE LA SODEXAM AEROPORT","source":"Géoportail ANSTAT"}},{"type":"Feature","geometry":{"type":"Point","coordinates":[-5.940416999999968,6.133976000000075]},"properties":{"id":38780,"nom":"SODEXAM","type":"gare ferroviaire","district_region":null,"departement_commune":null,"verifie":true,"name":"SODEXAM","source":"Géoportail ANSTAT"}},{"type":"Feature","geometry":{"type":"Point","coordinates":[-5.030228999999963,7.684737000000041]},"properties":{"id":38803,"nom":"SITARAIL","type":"gare ferroviaire","district_region":null,"departement_commune":null,"verifie":true,"name":"SITARAIL","source":"Géoportail ANSTAT"}},{"type":"Feature","geometry":{"type":"Point","coordinates":[-4.141861999999946,5.799235000000067]},"properties":{"id":38826,"nom":"SITARAIL GARE FERROVIERE DE YAPO","type":"gare ferroviaire","district_region":null,"departement_commune":null,"verifie":true,"name":"SITARAIL GARE FERROVIERE DE YAPO","source":"Géoportail ANSTAT"}},{"type":"Feature","geometry":{"type":"Point","coordinates":[-4.217260999999951,5.928563000000054]},"properties":{"id":38830,"nom":"SITARAIL","type":"gare ferroviaire","district_region":null,"departement_commune":null,"verifie":true,"name":"SITARAIL","source":"Géoportail ANSTAT"}},{"type":"Feature","geometry":{"type":"Point","coordinates":[-4.70327599999996,6.647184000000038]},"properties":{"id":39160,"nom":"SODEXAM","type":"gare ferroviaire","district_region":null,"departement_commune":null,"verifie":true,"name":"SODEXAM","source":"Géoportail ANSTAT"}},{"type":"Feature","geometry":{"type":"Point","coordinates":[-3.298640999999975,5.284294000000045]},"properties":{"id":39164,"nom":"SODEXAM STATION METEOROLOGIQUE D ADIAKE","type":"gare ferroviaire","district_region":null,"departement_commune":null,"verifie":true,"name":"SODEXAM STATION METEOROLOGIQUE D ADIAKE","source":"Géoportail ANSTAT"}},{"type":"Feature","geometry":{"type":"Point","coordinates":[-3.920484999999928,5.32806400000004]},"properties":{"id":39855,"nom":"CITRANS","type":"gare ferroviaire","district_region":null,"departement_commune":null,"verifie":true,"name":"CITRANS","source":"Géoportail ANSTAT"}},{"type":"Feature","geometry":{"type":"Point","coordinates":[-4.016896999999972,5.30187600000005]},"properties":{"id":39964,"nom":"GARE DE TREICHVILLE DEBORD SITARAIL","type":"gare ferroviaire","district_region":null,"departement_commune":null,"verifie":true,"name":"GARE DE TREICHVILLE DEBORD SITARAIL","source":"Géoportail ANSTAT"}},{"type":"Feature","geometry":{"type":"Point","coordinates":[-4.013908999999956,5.30062700000002]},"properties":{"id":39965,"nom":"GARRE FERROVIERE TREICHVILLE","type":"gare ferroviaire","district_region":null,"departement_commune":null,"verifie":true,"name":"GARRE FERROVIERE TREICHVILLE","source":"Géoportail ANSTAT"}},{"type":"Feature","geometry":{"type":"Point","coordinates":[-4.000535999999954,5.273157000000026]},"properties":{"id":39981,"nom":"ENTREPOTS MALIENS EN COTE D IVOIRE","type":"gare ferroviaire","district_region":null,"departement_commune":null,"verifie":true,"name":"ENTREPOTS MALIENS EN COTE D IVOIRE","source":"Géoportail ANSTAT"}},{"type":"Feature","geometry":{"type":"Point","coordinates":[-4.00167799999997,5.272270000000049]},"properties":{"id":40383,"nom":"OFFICE IVOIRIEN DES CHARGEURS","type":"gare ferroviaire","district_region":null,"departement_commune":null,"verifie":true,"name":"OFFICE IVOIRIEN DES CHARGEURS","source":"Géoportail ANSTAT"}},{"type":"Feature","geometry":{"type":"Point","coordinates":[-4.021517999999958,5.412489000000051]},"properties":{"id":40415,"nom":"RAN","type":"gare ferroviaire","district_region":null,"departement_commune":null,"verifie":true,"name":"RAN","source":"Géoportail ANSTAT"}},{"type":"Feature","geometry":{"type":"Point","coordinates":[-4.028611999999953,5.357749000000069]},"properties":{"id":40514,"nom":"SITARAIL","type":"gare ferroviaire","district_region":null,"departement_commune":null,"verifie":true,"name":"SITARAIL","source":"Géoportail ANSTAT"}},{"type":"Feature","geometry":{"type":"Point","coordinates":[-4.025765999999976,5.327513000000067]},"properties":{"id":40536,"nom":"SITARAIL","type":"gare ferroviaire","district_region":null,"departement_commune":null,"verifie":true,"name":"SITARAIL","source":"Géoportail ANSTAT"}},{"type":"Feature","geometry":{"type":"Point","coordinates":[-4.000633999999934,5.253927000000033]},"properties":{"id":40579,"nom":"RAN VRIDI","type":"gare ferroviaire","district_region":null,"departement_commune":null,"verifie":true,"name":"RAN VRIDI","source":"Géoportail ANSTAT"}},{"type":"Feature","geometry":{"type":"Point","coordinates":[-3.935154999999952,5.257614000000046]},"properties":{"id":40585,"nom":"SODEXAM","type":"gare ferroviaire","district_region":null,"departement_commune":null,"verifie":true,"name":"SODEXAM","source":"Géoportail ANSTAT"}},{"type":"Feature","geometry":{"type":"Point","coordinates":[-3.935636999999929,5.250823000000025]},"properties":{"id":40586,"nom":"SODEXAM","type":"gare ferroviaire","district_region":null,"departement_commune":null,"verifie":true,"name":"SODEXAM","source":"Géoportail ANSTAT"}},{"type":"Feature","geometry":{"type":"Point","coordinates":[-4.892338399999971,7.394392500000038]},"properties":{"id":103349,"nom":"GARE DE RAVIART (SITARAIL)","type":"gare ferroviaire","district_region":null,"departement_commune":null,"verifie":true,"name":"GARE DE RAVIART (SITARAIL)","source":"Géoportail ANSTAT"}}],"metadata":{"dataset":"Gare ferroviaire — ANSTAT","source":"Géoportail ANSTAT","theme":"Transport & mobilité","verified":true,"apercu":"complet"}}