{"type":"FeatureCollection","features":[{"type":"Feature","geometry":{"type":"Point","coordinates":[-6.64740699999993,4.734506000000067]},"properties":{"id":37486,"nom":"LE TRIBUNAL","type":"juridiction 1er degre","district_region":null,"departement_commune":null,"verifie":true,"name":"LE TRIBUNAL","source":"Géoportail ANSTAT"}},{"type":"Feature","geometry":{"type":"Point","coordinates":[-6.646988999999962,4.760718000000054]},"properties":{"id":37903,"nom":"PALAIS DE JUSTICE DE SAN PEDRO","type":"juridiction 1er degre","district_region":null,"departement_commune":null,"verifie":true,"name":"PALAIS DE JUSTICE DE SAN PEDRO","source":"Géoportail ANSTAT"}},{"type":"Feature","geometry":{"type":"Point","coordinates":[-4.194773999999938,6.649939000000074]},"properties":{"id":37998,"nom":"PALAIS DE JUSTICE DE BONGOUANOU","type":"juridiction 1er degre","district_region":null,"departement_commune":null,"verifie":true,"name":"PALAIS DE JUSTICE DE BONGOUANOU","source":"Géoportail ANSTAT"}},{"type":"Feature","geometry":{"type":"Point","coordinates":[-4.370085999999958,5.324806000000024]},"properties":{"id":38050,"nom":"PALAIS DE JUSTICE DE DABOU","type":"juridiction 1er degre","district_region":null,"departement_commune":null,"verifie":true,"name":"PALAIS DE JUSTICE DE DABOU","source":"Géoportail ANSTAT"}},{"type":"Feature","geometry":{"type":"Point","coordinates":[-2.794783999999936,8.043158000000062]},"properties":{"id":38106,"nom":"PALAIS DE JUSTICE DE BONDOUKOU","type":"juridiction 1er degre","district_region":null,"departement_commune":null,"verifie":true,"name":"PALAIS DE JUSTICE DE BONDOUKOU","source":"Géoportail ANSTAT"}},{"type":"Feature","geometry":{"type":"Point","coordinates":[-5.898052999999948,6.616745000000037]},"properties":{"id":38120,"nom":"PALAIS DE JUSTICE DE SINFRA","type":"juridiction 1er degre","district_region":null,"departement_commune":null,"verifie":true,"name":"PALAIS DE JUSTICE DE SINFRA","source":"Géoportail ANSTAT"}},{"type":"Feature","geometry":{"type":"Point","coordinates":[-4.709153999999955,6.654965000000061]},"properties":{"id":38147,"nom":"PALAIS DE JUSTICE DE DIMBOKRO","type":"juridiction 1er degre","district_region":null,"departement_commune":null,"verifie":true,"name":"PALAIS DE JUSTICE DE DIMBOKRO","source":"Géoportail ANSTAT"}},{"type":"Feature","geometry":{"type":"Point","coordinates":[-4.820626999999945,5.893285000000049]},"properties":{"id":38182,"nom":"PALAIS DE JUSTICE","type":"juridiction 1er degre","district_region":null,"departement_commune":null,"verifie":true,"name":"PALAIS DE JUSTICE","source":"Géoportail ANSTAT"}},{"type":"Feature","geometry":{"type":"Point","coordinates":[-7.554446999999925,7.407330000000059]},"properties":{"id":38286,"nom":"PALAIS DE JUSTICE DE MAN","type":"juridiction 1er degre","district_region":null,"departement_commune":null,"verifie":true,"name":"PALAIS DE JUSTICE DE MAN","source":"Géoportail ANSTAT"}},{"type":"Feature","geometry":{"type":"Point","coordinates":[-8.15051699999998,7.261083000000042]},"properties":{"id":38294,"nom":"PALAIS DE JUSTICE","type":"juridiction 1er degre","district_region":null,"departement_commune":null,"verifie":true,"name":"PALAIS DE JUSTICE","source":"Géoportail ANSTAT"}},{"type":"Feature","geometry":{"type":"Point","coordinates":[-7.687545999999941,8.286684000000037]},"properties":{"id":38309,"nom":"PALAIS DE JUSTICE DE TOUBA","type":"juridiction 1er degre","district_region":null,"departement_commune":null,"verifie":true,"name":"PALAIS DE JUSTICE DE TOUBA","source":"Géoportail ANSTAT"}},{"type":"Feature","geometry":{"type":"Point","coordinates":[-5.030035999999939,6.560466000000076]},"properties":{"id":38715,"nom":"SECTION DE TRIBUNAL DE TOUMODI","type":"juridiction 1er degre","district_region":null,"departement_commune":null,"verifie":true,"name":"SECTION DE TRIBUNAL DE TOUMODI","source":"Géoportail ANSTAT"}},{"type":"Feature","geometry":{"type":"Point","coordinates":[-6.672139999999956,7.961154000000022]},"properties":{"id":38718,"nom":"SECTION DE TRIBUNAL DE SEGUELA","type":"juridiction 1er degre","district_region":null,"departement_commune":null,"verifie":true,"name":"SECTION DE TRIBUNAL DE SEGUELA","source":"Géoportail ANSTAT"}},{"type":"Feature","geometry":{"type":"Point","coordinates":[-3.000031999999976,9.268380000000036]},"properties":{"id":38721,"nom":"SECTION DE TRIBUNAL DE BOUNA","type":"juridiction 1er degre","district_region":null,"departement_commune":null,"verifie":true,"name":"SECTION DE TRIBUNAL DE BOUNA","source":"Géoportail ANSTAT"}},{"type":"Feature","geometry":{"type":"Point","coordinates":[-6.57459799999998,6.488966000000062]},"properties":{"id":38728,"nom":"SECTION DE TRIBUNAL D ISSIA","type":"juridiction 1er degre","district_region":null,"departement_commune":null,"verifie":true,"name":"SECTION DE TRIBUNAL D ISSIA","source":"Géoportail ANSTAT"}},{"type":"Feature","geometry":{"type":"Point","coordinates":[-5.683484999999962,5.855202000000077]},"properties":{"id":38731,"nom":"SECTION DE TRIBUNAL DE LAKOTA","type":"juridiction 1er degre","district_region":null,"departement_commune":null,"verifie":true,"name":"SECTION DE TRIBUNAL DE LAKOTA","source":"Géoportail ANSTAT"}},{"type":"Feature","geometry":{"type":"Point","coordinates":[-3.737651999999969,5.19569400000006]},"properties":{"id":38737,"nom":"SECTION DE TRIBUNAL DE GRAND BASSAM","type":"juridiction 1er degre","district_region":null,"departement_commune":null,"verifie":true,"name":"SECTION DE TRIBUNAL DE GRAND BASSAM","source":"Géoportail ANSTAT"}},{"type":"Feature","geometry":{"type":"Point","coordinates":[-5.630202999999938,9.449662000000046]},"properties":{"id":39195,"nom":"TRIBUNAL DE PREMIERE INSTANCE DE KORHOGO","type":"juridiction 1er degre","district_region":null,"departement_commune":null,"verifie":true,"name":"TRIBUNAL DE PREMIERE INSTANCE DE KORHOGO","source":"Géoportail ANSTAT"}},{"type":"Feature","geometry":{"type":"Point","coordinates":[-6.607028999999955,5.784574000000021]},"properties":{"id":39196,"nom":"TRIBUNAL","type":"juridiction 1er degre","district_region":null,"departement_commune":null,"verifie":true,"name":"TRIBUNAL","source":"Géoportail ANSTAT"}},{"type":"Feature","geometry":{"type":"Point","coordinates":[-6.607053999999948,5.784423000000061]},"properties":{"id":39197,"nom":"TRIBUNAL","type":"juridiction 1er degre","district_region":null,"departement_commune":null,"verifie":true,"name":"TRIBUNAL","source":"Géoportail ANSTAT"}},{"type":"Feature","geometry":{"type":"Point","coordinates":[-5.942545999999936,6.13495000000006]},"properties":{"id":39200,"nom":"TRIBUNAL DE PREMIER INSTANCE DE GAGNOA","type":"juridiction 1er degre","district_region":null,"departement_commune":null,"verifie":true,"name":"TRIBUNAL DE PREMIER INSTANCE DE GAGNOA","source":"Géoportail ANSTAT"}},{"type":"Feature","geometry":{"type":"Point","coordinates":[-5.412711999999942,6.384797000000049]},"properties":{"id":39201,"nom":"TRIBUNAL D OUME","type":"juridiction 1er degre","district_region":null,"departement_commune":null,"verifie":true,"name":"TRIBUNAL D OUME","source":"Géoportail ANSTAT"}},{"type":"Feature","geometry":{"type":"Point","coordinates":[-5.412687999999946,6.384828000000027]},"properties":{"id":39202,"nom":"TRIBUNAL D OUME","type":"juridiction 1er degre","district_region":null,"departement_commune":null,"verifie":true,"name":"TRIBUNAL D OUME","source":"Géoportail ANSTAT"}},{"type":"Feature","geometry":{"type":"Point","coordinates":[-5.259399999999971,7.676768000000038]},"properties":{"id":39209,"nom":"TRIBUNAL D ASSINZE","type":"juridiction 1er degre","district_region":null,"departement_commune":null,"verifie":true,"name":"TRIBUNAL D ASSINZE","source":"Géoportail ANSTAT"}},{"type":"Feature","geometry":{"type":"Point","coordinates":[-4.684001999999964,5.908859000000064]},"properties":{"id":39211,"nom":"TRIBUNAL COUTUMIER DE BODO","type":"juridiction 1er degre","district_region":null,"departement_commune":null,"verifie":true,"name":"TRIBUNAL COUTUMIER DE BODO","source":"Géoportail ANSTAT"}},{"type":"Feature","geometry":{"type":"Point","coordinates":[-6.480503999999939,9.518391000000063]},"properties":{"id":39215,"nom":"TRIBUNAL DE PREMIERE INSTANCE DE KORHOGO SECTION DE BOUNDIALI","type":"juridiction 1er degre","district_region":null,"departement_commune":null,"verifie":true,"name":"TRIBUNAL DE PREMIERE INSTANCE DE KORHOGO SECTION DE BOUNDIALI","source":"Géoportail ANSTAT"}},{"type":"Feature","geometry":{"type":"Point","coordinates":[-7.562676999999951,9.502665000000036]},"properties":{"id":39218,"nom":"TRIBUNAL D ODIENNE","type":"juridiction 1er degre","district_region":null,"departement_commune":null,"verifie":true,"name":"TRIBUNAL D ODIENNE","source":"Géoportail ANSTAT"}},{"type":"Feature","geometry":{"type":"Point","coordinates":[-3.853678999999943,6.112712000000045]},"properties":{"id":39219,"nom":"TRIBUNAL DE PREMIERE INSTANCE D ABIDJAN SECTIN TRIBUNAL D ADZOPE","type":"juridiction 1er degre","district_region":null,"departement_commune":null,"verifie":true,"name":"TRIBUNAL DE PREMIERE INSTANCE D ABIDJAN SECTIN TRIBUNAL D ADZOPE","source":"Géoportail ANSTAT"}},{"type":"Feature","geometry":{"type":"Point","coordinates":[-5.113464999999962,8.142112000000054]},"properties":{"id":39223,"nom":"TRIBUNAL DE KATIOLA","type":"juridiction 1er degre","district_region":null,"departement_commune":null,"verifie":true,"name":"TRIBUNAL DE KATIOLA","source":"Géoportail ANSTAT"}},{"type":"Feature","geometry":{"type":"Point","coordinates":[-4.336046999999951,7.454758000000027]},"properties":{"id":39227,"nom":"TRIBUNAL DE 1ER INSTANCE DE BOUAKE SECTION DE MBAHIAKRO","type":"juridiction 1er degre","district_region":null,"departement_commune":null,"verifie":true,"name":"TRIBUNAL DE 1ER INSTANCE DE BOUAKE SECTION DE MBAHIAKRO","source":"Géoportail ANSTAT"}},{"type":"Feature","geometry":{"type":"Point","coordinates":[-7.354544999999973,4.418686000000037]},"properties":{"id":39247,"nom":"TRIBUNAL DE TABOU","type":"juridiction 1er degre","district_region":null,"departement_commune":null,"verifie":true,"name":"TRIBUNAL DE TABOU","source":"Géoportail ANSTAT"}},{"type":"Feature","geometry":{"type":"Point","coordinates":[-4.020185999999967,5.331470000000024]},"properties":{"id":40539,"nom":"PALAIS DE JUSTICE","type":"juridiction 1er degre","district_region":null,"departement_commune":null,"verifie":true,"name":"PALAIS DE JUSTICE","source":"Géoportail ANSTAT"}},{"type":"Feature","geometry":{"type":"Point","coordinates":[-3.990272999999945,5.396820000000048]},"properties":{"id":40598,"nom":"TRIBUNALE MILITAIRE D ABIDJAN","type":"juridiction 1er degre","district_region":null,"departement_commune":null,"verifie":true,"name":"TRIBUNALE MILITAIRE D ABIDJAN","source":"Géoportail ANSTAT"}},{"type":"Feature","geometry":{"type":"Point","coordinates":[-4.004296999999951,5.355688000000043]},"properties":{"id":40600,"nom":"TRIBUNAL DU COMMERCE","type":"juridiction 1er degre","district_region":null,"departement_commune":null,"verifie":true,"name":"TRIBUNAL DU COMMERCE","source":"Géoportail ANSTAT"}},{"type":"Feature","geometry":{"type":"Point","coordinates":[-4.076878999999963,5.32644700000003]},"properties":{"id":40615,"nom":"TRIBUNAL DE PREMIERE INSTANCE DE YOPOUGON","type":"juridiction 1er degre","district_region":null,"departement_commune":null,"verifie":true,"name":"TRIBUNAL DE PREMIERE INSTANCE DE YOPOUGON","source":"Géoportail ANSTAT"}},{"type":"Feature","geometry":{"type":"Point","coordinates":[-4.021531999999979,5.33047300000004]},"properties":{"id":40632,"nom":"TRIBUNAL DU TRAVAIL DABIDJAN","type":"juridiction 1er degre","district_region":null,"departement_commune":null,"verifie":true,"name":"TRIBUNAL DU TRAVAIL DABIDJAN","source":"Géoportail ANSTAT"}},{"type":"Feature","geometry":{"type":"Point","coordinates":[-3.201593134999939,5.470314603000077]},"properties":{"id":103857,"nom":"SECTION DETACHEE DE TRIBUNAL","type":"juridiction 1er degre","district_region":null,"departement_commune":null,"verifie":true,"name":"SECTION DETACHEE DE TRIBUNAL","source":"Géoportail ANSTAT"}},{"type":"Feature","geometry":{"type":"Point","coordinates":[-5.67830933099998,5.852908280000065]},"properties":{"id":103858,"nom":"SECTION DETACHEE DE TRIBUNAL","type":"juridiction 1er degre","district_region":null,"departement_commune":null,"verifie":true,"name":"SECTION DETACHEE DE TRIBUNAL","source":"Géoportail ANSTAT"}},{"type":"Feature","geometry":{"type":"Point","coordinates":[-3.39307867399998,5.225882726000066]},"properties":{"id":103859,"nom":"SECTION DETACHEE DE TRIBUNAL","type":"juridiction 1er degre","district_region":null,"departement_commune":null,"verifie":true,"name":"SECTION DETACHEE DE TRIBUNAL","source":"Géoportail ANSTAT"}},{"type":"Feature","geometry":{"type":"Point","coordinates":[-4.349654432999955,7.458122539000044]},"properties":{"id":103860,"nom":"SECTION DETACHEE DE TRIBUNAL","type":"juridiction 1er degre","district_region":null,"departement_commune":null,"verifie":true,"name":"SECTION DETACHEE DE TRIBUNAL","source":"Géoportail ANSTAT"}},{"type":"Feature","geometry":{"type":"Point","coordinates":[-7.499701006999942,6.540390679000041]},"properties":{"id":103864,"nom":"SECTION DETACHEE DE TRIBUNAL","type":"juridiction 1er degre","district_region":null,"departement_commune":null,"verifie":true,"name":"SECTION DETACHEE DE TRIBUNAL","source":"Géoportail ANSTAT"}},{"type":"Feature","geometry":{"type":"Point","coordinates":[-6.094728007999947,4.950495444000069]},"properties":{"id":103865,"nom":"SECTION DETACHEE DE TRIBUNAL","type":"juridiction 1er degre","district_region":null,"departement_commune":null,"verifie":true,"name":"SECTION DETACHEE DE TRIBUNAL","source":"Géoportail ANSTAT"}}],"metadata":{"dataset":"Juridiction 1er degre — ANSTAT","source":"Géoportail ANSTAT","theme":"Justice","verified":true,"apercu":"complet"}}