{"type":"FeatureCollection","features":[{"type":"Feature","geometry":{"type":"Point","coordinates":[-5.740800999999976,10.38431400000007]},"properties":{"id":36857,"nom":"DIRECTION DES EAUX ET FORETS","type":"admin securite general national","district_region":null,"departement_commune":null,"verifie":true,"name":"DIRECTION DES EAUX ET FORETS","source":"Géoportail ANSTAT"}},{"type":"Feature","geometry":{"type":"Point","coordinates":[-4.426094999999975,5.22184100000004]},"properties":{"id":36863,"nom":"DIRECTION GENERAL DES AFFAIRES MARITIMES ET PORTUAIRES","type":"admin securite general national","district_region":null,"departement_commune":null,"verifie":true,"name":"DIRECTION GENERAL DES AFFAIRES MARITIMES ET PORTUAIRES","source":"Géoportail ANSTAT"}},{"type":"Feature","geometry":{"type":"Point","coordinates":[-3.210072999999966,5.463868000000048]},"properties":{"id":36881,"nom":"DIRECTION GENERALE DES DOUANES","type":"admin securite general national","district_region":null,"departement_commune":null,"verifie":true,"name":"DIRECTION GENERALE DES DOUANES","source":"Géoportail ANSTAT"}},{"type":"Feature","geometry":{"type":"Point","coordinates":[-7.553688999999963,7.400039000000049]},"properties":{"id":36887,"nom":"DIRECTION GENERALE DES DOUANES","type":"admin securite general national","district_region":null,"departement_commune":null,"verifie":true,"name":"DIRECTION GENERALE DES DOUANES","source":"Géoportail ANSTAT"}},{"type":"Feature","geometry":{"type":"Point","coordinates":[-7.616332999999941,7.739062000000047]},"properties":{"id":36888,"nom":"DIRECTION GENERALE DE LA POLICE  NATIONALE","type":"admin securite general national","district_region":null,"departement_commune":null,"verifie":true,"name":"DIRECTION GENERALE DE LA POLICE  NATIONALE","source":"Géoportail ANSTAT"}},{"type":"Feature","geometry":{"type":"Point","coordinates":[-5.968000999999958,6.945036000000073]},"properties":{"id":36925,"nom":"EAUX ET FORETS DIRECTION PARC NATIONAL DE LA MARAHOUE POSTEBDE GOBAZRA","type":"admin securite general national","district_region":null,"departement_commune":null,"verifie":true,"name":"EAUX ET FORETS DIRECTION PARC NATIONAL DE LA MARAHOUE POSTEBDE GOBAZRA","source":"Géoportail ANSTAT"}},{"type":"Feature","geometry":{"type":"Point","coordinates":[-5.250678999999934,6.804404000000034]},"properties":{"id":38388,"nom":"DIRECTION GENERALE DES DOUANES","type":"admin securite general national","district_region":null,"departement_commune":null,"verifie":true,"name":"DIRECTION GENERALE DES DOUANES","source":"Géoportail ANSTAT"}},{"type":"Feature","geometry":{"type":"Point","coordinates":[-6.480832999999961,9.529375000000073]},"properties":{"id":38839,"nom":"SOCIETE DE DEVELOPPEMENT DES FORETS","type":"admin securite general national","district_region":null,"departement_commune":null,"verifie":true,"name":"SOCIETE DE DEVELOPPEMENT DES FORETS","source":"Géoportail ANSTAT"}},{"type":"Feature","geometry":{"type":"Point","coordinates":[-3.99907799999994,5.39331100000004]},"properties":{"id":39692,"nom":"DIRECTION GENERALE DE LA POLICE NATIONALE","type":"admin securite general national","district_region":null,"departement_commune":null,"verifie":true,"name":"DIRECTION GENERALE DE LA POLICE NATIONALE","source":"Géoportail ANSTAT"}},{"type":"Feature","geometry":{"type":"Point","coordinates":[-3.986176999999941,5.388737000000049]},"properties":{"id":39700,"nom":"DIRECTION DE POLICE FORESTIERE ET DE LEAU","type":"admin securite general national","district_region":null,"departement_commune":null,"verifie":true,"name":"DIRECTION DE POLICE FORESTIERE ET DE LEAU","source":"Géoportail ANSTAT"}},{"type":"Feature","geometry":{"type":"Point","coordinates":[-4.020833999999979,5.321297000000072]},"properties":{"id":39773,"nom":"DIRECTION DE LA POLICE ECONOMIQUE","type":"admin securite general national","district_region":null,"departement_commune":null,"verifie":true,"name":"DIRECTION DE LA POLICE ECONOMIQUE","source":"Géoportail ANSTAT"}},{"type":"Feature","geometry":{"type":"Point","coordinates":[-4.022500999999977,5.324467000000027]},"properties":{"id":39774,"nom":"DIRECTION DU COMMISSARIAT DES ARMEES","type":"admin securite general national","district_region":null,"departement_commune":null,"verifie":true,"name":"DIRECTION DU COMMISSARIAT DES ARMEES","source":"Géoportail ANSTAT"}},{"type":"Feature","geometry":{"type":"Point","coordinates":[-4.019426999999951,5.31791400000003]},"properties":{"id":39782,"nom":"DIRECTION GENERALE DE LA POLICE NATIONALE","type":"admin securite general national","district_region":null,"departement_commune":null,"verifie":true,"name":"DIRECTION GENERALE DE LA POLICE NATIONALE","source":"Géoportail ANSTAT"}},{"type":"Feature","geometry":{"type":"Point","coordinates":[-4.02523999999994,5.30446100000006]},"properties":{"id":39815,"nom":"DIRECTION DES OPERATION MARITIME ET DE LA SECURITE","type":"admin securite general national","district_region":null,"departement_commune":null,"verifie":true,"name":"DIRECTION DES OPERATION MARITIME ET DE LA SECURITE","source":"Géoportail ANSTAT"}},{"type":"Feature","geometry":{"type":"Point","coordinates":[-4.023420999999928,5.303964000000065]},"properties":{"id":39816,"nom":"DIRECTION GENERALE DES DOUANES","type":"admin securite general national","district_region":null,"departement_commune":null,"verifie":true,"name":"DIRECTION GENERALE DES DOUANES","source":"Géoportail ANSTAT"}},{"type":"Feature","geometry":{"type":"Point","coordinates":[-4.011893999999927,5.276801000000034]},"properties":{"id":39817,"nom":"DIRECTION GENERALE DES DOUANES BUREAU 9","type":"admin securite general national","district_region":null,"departement_commune":null,"verifie":true,"name":"DIRECTION GENERALE DES DOUANES BUREAU 9","source":"Géoportail ANSTAT"}},{"type":"Feature","geometry":{"type":"Point","coordinates":[-4.01327299999997,5.320426000000055]},"properties":{"id":40023,"nom":"INSPECTEUR GENERAL ADJOINT DE LA DOUANE","type":"admin securite general national","district_region":null,"departement_commune":null,"verifie":true,"name":"INSPECTEUR GENERAL ADJOINT DE LA DOUANE","source":"Géoportail ANSTAT"}}],"metadata":{"dataset":"Admin securite general national — ANSTAT","source":"Géoportail ANSTAT","theme":"Sécurité","verified":true,"apercu":"complet"}}