{"type":"FeatureCollection","features":[{"type":"Feature","geometry":{"type":"Point","coordinates":[-5.632717999999954,9.44725600000004]},"properties":{"id":38406,"nom":"PREFECTURE DE POLICE","type":"préfecture de police","district_region":null,"departement_commune":null,"verifie":true,"name":"PREFECTURE DE POLICE","source":"Géoportail ANSTAT"}},{"type":"Feature","geometry":{"type":"Point","coordinates":[-6.60155199999997,5.783562000000074]},"properties":{"id":38413,"nom":"PREFECTURE DE POLICE","type":"préfecture de police","district_region":null,"departement_commune":null,"verifie":true,"name":"PREFECTURE DE POLICE","source":"Géoportail ANSTAT"}},{"type":"Feature","geometry":{"type":"Point","coordinates":[-5.943533999999943,6.131134000000031]},"properties":{"id":38444,"nom":"PREFECTURE DE POLICE","type":"préfecture de police","district_region":null,"departement_commune":null,"verifie":true,"name":"PREFECTURE DE POLICE","source":"Géoportail ANSTAT"}},{"type":"Feature","geometry":{"type":"Point","coordinates":[-4.217280999999957,5.931910000000073]},"properties":{"id":38528,"nom":"PREFECTURE DE POLICE","type":"préfecture de police","district_region":null,"departement_commune":null,"verifie":true,"name":"PREFECTURE DE POLICE","source":"Géoportail ANSTAT"}},{"type":"Feature","geometry":{"type":"Point","coordinates":[-5.357256999999947,5.830395000000067]},"properties":{"id":38548,"nom":"PREFECTURE DE POLICE","type":"préfecture de police","district_region":null,"departement_commune":null,"verifie":true,"name":"PREFECTURE DE POLICE","source":"Géoportail ANSTAT"}},{"type":"Feature","geometry":{"type":"Point","coordinates":[-3.499717999999973,6.741453000000035]},"properties":{"id":38564,"nom":"PREFECTURE DE POLICE","type":"préfecture de police","district_region":null,"departement_commune":null,"verifie":true,"name":"PREFECTURE DE POLICE","source":"Géoportail ANSTAT"}},{"type":"Feature","geometry":{"type":"Point","coordinates":[-7.564197999999976,9.502413000000049]},"properties":{"id":38570,"nom":"PREFECTURE DE POLICE D ODIENNE","type":"préfecture de police","district_region":null,"departement_commune":null,"verifie":true,"name":"PREFECTURE DE POLICE D ODIENNE","source":"Géoportail ANSTAT"}},{"type":"Feature","geometry":{"type":"Point","coordinates":[-7.552144999999939,7.403540000000021]},"properties":{"id":38605,"nom":"PREFECTURE DE POLICE","type":"préfecture de police","district_region":null,"departement_commune":null,"verifie":true,"name":"PREFECTURE DE POLICE","source":"Géoportail ANSTAT"}},{"type":"Feature","geometry":{"type":"Point","coordinates":[-4.024634999999932,5.38519100000002]},"properties":{"id":40501,"nom":"PREFECTURE DE POLICE D ABIDJA","type":"préfecture de police","district_region":null,"departement_commune":null,"verifie":true,"name":"PREFECTURE DE POLICE D ABIDJA","source":"Géoportail ANSTAT"}},{"type":"Feature","geometry":{"type":"Point","coordinates":[-4.018009999999947,5.344733000000076]},"properties":{"id":40525,"nom":"PREFECTURE DE POLICE ABIDJAN","type":"préfecture de police","district_region":null,"departement_commune":null,"verifie":true,"name":"PREFECTURE DE POLICE ABIDJAN","source":"Géoportail ANSTAT"}},{"type":"Feature","geometry":{"type":"Point","coordinates":[-4.028890999999931,5.330519000000038]},"properties":{"id":40528,"nom":"PREFECTURE DE POLICE D ABIDJAN","type":"préfecture de police","district_region":null,"departement_commune":null,"verifie":true,"name":"PREFECTURE DE POLICE D ABIDJAN","source":"Géoportail ANSTAT"}}],"metadata":{"dataset":"Préfecture de police — ANSTAT","source":"Géoportail ANSTAT","theme":"Sécurité","verified":true,"apercu":"complet"}}