{"type":"FeatureCollection","features":[{"type":"Feature","geometry":{"type":"Point","coordinates":[-4.019,5.319]},"properties":{"id":"cmreo028i0031126qlcpi4z0i","nom":"État-Major Général des Armées","type":"etat_major","district_region":"Abidjan","departement_commune":"Plateau","verifie":true,"branche":"interarmées","source":"Institut National de la Statistique (INS-CI)"}},{"type":"Feature","geometry":{"type":"Point","coordinates":[-4.023,5.321]},"properties":{"id":"cmreo028n0033126qwgrf5auw","nom":"Camp militaire de Gallieni","type":"camp","district_region":"Abidjan","departement_commune":"Plateau","verifie":true,"branche":"armée de terre","source":"Institut National de la Statistique (INS-CI)"}},{"type":"Feature","geometry":{"type":"Point","coordinates":[-3.92,5.383]},"properties":{"id":"cmreo028r0035126qh8sxh05l","nom":"Camp militaire d'Akouédo","type":"camp","district_region":"Abidjan","departement_commune":"Cocody","verifie":false,"branche":"armée de terre","source":"OpenStreetMap"}},{"type":"Feature","geometry":{"type":"Point","coordinates":[-3.926,5.261]},"properties":{"id":"cmreo028v0037126qvwcls4og","nom":"Base Aérienne d'Abidjan (Port-Bouët)","type":"base_aerienne","district_region":"Abidjan","departement_commune":"Port-Bouët","verifie":true,"branche":"armée de l'air","source":"OpenStreetMap"}},{"type":"Feature","geometry":{"type":"Point","coordinates":[-4.01,5.27]},"properties":{"id":"cmreo028z0039126q4xpom3lb","nom":"Base Navale d'Abidjan","type":"base_navale","district_region":"Abidjan","departement_commune":"Treichville","verifie":false,"branche":"marine","source":"OpenStreetMap"}},{"type":"Feature","geometry":{"type":"Point","coordinates":[-5.4,6.75]},"properties":{"id":"cmreo0293003b126qa0l2lxbf","nom":"Académie Militaire de Zambakro","type":"academie","district_region":"Yamoussoukro","departement_commune":"Yamoussoukro","verifie":false,"branche":"formation","source":"OpenStreetMap"}}],"metadata":{"dataset":"Défense & Militaire — Côte d'Ivoire","source":"Institut National de la Statistique (INS-CI)","theme":"Défense & Militaire","verified":true}}