{"type":"FeatureCollection","features":[{"type":"Feature","geometry":{"type":"Point","coordinates":[-3.9869,5.3467]},"properties":{"id":"cmrev3l7h0015yo7e6smzrf49","nom":"Université Félix Houphouët-Boigny","type":"universite","district_region":"Abidjan","departement_commune":"Cocody","verifie":true,"statut":"public","cycle":"supérieur","source":"Ministère de l'Éducation Nationale"}},{"type":"Feature","geometry":{"type":"Point","coordinates":[-4,5.3838]},"properties":{"id":"cmrev3l7n0017yo7exd6bj1s0","nom":"Université Nangui Abrogoua","type":"universite","district_region":"Abidjan","departement_commune":"Abobo","verifie":true,"statut":"public","cycle":"supérieur","source":"Ministère de l'Éducation Nationale"}},{"type":"Feature","geometry":{"type":"Point","coordinates":[-5.243,6.8081]},"properties":{"id":"cmrev3l7s0019yo7eqyf2jqqe","nom":"INP-HB (Inst. National Polytechnique)","type":"grande_ecole","district_region":"Yamoussoukro","departement_commune":"Yamoussoukro","verifie":true,"statut":"public","cycle":"supérieur","source":"Ministère de l'Éducation Nationale"}},{"type":"Feature","geometry":{"type":"Point","coordinates":[-5.03,7.6939]},"properties":{"id":"cmrev3l7x001byo7e3jv44fxp","nom":"Université Alassane Ouattara","type":"universite","district_region":"Gbêkê","departement_commune":"Bouaké","verifie":true,"statut":"public","cycle":"supérieur","source":"Ministère de l'Éducation Nationale"}},{"type":"Feature","geometry":{"type":"Point","coordinates":[-6.4502,6.8774]},"properties":{"id":"cmrev3l8p001dyo7epvjhc6xj","nom":"Université Jean Lorougnon Guédé","type":"universite","district_region":"Haut-Sassandra","departement_commune":"Daloa","verifie":true,"statut":"public","cycle":"supérieur","source":"Ministère de l'Éducation Nationale"}},{"type":"Feature","geometry":{"type":"Point","coordinates":[-5.6296,9.458]},"properties":{"id":"cmrev3l8u001fyo7ehos3hsnd","nom":"Université Péléforo Gon Coulibaly","type":"universite","district_region":"Poro","departement_commune":"Korhogo","verifie":true,"statut":"public","cycle":"supérieur","source":"Ministère de l'Éducation Nationale"}},{"type":"Feature","geometry":{"type":"Point","coordinates":[-4.01,5.34]},"properties":{"id":"cmrev3l8z001hyo7efbvbnwbf","nom":"Lycée Classique d'Abidjan","type":"lycee","district_region":"Abidjan","departement_commune":"Cocody","verifie":true,"statut":"public","cycle":"secondaire","source":"Ministère de l'Éducation Nationale"}},{"type":"Feature","geometry":{"type":"Point","coordinates":[-4.08,5.345]},"properties":{"id":"cmrev3l94001jyo7ey90e2uw3","nom":"Lycée Municipal de Yopougon","type":"lycee","district_region":"Abidjan","departement_commune":"Yopougon","verifie":true,"statut":"public","cycle":"secondaire","source":"Ministère de l'Éducation Nationale"}},{"type":"Feature","geometry":{"type":"Point","coordinates":[-6.6363,4.7485]},"properties":{"id":"cmrev3l99001lyo7eb7dj0by7","nom":"Lycée Moderne de San-Pédro","type":"lycee","district_region":"San-Pédro","departement_commune":"San-Pédro","verifie":true,"statut":"public","cycle":"secondaire","source":"Ministère de l'Éducation Nationale"}},{"type":"Feature","geometry":{"type":"Point","coordinates":[-7.5538,7.4125]},"properties":{"id":"cmrev3l9d001nyo7ephh9sg42","nom":"Lycée Moderne de Man","type":"lycee","district_region":"Tonkpi","departement_commune":"Man","verifie":true,"statut":"public","cycle":"secondaire","source":"Ministère de l'Éducation Nationale"}}],"metadata":{"dataset":"Éducation — Côte d'Ivoire","source":"Institut National de la Statistique (INS-CI)","theme":"Éducation","verified":true}}