{"type":"FeatureCollection","features":[{"type":"Feature","geometry":{"type":"Point","coordinates":[-4.022,5.325]},"properties":{"id":"cmreo0298003d126q3ahsxowp","nom":"BCEAO — Direction Nationale (Abidjan)","type":"banque_centrale","district_region":"Abidjan","departement_commune":"Plateau","verifie":true,"categorie":"banque centrale","source":"BCEAO"}},{"type":"Feature","geometry":{"type":"Point","coordinates":[-4.02,5.323]},"properties":{"id":"cmreo029c003f126qhqhmzqv1","nom":"BRVM — Bourse Régionale des Valeurs Mobilières","type":"bourse","district_region":"Abidjan","departement_commune":"Plateau","verifie":true,"categorie":"marché financier","source":"BCEAO"}},{"type":"Feature","geometry":{"type":"Point","coordinates":[-4.0175,5.327]},"properties":{"id":"cmreo029g003h126qbm1n0xzw","nom":"Direction Générale du Trésor Public","type":"tresor","district_region":"Abidjan","departement_commune":"Plateau","verifie":true,"categorie":"trésor","source":"BCEAO"}},{"type":"Feature","geometry":{"type":"Point","coordinates":[-4.0185,5.3255]},"properties":{"id":"cmreo029l003j126qiu8kzyer","nom":"Siège SGCI (Société Générale)","type":"banque","district_region":"Abidjan","departement_commune":"Plateau","verifie":false,"categorie":"banque commerciale","source":"OpenStreetMap"}},{"type":"Feature","geometry":{"type":"Point","coordinates":[-4.0165,5.324]},"properties":{"id":"cmreo029q003l126qivzvvepq","nom":"Siège Ecobank Côte d'Ivoire","type":"banque","district_region":"Abidjan","departement_commune":"Plateau","verifie":false,"categorie":"banque commerciale","source":"OpenStreetMap"}},{"type":"Feature","geometry":{"type":"Point","coordinates":[-4.0155,5.3235]},"properties":{"id":"cmreo029u003n126qb98d2c6s","nom":"Siège NSIA Banque","type":"banque","district_region":"Abidjan","departement_commune":"Plateau","verifie":false,"categorie":"banque commerciale","source":"OpenStreetMap"}},{"type":"Feature","geometry":{"type":"Point","coordinates":[-5.032,7.691]},"properties":{"id":"cmreo029y003p126qeivyo2im","nom":"Agence BCEAO de Bouaké","type":"banque_centrale","district_region":"Gbêkê","departement_commune":"Bouaké","verifie":true,"categorie":"banque centrale","source":"BCEAO"}}],"metadata":{"dataset":"Finance — Côte d'Ivoire","source":"Institut National de la Statistique (INS-CI)","theme":"Finance","verified":true}}