{"type":"FeatureCollection","features":[{"type":"Feature","geometry":{"type":"Point","coordinates":[-4.014,5.322]},"properties":{"id":"cmreydoto003xnz65eguxqe7r","nom":"Cour Suprême","type":"cour_supreme","district_region":"Abidjan","departement_commune":"Plateau","verifie":true,"degre":"suprême","source":"Ministère de la Justice et des Droits de l'Homme"}},{"type":"Feature","geometry":{"type":"Point","coordinates":[-4.012,5.32]},"properties":{"id":"cmreydotr003znz65eif9kmne","nom":"Cour d'Appel d'Abidjan","type":"cour_appel","district_region":"Abidjan","departement_commune":"Plateau","verifie":true,"degre":"appel","source":"Ministère de la Justice et des Droits de l'Homme"}},{"type":"Feature","geometry":{"type":"Point","coordinates":[-4.0125,5.321]},"properties":{"id":"cmreydotu0041nz65uez4fv6o","nom":"Tribunal de Première Instance d'Abidjan-Plateau","type":"tribunal","district_region":"Abidjan","departement_commune":"Plateau","verifie":true,"degre":"première instance","source":"Ministère de la Justice et des Droits de l'Homme"}},{"type":"Feature","geometry":{"type":"Point","coordinates":[-5.031,7.692]},"properties":{"id":"cmreydoty0043nz65akxna7we","nom":"Cour d'Appel de Bouaké","type":"cour_appel","district_region":"Gbêkê","departement_commune":"Bouaké","verifie":true,"degre":"appel","source":"Ministère de la Justice et des Droits de l'Homme"}},{"type":"Feature","geometry":{"type":"Point","coordinates":[-6.451,6.877]},"properties":{"id":"cmreydou10045nz656t8fmrt1","nom":"Cour d'Appel de Daloa","type":"cour_appel","district_region":"Haut-Sassandra","departement_commune":"Daloa","verifie":true,"degre":"appel","source":"Ministère de la Justice et des Droits de l'Homme"}},{"type":"Feature","geometry":{"type":"Point","coordinates":[-5.629,9.4585]},"properties":{"id":"cmreydou50047nz65ps7t9nmx","nom":"Tribunal de Première Instance de Korhogo","type":"tribunal","district_region":"Poro","departement_commune":"Korhogo","verifie":false,"degre":"première instance","source":"Ministère de la Justice et des Droits de l'Homme"}},{"type":"Feature","geometry":{"type":"Point","coordinates":[-4.03,5.39]},"properties":{"id":"cmreydou80049nz65v0y6xjq1","nom":"Maison d'Arrêt et de Correction d'Abidjan (MACA)","type":"penitentiaire","district_region":"Abidjan","departement_commune":"Yopougon","verifie":true,"degre":"pénitentiaire","source":"Ministère de la Justice et des Droits de l'Homme"}}],"metadata":{"dataset":"Justice — Côte d'Ivoire","source":"Institut National de la Statistique (INS-CI)","theme":"Justice","verified":true,"apercu":"complet"}}