{"type":"FeatureCollection","features":[{"type":"Feature","geometry":{"type":"Point","coordinates":[-3.986,5.348]},"properties":{"id":"cmreo025m001p126qfit486jj","nom":"CHU de Cocody","type":"chu","district_region":"Abidjan","departement_commune":"Cocody","verifie":true,"niveau":"tertiaire","source":"Ministère de la Santé et de l'Hygiène Publique"}},{"type":"Feature","geometry":{"type":"Point","coordinates":[-4.002,5.293]},"properties":{"id":"cmreo025q001r126qza9qreuq","nom":"CHU de Treichville","type":"chu","district_region":"Abidjan","departement_commune":"Treichville","verifie":true,"niveau":"tertiaire","source":"Ministère de la Santé et de l'Hygiène Publique"}},{"type":"Feature","geometry":{"type":"Point","coordinates":[-4.085,5.34]},"properties":{"id":"cmreo025u001t126q770my7eh","nom":"CHU de Yopougon","type":"chu","district_region":"Abidjan","departement_commune":"Yopougon","verifie":true,"niveau":"tertiaire","source":"Ministère de la Santé et de l'Hygiène Publique"}},{"type":"Feature","geometry":{"type":"Point","coordinates":[-3.988,5.349]},"properties":{"id":"cmreo025y001v126qljrrqobr","nom":"Institut de Cardiologie d'Abidjan","type":"institut","district_region":"Abidjan","departement_commune":"Cocody","verifie":true,"niveau":"spécialisé","source":"Ministère de la Santé et de l'Hygiène Publique"}},{"type":"Feature","geometry":{"type":"Point","coordinates":[-5.03,7.69]},"properties":{"id":"cmreo0262001x126qftfj7z7t","nom":"CHU de Bouaké","type":"chu","district_region":"Gbêkê","departement_commune":"Bouaké","verifie":true,"niveau":"tertiaire","source":"Ministère de la Santé et de l'Hygiène Publique"}},{"type":"Feature","geometry":{"type":"Point","coordinates":[-6.4502,6.8774]},"properties":{"id":"cmreo0267001z126qwo8ynwvd","nom":"CHR de Daloa","type":"chr","district_region":"Haut-Sassandra","departement_commune":"Daloa","verifie":true,"niveau":"régional","source":"Ministère de la Santé et de l'Hygiène Publique"}},{"type":"Feature","geometry":{"type":"Point","coordinates":[-5.6296,9.458]},"properties":{"id":"cmreo026b0021126q9t6yceb5","nom":"CHR de Korhogo","type":"chr","district_region":"Poro","departement_commune":"Korhogo","verifie":true,"niveau":"régional","source":"Ministère de la Santé et de l'Hygiène Publique"}},{"type":"Feature","geometry":{"type":"Point","coordinates":[-6.6363,4.7485]},"properties":{"id":"cmreo026f0023126qitdwuus3","nom":"CHR de San-Pédro","type":"chr","district_region":"San-Pédro","departement_commune":"San-Pédro","verifie":true,"niveau":"régional","source":"Ministère de la Santé et de l'Hygiène Publique"}},{"type":"Feature","geometry":{"type":"Point","coordinates":[-7.5538,7.4125]},"properties":{"id":"cmreo026k0025126q7kq1i6vy","nom":"CHR de Man","type":"chr","district_region":"Tonkpi","departement_commune":"Man","verifie":true,"niveau":"régional","source":"Ministère de la Santé et de l'Hygiène Publique"}},{"type":"Feature","geometry":{"type":"Point","coordinates":[-3.4964,6.7297]},"properties":{"id":"cmreo026o0027126qozgqam82","nom":"CHR d'Abengourou","type":"chr","district_region":"Indénié-Djuablin","departement_commune":"Abengourou","verifie":false,"niveau":"régional","source":"OpenStreetMap"}},{"type":"Feature","geometry":{"type":"Point","coordinates":[-5.3512,5.845400000000001]},"properties":{"id":"cmreo02b10047126qv2nlqnk1","nom":"Hôpital Général de Divo","type":"hopital","district_region":"Lôh-Djiboua","departement_commune":"Divo","verifie":false,"niveau":"général","source":"OpenStreetMap"}},{"type":"Feature","geometry":{"type":"Point","coordinates":[-5.944599999999999,6.1379]},"properties":{"id":"cmreo02ba004b126qh2qahx9s","nom":"Hôpital Général de Gagnoa","type":"hopital","district_region":"Gôh","departement_commune":"Gagnoa","verifie":false,"niveau":"général","source":"OpenStreetMap"}},{"type":"Feature","geometry":{"type":"Point","coordinates":[-6.5876,5.7907]},"properties":{"id":"cmreo02bk004f126q9ev9nuns","nom":"Hôpital Général de Soubré","type":"hopital","district_region":"Nawa","departement_commune":"Soubré","verifie":false,"niveau":"général","source":"OpenStreetMap"}},{"type":"Feature","geometry":{"type":"Point","coordinates":[-6.6671,7.9671]},"properties":{"id":"cmreo02bu004j126qi94091ur","nom":"Hôpital Général de Séguéla","type":"hopital","district_region":"Worodougou","departement_commune":"Séguéla","verifie":false,"niveau":"général","source":"OpenStreetMap"}},{"type":"Feature","geometry":{"type":"Point","coordinates":[-7.5607,9.506]},"properties":{"id":"cmreo02c3004n126qk6zrnjal","nom":"Hôpital Général de Odienné","type":"hopital","district_region":"Kabadougou","departement_commune":"Odienné","verifie":false,"niveau":"général","source":"OpenStreetMap"}},{"type":"Feature","geometry":{"type":"Point","coordinates":[-2.794,8.0462]},"properties":{"id":"cmreo02cb004r126qqkondy34","nom":"Hôpital Général de Bondoukou","type":"hopital","district_region":"Gontougo","departement_commune":"Bondoukou","verifie":false,"niveau":"général","source":"OpenStreetMap"}},{"type":"Feature","geometry":{"type":"Point","coordinates":[-2.994,9.2727]},"properties":{"id":"cmreo02cl004v126qf1r4w4xj","nom":"Hôpital Général de Bouna","type":"hopital","district_region":"Bounkani","departement_commune":"Bouna","verifie":false,"niveau":"général","source":"OpenStreetMap"}},{"type":"Feature","geometry":{"type":"Point","coordinates":[-5.1887,9.5988]},"properties":{"id":"cmreo02ct004z126qp4qzmz4y","nom":"Hôpital Général de Ferkessédougou","type":"hopital","district_region":"Tchologo","departement_commune":"Ferkessédougou","verifie":false,"niveau":"général","source":"OpenStreetMap"}},{"type":"Feature","geometry":{"type":"Point","coordinates":[-6.4809,9.5277]},"properties":{"id":"cmreo02d30053126qt2od1tzy","nom":"Hôpital Général de Boundiali","type":"hopital","district_region":"Bagoué","departement_commune":"Boundiali","verifie":false,"niveau":"général","source":"OpenStreetMap"}},{"type":"Feature","geometry":{"type":"Point","coordinates":[-5.093999999999999,8.1393]},"properties":{"id":"cmreo02dd0057126qlxirm8xo","nom":"Hôpital Général de Katiola","type":"hopital","district_region":"Hambol","departement_commune":"Katiola","verifie":false,"niveau":"général","source":"OpenStreetMap"}},{"type":"Feature","geometry":{"type":"Point","coordinates":[-4.3712,5.3316]},"properties":{"id":"cmreo02do005b126q25pz3pc4","nom":"Hôpital Général de Dabou","type":"hopital","district_region":"Grands-Ponts","departement_commune":"Dabou","verifie":false,"niveau":"général","source":"OpenStreetMap"}},{"type":"Feature","geometry":{"type":"Point","coordinates":[-4.2071,5.934]},"properties":{"id":"cmreo02dz005f126qceozsjzk","nom":"Hôpital Général de Agboville","type":"hopital","district_region":"Agnéby-Tiassa","departement_commune":"Agboville","verifie":false,"niveau":"général","source":"OpenStreetMap"}},{"type":"Feature","geometry":{"type":"Point","coordinates":[-3.8559,6.112900000000001]},"properties":{"id":"cmreo02e9005j126qmq2ytl0b","nom":"Hôpital Général de Adzopé","type":"hopital","district_region":"La Mé","departement_commune":"Adzopé","verifie":false,"niveau":"général","source":"OpenStreetMap"}},{"type":"Feature","geometry":{"type":"Point","coordinates":[-3.194,5.472700000000001]},"properties":{"id":"cmreo02ej005n126q3b9faizo","nom":"Hôpital Général de Aboisso","type":"hopital","district_region":"Sud-Comoé","departement_commune":"Aboisso","verifie":false,"niveau":"général","source":"OpenStreetMap"}},{"type":"Feature","geometry":{"type":"Point","coordinates":[-4.694,6.656000000000001]},"properties":{"id":"cmreo02et005r126q1j4xsyg2","nom":"Hôpital Général de Dimbokro","type":"hopital","district_region":"N'Zi","departement_commune":"Dimbokro","verifie":false,"niveau":"général","source":"OpenStreetMap"}},{"type":"Feature","geometry":{"type":"Point","coordinates":[-4.194,6.656000000000001]},"properties":{"id":"cmreo02f3005v126q5bds3n05","nom":"Hôpital Général de Bongouanou","type":"hopital","district_region":"Moronou","departement_commune":"Bongouanou","verifie":false,"niveau":"général","source":"OpenStreetMap"}},{"type":"Feature","geometry":{"type":"Point","coordinates":[-5.0107,6.5727]},"properties":{"id":"cmreo02fd005z126q9hupbnvo","nom":"Hôpital Général de Toumodi","type":"hopital","district_region":"Bélier","departement_commune":"Toumodi","verifie":false,"niveau":"général","source":"OpenStreetMap"}},{"type":"Feature","geometry":{"type":"Point","coordinates":[-7.3376,6.7479]},"properties":{"id":"cmreo02fm0063126qj8owqoi9","nom":"Hôpital Général de Duékoué","type":"hopital","district_region":"Guémon","departement_commune":"Duékoué","verifie":false,"niveau":"général","source":"OpenStreetMap"}},{"type":"Feature","geometry":{"type":"Point","coordinates":[-7.4809,6.5502]},"properties":{"id":"cmreo02fx0067126qqcxincav","nom":"Hôpital Général de Guiglo","type":"hopital","district_region":"Cavally","departement_commune":"Guiglo","verifie":false,"niveau":"général","source":"OpenStreetMap"}},{"type":"Feature","geometry":{"type":"Point","coordinates":[-6.0773,4.956]},"properties":{"id":"cmreo02g8006b126qcsnzst8n","nom":"Hôpital Général de Sassandra","type":"hopital","district_region":"Gbôklé","departement_commune":"Sassandra","verifie":false,"niveau":"général","source":"OpenStreetMap"}},{"type":"Feature","geometry":{"type":"Point","coordinates":[-7.8282,9.6257]},"properties":{"id":"cmreo02gi006f126qbjbyxt2r","nom":"Hôpital Général de Minignan","type":"hopital","district_region":"Folon","departement_commune":"Minignan","verifie":false,"niveau":"général","source":"OpenStreetMap"}},{"type":"Feature","geometry":{"type":"Point","coordinates":[-7.6773,8.2893]},"properties":{"id":"cmreo02gs006j126qs4qdy2ss","nom":"Hôpital Général de Touba","type":"hopital","district_region":"Bafing","departement_commune":"Touba","verifie":false,"niveau":"général","source":"OpenStreetMap"}},{"type":"Feature","geometry":{"type":"Point","coordinates":[-5.7384,6.9968]},"properties":{"id":"cmreo02h2006n126qwbk3yla1","nom":"Hôpital Général de Bouaflé","type":"hopital","district_region":"Marahoué","departement_commune":"Bouaflé","verifie":false,"niveau":"général","source":"OpenStreetMap"}},{"type":"Feature","geometry":{"type":"Point","coordinates":[-6.5812,6.498200000000001]},"properties":{"id":"cmreo02hc006r126qzcmqbpfs","nom":"Hôpital Général de Issia","type":"hopital","district_region":"Haut-Sassandra","departement_commune":"Issia","verifie":false,"niveau":"général","source":"OpenStreetMap"}},{"type":"Feature","geometry":{"type":"Point","coordinates":[-6.4718,7.3893]},"properties":{"id":"cmreo02hl006v126qw6zzizhj","nom":"Hôpital Général de Vavoua","type":"hopital","district_region":"Haut-Sassandra","departement_commune":"Vavoua","verifie":false,"niveau":"général","source":"OpenStreetMap"}},{"type":"Feature","geometry":{"type":"Point","coordinates":[-3.7326,5.2178]},"properties":{"id":"cmreo02hw006z126qgcazt5wg","nom":"Hôpital Général de Grand-Bassam","type":"hopital","district_region":"Sud-Comoé","departement_commune":"Grand-Bassam","verifie":false,"niveau":"général","source":"OpenStreetMap"}},{"type":"Feature","geometry":{"type":"Point","coordinates":[-3.1607,7.808800000000001]},"properties":{"id":"cmreo02i50073126q1smv1ol4","nom":"Hôpital Général de Tanda","type":"hopital","district_region":"Gontougo","departement_commune":"Tanda","verifie":false,"niveau":"général","source":"OpenStreetMap"}},{"type":"Feature","geometry":{"type":"Point","coordinates":[-3.9571,7.0646]},"properties":{"id":"cmreo02ie0077126qcl3r8pfr","nom":"Hôpital Général de Daoukro","type":"hopital","district_region":"Iffou","departement_commune":"Daoukro","verifie":false,"niveau":"général","source":"OpenStreetMap"}},{"type":"Feature","geometry":{"type":"Point","coordinates":[-4.487299999999999,7.069100000000001]},"properties":{"id":"cmreo02io007b126q0ohctabu","nom":"Hôpital Général de Bocanda","type":"hopital","district_region":"N'Zi","departement_commune":"Bocanda","verifie":false,"niveau":"général","source":"OpenStreetMap"}},{"type":"Feature","geometry":{"type":"Point","coordinates":[-5.9159,6.626300000000001]},"properties":{"id":"cmreo02iy007f126qfcb6w2c3","nom":"Hôpital Général de Sinfra","type":"hopital","district_region":"Marahoué","departement_commune":"Sinfra","verifie":false,"niveau":"général","source":"OpenStreetMap"}}],"metadata":{"dataset":"Santé — Côte d'Ivoire","source":"Institut National de la Statistique (INS-CI)","theme":"Santé","verified":true}}