{"type":"FeatureCollection","features":[{"type":"Feature","geometry":{"type":"Point","coordinates":[-4.021,5.321]},"properties":{"id":"cmre66ywq002gb8aeifvt3a4r","nom":"Direction Générale de la Police Nationale","type":"police","district_region":"Abidjan","departement_commune":"Plateau","verifie":true,"corps":"police","source":"OpenStreetMap"}},{"type":"Feature","geometry":{"type":"Point","coordinates":[-4.016,5.324]},"properties":{"id":"cmre66ywt002ib8aedjk0eq91","nom":"Commissariat du 1er Arrondissement (Plateau)","type":"commissariat","district_region":"Abidjan","departement_commune":"Plateau","verifie":true,"corps":"police","source":"OpenStreetMap"}},{"type":"Feature","geometry":{"type":"Point","coordinates":[-4,5.335]},"properties":{"id":"cmre66ywx002kb8ae6ds3ahxn","nom":"Direction Générale de la Gendarmerie","type":"gendarmerie","district_region":"Abidjan","departement_commune":"Cocody","verifie":true,"corps":"gendarmerie","source":"OpenStreetMap"}},{"type":"Feature","geometry":{"type":"Point","coordinates":[-5.035,7.69]},"properties":{"id":"cmre66yx0002mb8aexhl9o9eb","nom":"Groupement de Gendarmerie de Bouaké","type":"gendarmerie","district_region":"Gbêkê","departement_commune":"Bouaké","verifie":false,"corps":"gendarmerie","source":"OpenStreetMap"}},{"type":"Feature","geometry":{"type":"Point","coordinates":[-6.64,4.75]},"properties":{"id":"cmre66yx4002ob8aeqxq5pg3x","nom":"Commissariat de San-Pédro","type":"commissariat","district_region":"San-Pédro","departement_commune":"San-Pédro","verifie":false,"corps":"police","source":"OpenStreetMap"}},{"type":"Feature","geometry":{"type":"Point","coordinates":[-4.005,5.33]},"properties":{"id":"cmre66yx8002qb8aealrhtoe9","nom":"Office National de la Protection Civile","type":"protection_civile","district_region":"Abidjan","departement_commune":"Cocody","verifie":false,"corps":"protection civile","source":"OpenStreetMap"}}],"metadata":{"dataset":"Sécurité — Côte d'Ivoire","source":"Institut National de la Statistique (INS-CI)","theme":"Sécurité","verified":true}}