{"type":"FeatureCollection","metadata":{"dataset":"Indicateurs Banque Mondiale — Côte d'Ivoire","source":"Banque Mondiale","theme":"indicateurs","license":"CC BY 4.0","verified":true},"features":[{"type":"Feature","geometry":{"type":"Point","coordinates":[-5.55,7.54]},"properties":{"name":"Population totale — Côte d'Ivoire","featureType":"indicateur","theme":"indicateurs","source":"Banque Mondiale","admin1":"National","verified":true,"indicateur":"SP.POP.TOTL","annee":2024,"valeur":31934230,"unite":"habitants","serie_10ans":"{\"2015\":25246342,\"2016\":25989405,\"2017\":26733372,\"2018\":27464173,\"2019\":28193009,\"2020\":28915449,\"2021\":29639736,\"2022\":30395002,\"2023\":31165654,\"2024\":31934230}"}},{"type":"Feature","geometry":{"type":"Point","coordinates":[-5.55,7.54]},"properties":{"name":"PIB (USD courants) — Côte d'Ivoire","featureType":"indicateur","theme":"indicateurs","source":"Banque Mondiale","admin1":"National","verified":true,"indicateur":"NY.GDP.MKTP.CD","annee":2023,"valeur":78788828906.86345,"unite":"USD","serie_10ans":"{\"2014\":48843005613.70906,\"2015\":45815005169.26511,\"2016\":48407761036.82379,\"2017\":52512343996.68996,\"2018\":58522477786.68885,\"2019\":60382894697.35568,\"2020\":63027852805.42045,\"2021\":72794636653.77934,\"2022\":70173140101.43147,\"2023\":78788828906.86345}"}}]}